Address,Grades,School_ID,ALD_15,Grade_Cat,:created_at,:id,:updated_at,:version,Short_Name,Longitude,Latitude,the_geom,GeoNetwork,WARD_15,Phone,Network,COMMAREA,Governance,Zip
4647 W 47th St,"K, 1, 2, 3, 4, 5, 6, 7, 8",400009,Edward M. Burke,ES,2015-12-02T17:40:19.962Z,row-pz3c.4283-n5zp,2015-12-02T17:40:19.962Z,rv-yh2u.dsuh-mrem,GLOBAL CITIZENSHIP,-87.740097,41.807579,POINT (-87.74009743613836 41.807578507967094),8,14,1(773)582-1100,Charter,GARFIELD RIDGE,Charter,60632
5410 S State St,"9, 10, 11, 12",400010,Patricia R. Dowell,HS,2015-12-02T17:40:19.962Z,row-b77d_qgv9.dt2k,2015-12-02T17:40:19.962Z,rv-6npg~jtsb.bmfw,ACE TECH HS,-87.625849,41.796122,POINT (-87.62584903706896 41.79612150995044),9,3,1(773)548-8705,Charter,WASHINGTON PARK,Charter,60609
3141 W Jackson Blvd,"K, 1, 2, 3, 4, 5, 6, 7, 8",400011,Jason C. Ervin,ES,2015-12-02T17:40:19.962Z,row-9icp_4yir-2t7k,2015-12-02T17:40:19.962Z,rv-gn5y_zixw-zzmu,LOCKE A,-87.705235,41.877248,POINT (-87.70523452625956 41.87724835299213),5,28,1(773)265-7232,Charter,EAST GARFIELD PARK,Charter,60612
6800 S Stewart Ave,"5, 6, 7, 8, 9, 10, 11, 12",400012,Roderick T. Sawyer,HS,2015-12-02T17:40:19.962Z,row-h9sd~ma7f.i2qr,2015-12-02T17:40:19.962Z,rv-rkfq~kyc4_f5wa,AMANDLA HS,-87.635472,41.770802,POINT (-87.63547156926643 41.770802254890796),11,6,1(773)535-7150,Charter,ENGLEWOOD,Charter,60621
3986 W Barry Ave,"9, 10, 11, 12",400013,Ariel E. Reboyras,HS,2015-12-02T17:40:19.962Z,row-esxr-9urc.f63y,2015-12-02T17:40:19.962Z,rv-hmbs.h543.zkez,ASPIRA - EARLY COLLEGE HS,-87.727096,41.937298,POINT (-87.72709565820865 41.93729828541329),4,30,1(773)252-0970 x137,Charter,AVONDALE,Charter,60618
3729 W Leland Ave,"6, 7, 8",400017,Rey Colon,ES,2015-12-02T17:40:19.962Z,row-7fkm.zra5-ka9d,2015-12-02T17:40:19.962Z,rv-rxbh~dswn-kh7s,ASPIRA - HAUGAN,-87.721825,41.966406,POINT (-87.72182466558088 41.966405668114774),1,35,1(773)252-0970,Charter,ALBANY PARK,Charter,60625
231 N Pine Ave,"9, 10, 11, 12",400018,Jason C. Ervin,HS,2015-12-02T17:40:19.962Z,row-v4bh_qh7n~bm74,2015-12-02T17:40:19.962Z,rv-f59c_ecip-vxxx,AUSTIN BUS & ENTRP HS,-87.761891,41.884205,POINT (-87.7618910168905 41.88420467213537),3,28,1(773)534-6316,Network 3,AUSTIN,District,60644
8 W Root St,"K, 1, 2, 3, 4, 5, 6, 7, 8",400019,Patricia R. Dowell,ES,2015-12-02T17:40:19.962Z,row-zcex_ahw9_f9sg,2015-12-02T17:40:19.962Z,rv-54jg-nng9.rtr9,BRONZEVILLE LIGHTHOUSE,-87.626622,41.819277,POINT (-87.62662180147294 41.81927661121183),9,3,1(773)535-1460,Charter,GRAND BOULEVARD,Charter,60609
5608 W Washington Blvd,"K, 1, 2, 3, 4, 5, 6, 7, 8",400021,Deborah L. Graham,ES,2015-12-02T17:40:19.962Z,row-tt7d_yxm9.z2qu,2015-12-02T17:40:19.962Z,rv-cz6g_yhth.axd2,CATALYST - CIRCLE ROCK,-87.765322,41.882322,POINT (-87.76532197834266 41.88232222150662),3,29,1(773)945-5025,Charter,AUSTIN,Charter,60644
2714 W Augusta Blvd,"9, 10, 11, 12",400022,Roberto Maldonado,HS,2015-12-02T17:40:19.962Z,row-f7bg-gsbc~rgfk,2015-12-02T17:40:19.962Z,rv-4f48-z7si.5nuf,CHICAGO ARTS HS,-87.694945,41.899377,POINT (-87.69494501132053 41.89937657364465),5,26,1(773)534-9710,Contract,WEST TOWN,Contract,60622
1501 E 83rd Pl,"K, 1, 2, 3, 4, 5, 6, 7, 8",400023,Michelle A. Harris,ES,2015-12-02T17:40:19.962Z,row-cm9s~aztd-ew2c,2015-12-02T17:40:19.962Z,rv-f4v7.4ahs.ie2b,CICS - AVALON/SOUTH SHORE,-87.587928,41.743179,POINT (-87.58792764106879 41.74317942082191),12,8,1(773)721-0858,Charter,AVALON PARK,Charter,60619
1816 W Garfield Blvd,"K, 1, 2, 3, 4, 5, 6, 7, 8",400024,JoAnn Thompson,ES,2015-12-02T17:40:19.962Z,row-tqhv_zeqj.z6kt,2015-12-02T17:40:19.962Z,rv-94ig.pshg.w2e4,CICS - BASIL,-87.670243,41.794043,POINT (-87.67024265743187 41.79404286409502),11,16,1(773)778-9455,Charter,NEW CITY,Charter,60609
2235 N Hamilton Ave,"K, 1, 2, 3, 4, 5, 6, 7, 8",400025,Scott Waguespack,ES,2015-12-02T17:40:19.962Z,row-kmgz.8qcw.7zd2,2015-12-02T17:40:19.962Z,rv-evka.9h9g_xacu,CICS - BUCKTOWN,-87.681358,41.922415,POINT (-87.68135796457504 41.922414630258146),6,32,1(773)645-3321,Charter,LOGAN SQUARE,Charter,60647
9535 S Loomis St,"K, 1, 2",400026,"Howard B. Brookins, Jr.",ES,2015-12-02T17:40:19.962Z,row-rqfj_wg9b_8mp9,2015-12-02T17:40:19.962Z,rv-w8hi-vi68_is57,CICS - LOOMIS,-87.657561,41.720246,POINT (-87.6575610581237 41.7202464236384),11,21,1(773)429-8955,Charter,WASHINGTON HEIGHTS,Charter,60643
3820 N Spaulding Ave,"K, 1, 2, 3, 4, 5, 6, 7, 8",400027,Deborah Mell,ES,2015-12-02T17:40:19.962Z,row-jju7~ihe9_2hee,2015-12-02T17:40:19.962Z,rv-khjw.wvik.3ee8,CICS - IRVING PARK,-87.710492,41.950891,POINT (-87.71049242868855 41.950891275251905),1,33,1(773)433-5000,Charter,IRVING PARK,Charter,60618
11530 S Prairie Ave,"K, 1, 2, 3, 4, 5, 6, 7, 8",400028,Anthony A. Beale,ES,2015-12-02T17:40:19.962Z,row-gtay~vz4r~vxuc,2015-12-02T17:40:19.962Z,rv-aqg4-2wz9_ddhh,CICS - PRAIRIE,-87.616888,41.684433,POINT (-87.61688838205525 41.68443303904943),13,9,1(773)928-0480,Charter,WEST PULLMAN,Charter,60628
6105 S Michigan Ave,"K, 1, 2, 3, 4, 5, 6, 7, 8",400029,Willie B. Cochran,ES,2015-12-02T17:40:19.962Z,row-wyq4_hezd~fcck,2015-12-02T17:40:19.962Z,rv-zvhn_mwmx-9sb7,CICS - WASHINGTON PARK,-87.622068,41.783617,POINT (-87.62206845448584 41.783616846957266),9,20,1(773)324-3300,Charter,WASHINGTON PARK,Charter,60637
2245 N McVicker Ave,"K, 1, 2, 3, 4, 5, 6, 7, 8",400030,Nicholas Sposato,ES,2015-12-02T17:40:19.962Z,row-u8ss-668x_bjyt,2015-12-02T17:40:19.962Z,rv-5fv9.2fhd_eyj9,CICS - WEST BELDEN,-87.776749,41.921687,POINT (-87.77674853907035 41.921687495626934),3,36,1(773)637-9430,Charter,BELMONT CRAGIN,Charter,60639
8130 S California Ave,"K, 1, 2, 3, 4, 5, 6, 7, 8",400031,Lona Lane,ES,2015-12-02T17:40:19.962Z,row-3vie~tsud_x9zk,2015-12-02T17:40:19.962Z,rv-ab5p-yez4~kapc,CICS - WRIGHTWOOD,-87.692614,41.745365,POINT (-87.6926143989889 41.745365451015516),10,18,1(773)434-4575,Charter,ASHBURN,Charter,60652
1817 W 80th St,"9, 10, 11, 12",400032,Latasha R. Thomas,HS,2015-12-02T17:40:19.962Z,row-vggj_r96h_rg4c,2015-12-02T17:40:19.962Z,rv-k84y_asyw.74va,CICS - ELLISON HS,-87.66898,41.748382,POINT (-87.6689796392726 41.748382408774084),11,17,1(773)478-4434,Charter,AUBURN GRESHAM,Charter,60620
1309 W 95th St,"3, 4, 5, 6, 7, 8, 9, 10, 11, 12",400033,"Howard B. Brookins, Jr.",HS,2015-12-02T17:40:19.962Z,row-92q4.t3ah-hvw9,2015-12-02T17:40:19.962Z,rv-8835_34qu~vexa,CICS - LONGWOOD,-87.655768,41.721221,POINT (-87.65576813289731 41.72122143327729),11,21,1(773)238-5330,Charter,WASHINGTON HEIGHTS,Charter,60643
3900 W Peterson Ave,"9, 10, 11, 12",400034,Margaret Laurino,HS,2015-12-02T17:40:19.962Z,row-tym3-fbca.b3mb,2015-12-02T17:40:19.962Z,rv-2c4e_jmuy-uny6,CICS - NORTHTOWN HS,-87.726504,41.990245,POINT (-87.72650426436232 41.99024501196333),1,39,1(773)478-3655,Charter,NORTH PARK,Charter,60659
7212 N Clark St,"6, 7, 8, 9, 10, 11, 12",400035,Joe A. Moore,HS,2015-12-02T17:40:19.962Z,row-rd2h-sijg~8jbg,2015-12-02T17:40:19.962Z,rv-cz3f.ez88_ighd,CHICAGO MATH & SCIENCE HS,-87.674818,42.013031,POINT (-87.67481841787252 42.013031490060015),2,49,1(773)761-8960,Charter,ROGERS PARK,Charter,60626
38 S Peoria St,"K, 1, 2, 3, 4, 5, 6, 7, 8, 9, 10, 11, 12",400036,Daniel S. Solis,HS,2015-12-02T17:40:19.962Z,row-68yp.9yrv-at3b,2015-12-02T17:40:19.962Z,rv-r5ad~ecjf-yir7,CHICAGO VIRTUAL,-87.649772,41.88055,POINT (-87.6497724848787 41.880550112474594),6,25,1(312)267-4486,Charter,NEAR WEST SIDE,Charter,60607
1239 S Pulaski Rd,"11, 12",400038,Michael D. Chandler,HS,2015-12-02T17:40:19.962Z,row-xg3a-zyp5-w6ec,2015-12-02T17:40:19.962Z,rv-hjs6~wvh6~7jug,COMMUNITY SERVICES WEST HS,-87.725022,41.864952,POINT (-87.72502202021207 41.864952259766675),5,24,1(773)522-5133,Options,NORTH LAWNDALE,Contract,60623
1405 N Washtenaw Ave,"K, 1, 2, 3, 4, 5, 6, 7, 8",400039,Proco (Joe) Moreno III,ES,2015-12-02T17:40:19.962Z,row-nxxg-z8z9_74ph,2015-12-02T17:40:19.962Z,rv-w7c7.xw5c_3uvw,ERIE,-87.694364,41.906771,POINT (-87.69436444553965 41.906770635439514),5,1,1(773)486-7161,Charter,WEST TOWN,Charter,60622
3711 W Douglas Blvd,"K, 1, 2, 3, 4, 5, 6, 7, 8",400040,Michael D. Chandler,ES,2015-12-02T17:40:19.962Z,row-q3ay~edg3_7mpb,2015-12-02T17:40:19.962Z,rv-6u99_47xr_rcg6,FRAZIER CHARTER,-87.717642,41.862077,POINT (-87.71764197611792 41.86207686420526),5,24,1(773)534-6776,Charter,NORTH LAWNDALE,Charter,60624
3814 W Iowa St,"K, 1, 2, 3, 4, 5, 6, 7, 8",400041,"Walter Burnett, Jr.",ES,2015-12-02T17:40:19.962Z,row-aqbx-fn4s_xh28,2015-12-02T17:40:19.962Z,rv-p75d-uq7t-dtde,GALAPAGOS,-87.721959,41.897313,POINT (-87.72195903870256 41.89731302504434),5,27,1(773)384-9400,Charter,HUMBOLDT PARK,Charter,60651
1628 W Washington,"K, 1, 2, 3, 4, 5",400043,"Walter Burnett, Jr.",ES,2015-12-02T17:40:19.962Z,row-gs2x_fjwc~rips,2015-12-02T17:40:19.962Z,rv-b445_i7fd~qkqe,HOPE INSTITUTE,-87.668077,41.883362,POINT (-87.66807694586068 41.88336202716673),6,27,1(773)534-7405,Contract,NEAR WEST SIDE,Contract,60612
1616 S Avers Ave,"6, 7, 8",400044,Michael D. Chandler,ES,2015-12-02T17:40:19.962Z,row-mnig_2s9q-3vbj,2015-12-02T17:40:19.962Z,rv-w74q.5mi2~z7hh,KIPP - ASCEND,-87.721071,41.85837,POINT (-87.7210706466709 41.85836974406114),5,24,1(773)521-4766,Charter,NORTH LAWNDALE,Charter,60623
314 W 108th St,"K, 1, 2, 3, 4, 5, 6, 7, 8",400045,Carrie M. Austin,ES,2015-12-02T17:40:19.962Z,row-2im8.i9ne~zjxm,2015-12-02T17:40:19.962Z,rv-niez~dwk8-qg8v,NKRUMAH,-87.631058,41.69804,POINT (-87.63105814842866 41.69804048846774),13,34,1(773)568-8000,Charter,ROSELAND,Charter,60628
1132 S Homan Ave,"K, 1, 2, 3, 4, 5, 6, 7, 8",400046,Michael D. Chandler,ES,2015-12-02T17:40:19.962Z,row-fsmn-rvrm-vvrb,2015-12-02T17:40:19.962Z,rv-da67-y5bm~tw89,LEARN - BUTLER,-87.710679,41.867273,POINT (-87.71067948017503 41.86727271425741),5,24,1(773)826-6330,Charter,NORTH LAWNDALE,Charter,60624
212 S Francisco Ave,"K, 1, 2, 3, 4, 5",400047,"Walter Burnett, Jr.",ES,2015-12-02T17:40:19.962Z,row-prbc~pnyy.fynu,2015-12-02T17:40:19.962Z,rv-myps~zn6p_z4up,LEARN - CAMPBELL,-87.698739,41.877861,POINT (-87.69873872021003 41.87786063163507),5,27,1(773)826-0370,Charter,EAST GARFIELD PARK,Charter,60612
2401 W Congress Pkwy,"K, 1, 2, 3, 4, 5",400048,Jason C. Ervin,ES,2015-12-02T17:40:19.962Z,row-6ien_iehr.rdca,2015-12-02T17:40:19.962Z,rv-jphi-wbwi-aaf8,LEARN - EXCEL,-87.686568,41.874687,POINT (-87.68656837091822 41.87468714119564),6,28,1(312)243-7001,Charter,NEAR WEST SIDE,Charter,60612
4217 W 18th St,"K, 1, 2, 3, 4, 5, 6, 7, 8",400049,Michael D. Chandler,ES,2015-12-02T17:40:19.962Z,row-5vc3_dkzp-hw5y,2015-12-02T17:40:19.962Z,rv-svph~46eq~ifeg,LEGACY,-87.730348,41.856859,POINT (-87.73034814817423 41.85685915858964),5,24,1(773)542-1640,Charter,NORTH LAWNDALE,Charter,60623
3737 S Paulina St,"K, 1, 2, 3, 4, 5, 6, 7, 8",400050,George A. Cardenas,ES,2015-12-02T17:40:19.962Z,row-npt2.3s3n.e6sy,2015-12-02T17:40:19.962Z,rv-z977.e7t5~8chm,NAMASTE,-87.667724,41.8257,POINT (-87.6677240431499 41.825699759997775),8,12,1(773)715-9558,Charter,MCKINLEY PARK,Charter,60609
1010 N Noble St,"9, 10, 11, 12",400051,Bob Fioretti,HS,2015-12-02T17:40:19.962Z,row-qtfp~xim6~wc84,2015-12-02T17:40:19.962Z,rv-qpu5_rg9e.rzf5,NOBLE - NOBLE HS,-87.662628,41.900191,POINT (-87.66262778166536 41.90019052103736),6,2,1(773)862-1449,Charter,WEST TOWN,Charter,60642
7200 S Ingleside Ave,"6, 7, 8, 9, 10, 11, 12",400052,Leslie A. Hairston,HS,2015-12-02T17:40:19.962Z,row-9xct~desy.faqz,2015-12-02T17:40:19.962Z,rv-m9zw_q57v_vwfc,NOBLE - COMER HS,-87.601974,41.764083,POINT (-87.60197357256763 41.76408299333481),12,5,1(773)729-3969,Charter,GREATER GRAND CROSSING,Charter,60619
1454 W Superior St,"9, 10, 11, 12",400053,"Walter Burnett, Jr.",HS,2015-12-02T17:40:19.962Z,row-z62z_bthx~i5fd,2015-12-02T17:40:19.962Z,rv-gvn4.nwde.ratf,NOBLE - GOLDER HS,-87.664483,41.895282,POINT (-87.66448299826246 41.89528219433232),6,27,1(312)265-9925,Charter,WEST TOWN,Charter,60642
4131 W Cortland Ave,"9, 10, 11, 12",400054,Rey Colon,HS,2015-12-02T17:40:19.962Z,row-9ujv~zcmj_p5zf,2015-12-02T17:40:19.962Z,rv-ianq~r538~mfed,NOBLE - PRITZKER HS,-87.730127,41.915214,POINT (-87.73012671511242 41.91521410711223),4,35,1(773)394-2848,Charter,HERMOSA,Charter,60639
1337 W Ohio St,"9, 10, 11, 12",400055,Proco (Joe) Moreno III,HS,2015-12-02T17:40:19.962Z,row-m6yc_ib5b-pvm4,2015-12-02T17:40:19.962Z,rv-gqij~658f_zjgi,NOBLE - RAUNER HS,-87.660859,41.892425,POINT (-87.66085887018309 41.892425012737036),6,1,1(312)226-5345,Charter,WEST TOWN,Charter,60642
3645 W Chicago Ave,"9, 10, 11, 12",400056,"Walter Burnett, Jr.",HS,2015-12-02T17:40:19.962Z,row-t322~dafn.47cu,2015-12-02T17:40:19.962Z,rv-izin_abd2~rbtn,NOBLE - ROWE CLARK HS,-87.718047,41.895362,POINT (-87.71804676745052 41.895362258678766),5,27,1(773)242-2212,Charter,HUMBOLDT PARK,Charter,60651
1231 S Damen Ave,"9, 10, 11, 12",400057,Jason C. Ervin,HS,2015-12-02T17:40:19.962Z,row-zb9y.unxp~zhkp,2015-12-02T17:40:19.962Z,rv-qchz~g93a-rvd9,NOBLE - UIC HS,-87.676111,41.865817,POINT (-87.67611092928446 41.8658174137661),6,28,1(312)768-4858,Charter,NEAR WEST SIDE,Charter,60608
1615 S. Christiana Ave.,"9, 10, 11, 12",400058,Michael D. Chandler,HS,2015-12-02T17:40:19.962Z,row-vqse-hpvg-3wum,2015-12-02T17:40:19.962Z,rv-utxb_6tbd.2xmp,NORTH LAWNDALE - CHRISTIANA HS,-87.708987,41.858564,POINT (-87.70898711066647 41.85856355452969),5,24,1(773)542-1490,Charter,NORTH LAWNDALE,Charter,60623
1313 S Sacramento Dr,"8, 9, 10, 11, 12",400059,Michael D. Chandler,HS,2015-12-02T17:40:19.962Z,row-cure_wpef-aa9p,2015-12-02T17:40:19.962Z,rv-nn2w_7q46~yf8e,NORTH LAWNDALE - COLLINS HS,-87.700681,41.864146,POINT (-87.70068060050106 41.86414584343335),5,24,1(773)542-6766,Charter,NORTH LAWNDALE,Charter,60623
1643 W Bryn Mawr Ave,"K, 1, 2, 3, 4, 5, 6, 7, 8",400060,Patrick O'Connor,ES,2015-12-02T17:40:19.962Z,row-rhf6.p8ks.bpa8,2015-12-02T17:40:19.962Z,rv-wb9m_thjf.jaqf,AHS - PASSAGES,-87.67116,41.983371,POINT (-87.67116041959069 41.98337143642813),2,40,1(773)433-3530,Charter,EDGEWATER,Charter,60660
8131 S May St,"6, 7, 8, 9, 10, 11, 12",400061,"Howard B. Brookins, Jr.",HS,2015-12-02T17:40:19.962Z,row-egw7.gnh5~hcyn,2015-12-02T17:40:19.962Z,rv-ywhe-gsfb-rdz6,PERSPECTIVES - LEADERSHIP HS,-87.652045,41.745961,POINT (-87.6520450880387 41.745960831994694),11,21,1(773)358-6100,Charter,AUBURN GRESHAM,Charter,60620
8131 S May St,"9, 10, 11, 12",400062,"Howard B. Brookins, Jr.",HS,2015-12-02T17:40:19.962Z,row-c7us_qesn.v7mv,2015-12-02T17:40:19.962Z,rv-hjyp_f3z8-jcsw,PERSPECTIVES - TECH HS,-87.650657,41.745949,POINT (-87.6506570243317 41.74594901950111),11,21,1(773)358-6120,Charter,AUBURN GRESHAM,Charter,60620
1930 S Archer Ave,"6, 7, 8, 9, 10, 11, 12",400064,Patricia R. Dowell,HS,2015-12-02T17:40:19.962Z,row-8wia_4ix3-7q48,2015-12-02T17:40:19.962Z,rv-7uya_px83_sdv9,PERSPECTIVES - JOSLIN HS,-87.628531,41.855999,POINT (-87.62853090126264 41.85599910496795),6,3,1(312)225-7400,Charter,NEAR SOUTH SIDE,Charter,60616
3663 S Wabash Ave,"6, 7, 8, 9, 10, 11, 12",400066,Patricia R. Dowell,HS,2015-12-02T17:40:19.962Z,row-4km6_mrqt-326v,2015-12-02T17:40:19.962Z,rv-6uv8.fftk.jd3j,PERSPECTIVES - MATH & SCI HS,-87.624788,41.827784,POINT (-87.62478772027431 41.827783857483126),9,3,1(773)358-6800,Charter,DOUGLAS,Charter,60653
5545 W Harrison St,"K, 1, 2, 3, 4, 5, 6, 7, 8",400068,Deborah L. Graham,ES,2015-12-02T17:40:19.962Z,row-h3jh_6nyc~bpcu,2015-12-02T17:40:19.962Z,rv-x9fp.4zaz.3sfb,PLATO,-87.763337,41.87276,POINT (-87.76333693223994 41.87276042876295),3,29,1(773)413-3090 x111,Contract,AUSTIN,Contract,60644
620 N Sawyer Ave,"K, 1, 2, 3, 4, 5, 6, 7, 8",400069,"Walter Burnett, Jr.",ES,2015-12-02T17:40:19.962Z,row-vxd9-z6cn.gpb5,2015-12-02T17:40:19.962Z,rv-w48s~i7tt.uisd,POLARIS,-87.707796,41.89255,POINT (-87.7077964743336 41.892550174310884),5,27,1(773)534-0820,Charter,HUMBOLDT PARK,Charter,60624
1135 N Cleaver St,"9, 10, 11, 12",400070,"Walter Burnett, Jr.",HS,2015-12-02T17:40:19.962Z,row-i2m7.pu6y.curz,2015-12-02T17:40:19.962Z,rv-xq5t.c2bm_ea8h,PROLOGUE - EARLY COLLEGE HS,-87.663541,41.90307,POINT (-87.6635408085684 41.903070179969205),6,27,1(773)935-9925,Options,WEST TOWN,Contract,60622
6515 S Ashland Ave,"K, 1, 2, 3, 4, 5, 6, 7, 8",400071,JoAnn Thompson,ES,2015-12-02T17:40:19.962Z,row-pz3r-65m5_hufx,2015-12-02T17:40:19.962Z,rv-cr3c-wgqv.6evb,PROVIDENCE ENGLEWOOD,-87.663996,41.775367,POINT (-87.66399582979243 41.77536736791468),11,16,1(773)434-0202,Charter,WEST ENGLEWOOD,Charter,60636
7823 S Ellis Ave,"K, 1, 2, 3, 4, 5, 6, 7, 8",400072,Michelle A. Harris,ES,2015-12-02T17:40:19.962Z,row-kd59.2j3z.m3ry,2015-12-02T17:40:19.962Z,rv-5326~nhy5.fji5,SHABAZZ - SHABAZZ,-87.600255,41.752458,POINT (-87.60025455369683 41.752458489265116),12,8,1(773)651-1221,Charter,GREATER GRAND CROSSING,Charter,60619
4934 S Wabash Ave,12,400073,Patricia R. Dowell,HS,2015-12-02T17:40:19.962Z,row-dg4u_8kwk_mh3q,2015-12-02T17:40:19.962Z,rv-3vig~rke2-hhtp,SHABAZZ - DUSABLE HS,-87.625015,41.804309,POINT (-87.62501515001085 41.80430932691888),9,3,1(773)535-1170,Charter,GRAND BOULEVARD,Charter,60615
6936 S Hermitage Ave,"K, 1, 2, 3, 4, 5, 6, 7, 8",400074,Latasha R. Thomas,ES,2015-12-02T17:40:19.962Z,row-mu5x~fxrn.4rtc,2015-12-02T17:40:19.962Z,rv-g7jf-mfe7_b38z,SHABAZZ - SIZEMORE,-87.667639,41.76739,POINT (-87.66763900782517 41.76739011323144),11,17,1(773)535-9144,Charter,WEST ENGLEWOOD,Charter,60636
707 E 37th St,"K, 1, 2, 3, 4, 5",400075,"William ""Will"" D. Burns",ES,2015-12-02T17:40:19.962Z,row-8sk7.sxv9.qsxc,2015-12-02T17:40:19.962Z,rv-m2fp.fibj_wq6u,U OF C - DONOGHUE,-87.608501,41.827726,POINT (-87.60850078073176 41.82772608169006),9,4,1(773)285-5301,Charter,OAKLAND,Charter,60653
1119 E 46th St,"K, 1, 2, 3, 4, 5",400076,"William ""Will"" D. Burns",ES,2015-12-02T17:40:19.962Z,row-a6sy.djpm.x3uf,2015-12-02T17:40:19.962Z,rv-p7ep_i73n.t8ky,U OF C - NKO,-87.598786,41.811183,POINT (-87.59878626822365 41.81118286697261),9,4,1(773)536-2399,Charter,KENWOOD,Charter,60653
6420 S University Ave,"6, 7, 8, 9, 10, 11, 12",400077,Willie B. Cochran,HS,2015-12-02T17:40:19.962Z,row-i7vv~ynxj~vqfm,2015-12-02T17:40:19.962Z,rv-ruf9_w6et~2hp8,U OF C - WOODLAWN HS,-87.598114,41.77813,POINT (-87.59811391956653 41.77812969844571),9,20,1(773)752-8101,Charter,WOODLAWN,Charter,60637
4444 S Evans Ave,"6, 7, 8",400078,Patricia R. Dowell,ES,2015-12-02T17:40:19.962Z,row-2dtb.nie7-zk4y,2015-12-02T17:40:19.962Z,rv-kc7h_m997_ph5u,U OF C - WOODSON,-87.608426,41.813547,POINT (-87.60842562200929 41.81354730462153),9,3,1(773)624-0700,Charter,GRAND BOULEVARD,Charter,60653
4248 W 47th St,"K, 1, 2, 3, 4, 5, 6, 7, 8",400079,Edward M. Burke,ES,2015-12-02T17:40:19.962Z,row-uzn2-jhai~jpbz,2015-12-02T17:40:19.962Z,rv-cgx5_s687-dagz,UNO - ZIZUMBO,-87.730495,41.810135,POINT (-87.73049511708528 41.810134787396784),8,14,1(773)579-3470 x222,Charter,ARCHER HEIGHTS,Charter,60632
4248 W 47th St,"K, 1, 2, 3, 4, 5, 6, 7, 8",400080,Edward M. Burke,ES,2015-12-02T17:40:19.962Z,row-ry62_amqt~2m67,2015-12-02T17:40:19.962Z,rv-hngg-6vhj-8g8g,UNO - TORRES,-87.73045,41.8082,POINT (-87.73045044324228 41.808199806707506),8,14,1(773)579-3475,Charter,ARCHER HEIGHTS,Charter,60632
1641 W 16th St,"K, 1, 2, 3, 4, 5, 6, 7, 8",400081,Daniel S. Solis,ES,2015-12-02T17:40:19.962Z,row-ez48~auac.vgf9,2015-12-02T17:40:19.962Z,rv-gu2a.etcw.w786,UNO - DE LAS CASAS,-87.667949,41.859504,POINT (-87.66794916938431 41.85950400844006),7,25,1(312)432-3224,Charter,LOWER WEST SIDE,Charter,60608
2845 W Barry Ave,"K, 1, 2, 3, 4, 5, 6, 7, 8",400082,Deborah Mell,ES,2015-12-02T17:40:19.962Z,row-p4ca.2ix3-gibr,2015-12-02T17:40:19.962Z,rv-apnn-bcim~9ibh,UNO - FUENTES,-87.699594,41.937476,POINT (-87.69959365155327 41.93747577617474),4,33,1(773)279-9826,Charter,AVONDALE,Charter,60618
2651 W 23rd St,"K, 1, 2, 3, 4, 5, 6, 7, 8",400083,Michael D. Chandler,ES,2015-12-02T17:40:19.962Z,row-hhu5_3rpm-58u5,2015-12-02T17:40:19.962Z,rv-ncim_syig.kx2e,UNO - PAZ,-87.692551,41.850035,POINT (-87.6925508987114 41.850035413249145),7,24,1(773)890-1054,Charter,SOUTH LAWNDALE,Charter,60608
5135 S California Ave,"K, 1, 2, 3, 4, 5, 6, 7, 8",400084,Edward M. Burke,ES,2015-12-02T17:40:19.962Z,row-wrvg.382c-ydpj,2015-12-02T17:40:19.962Z,rv-iky5_8ycq-djgc,UNO - TAMAYO,-87.693862,41.79993,POINT (-87.69386163596879 41.79993018696646),8,14,1(773)434-6355,Charter,GAGE PARK,Charter,60632
4248 W 47th St,"9, 10, 11, 12",400085,Edward M. Burke,HS,2015-12-02T17:40:19.962Z,row-tv58-eixr.qepj,2015-12-02T17:40:19.962Z,rv-nkzk~cvbe.fy47,UNO - GARCIA HS,-87.730467,41.809171,POINT (-87.73046684906012 41.809170789908194),8,14,1(773)579-3480 x225,Charter,ARCHER HEIGHTS,Charter,60632
6201 S Stewart Ave,"9, 10, 11, 12",400086,Willie B. Cochran,HS,2015-12-02T17:40:19.962Z,row-skkc~3fmf.gikd,2015-12-02T17:40:19.962Z,rv-idce_ev2y_knn6,URBAN PREP - ENGLEWOOD HS,-87.634357,41.781498,POINT (-87.63435669187983 41.78149781675966),11,20,1(773)535-9724,Charter,ENGLEWOOD,Charter,60621
2641 S Calumet Ave,"8, 9, 10, 11, 12",400087,"William ""Will"" D. Burns",HS,2015-12-02T17:40:19.962Z,row-gtqg_yrbk~dv7j,2015-12-02T17:40:19.962Z,rv-ezse.x256-e6cs,YOUNG WOMENS HS,-87.618724,41.844544,POINT (-87.61872379621335 41.844543806496304),9,4,1(312)949-9400,Charter,DOUGLAS,Charter,60616
2916 W 47th St,"K, 1, 2, 3, 4, 5, 6, 7, 8",400089,Toni L. Foulkes,ES,2015-12-02T17:40:19.962Z,row-49ei-tt7x.9n2y,2015-12-02T17:40:19.962Z,rv-yb97_ktky~4n6w,UNO - MARQUEZ,-87.697394,41.808309,POINT (-87.69739409675225 41.808308824206264),8,15,1(773)321-2200,Charter,BRIGHTON PARK,Charter,60632
1301 W 14th St,"9, 10, 11, 12",400091,Daniel S. Solis,HS,2015-12-02T17:40:19.962Z,row-vuni-m93b.xsee,2015-12-02T17:40:19.962Z,rv-ezcr.fsk3_6c9p,CHICAGO TECH HS,-87.659095,41.863301,POINT (-87.65909480337044 41.863301409019805),6,25,1(773)534-7755,Contract,NEAR WEST SIDE,Contract,60608
13300 S Langley Ave,"K, 1, 2, 3, 4, 5, 6",400092,Anthony A. Beale,ES,2015-12-02T17:40:19.962Z,row-igqs_ibkp~yczd,2015-12-02T17:40:19.962Z,rv-qzzu-kmrn_jerf,CICS - BOND,-87.605039,41.653663,POINT (-87.60503910220879 41.65366345036196),13,9,1(773)468-1300,Charter,RIVERDALE,Charter,60827
8255 S Houston Ave,"9, 10, 11, 12",400094,Natashia Holmes,HS,2015-12-02T17:40:19.962Z,row-fzrx-wd62~32hm,2015-12-02T17:40:19.962Z,rv-aimi_ucrd.a8w2,EPIC HS,-87.550222,41.744849,POINT (-87.55022236991735 41.74484910612846),12,7,1(773)535-7930,Charter,SOUTH CHICAGO,Charter,60617
1424 N Cleaver St,"K, 1, 2, 3, 4, 5, 6, 7, 8",400096,Bob Fioretti,ES,2015-12-02T17:40:19.962Z,row-rmfu-qty2-rjad,2015-12-02T17:40:19.962Z,rv-tsai.gsq4-r2fi,ROWE,-87.664072,41.907797,POINT (-87.66407246832698 41.907797179027376),6,2,1(312)445-5870,Charter,WEST TOWN,Charter,60642
2040 W Adams St,"9, 10, 11, 12",400097,"Walter Burnett, Jr.",HS,2015-12-02T17:40:19.962Z,row-jjxa.s33t-9yja,2015-12-02T17:40:19.962Z,rv-mdxa~7bmd~d2jh,NOBLE - BULLS HS,-87.678195,41.878809,POINT (-87.67819526008122 41.878808809017706),6,27,1(773)534-7599,Charter,NEAR WEST SIDE,Charter,60612
1 N State St,"9, 10, 11, 12",400098,Brendan M. Reilly,HS,2015-12-02T17:40:19.962Z,row-25ae.cabf~zgte,2015-12-02T17:40:19.962Z,rv-7s4v.2y8z-785x,NOBLE - MUCHIN HS,-87.626338,41.88274,POINT (-87.62633828257064 41.88274025832787),6,42,1(312)445-4680,Charter,LOOP,Charter,60602
2744 W Pershing Rd,"K, 1, 2, 3, 4, 5, 6, 7, 8",400101,George A. Cardenas,ES,2015-12-02T17:40:19.962Z,row-nwgk~swmh~spti,2015-12-02T17:40:19.962Z,rv-4pca~nz2e_7eqg,UNO - CISNEROS,-87.693996,41.822884,POINT (-87.69399616165612 41.822883741644326),8,12,1(312)376-8830,Charter,BRIGHTON PARK,Charter,60632
1326 W 14th Pl,"9, 10, 11, 12",400102,Daniel S. Solis,HS,2015-12-02T17:40:19.962Z,row-jhtg_r5sg~yhbn,2015-12-02T17:40:19.962Z,rv-gj6r-58iw_agyq,URBAN PREP - WEST HS,-87.660107,41.86254,POINT (-87.66010654013976 41.86254001981981),6,25,1(773)534-8860,Charter,NEAR WEST SIDE,Charter,60608
2520 S Western Ave,"9, 10, 11, 12",400104,Daniel S. Solis,HS,2015-12-02T17:40:19.962Z,row-ct48.bt4k_j35h,2015-12-02T17:40:19.962Z,rv-m3a4.3vue~rrjp,INSTITUTO - HEALTH,-87.68724,41.845967,POINT (-87.68724015856932 41.84596658877017),7,25,1(773)890-8020,Charter,LOWER WEST SIDE,Charter,60608
521 E 35th St,"9, 10, 11, 12",400105,"William ""Will"" D. Burns",HS,2015-12-02T17:40:19.962Z,row-a2k4~5gu8.zbcd,2015-12-02T17:40:19.962Z,rv-37wi-bg3d-m8ks,URBAN PREP - BRONZEVILLE HS,-87.613629,41.831118,POINT (-87.613628647448 41.831117531269),9,4,1(773)495-0870,Charter,DOUGLAS,Charter,60616
6350 S Stewart Ave,"9, 10, 11, 12",400106,Willie B. Cochran,HS,2015-12-02T17:40:19.962Z,row-zdiz~hhi9_yhss,2015-12-02T17:40:19.962Z,rv-s2tg-z23w-tum7,NOBLE - JOHNSON HS,-87.635117,41.778369,POINT (-87.6351166981325 41.77836949898964),11,20,1(312)348-1888,Charter,ENGLEWOOD,Charter,60621
8914 S Buffalo Ave,"K, 1, 2, 3, 4, 5, 6, 7, 8",400107,John A. Pope,ES,2015-12-02T17:40:19.962Z,row-2rbq_njti.wbsu,2015-12-02T17:40:19.962Z,rv-jjjh~y4d4_es8i,LEARN - SOUTH CHICAGO,-87.54558,41.733333,POINT (-87.54557989246669 41.73333313318215),12,10,1(773)722-8577,Charter,SOUTH CHICAGO,Charter,60617
801 E 133rd Pl,"7, 8, 9, 10, 11, 12",400108,Anthony A. Beale,HS,2015-12-02T17:40:19.962Z,row-i2ym_9qux_xrvz,2015-12-02T17:40:19.962Z,rv-jucs-6aes.y5mr,CICS - HAWKINS HS,-87.601873,41.653141,POINT (-87.60187328367599 41.65314105764562),13,9,1(773)264-0505,Charter,RIVERDALE,Charter,60827
1549 W 95th St,"9, 10, 11, 12",400109,"Howard B. Brookins, Jr.",HS,2015-12-02T17:40:19.962Z,row-m5vv.pmrd_whqa,2015-12-02T17:40:19.962Z,rv-2ncb-5rh5-ci6m,PROLOGUE - JOHNSTON HS,-87.662416,41.721136,POINT (-87.66147456601267 41.721126192631715),11,21,1(773)341-2260,Options,WASHINGTON HEIGHTS,Charter,60643
1700 W 83rd St,"K, 1, 2, 3, 4, 5, 6, 7",400111,"Howard B. Brookins, Jr.",ES,2015-12-02T17:40:19.962Z,row-egfy.qdqf-ts6i,2015-12-02T17:40:19.962Z,rv-du2z_fhd2-8696,LEARN - PERKINS,-87.665721,41.743122,POINT (-87.66572105500364 41.74312177047781),11,21,1(773)722-0200,Charter,AUBURN GRESHAM,Charter,60620
5050 S Homan Ave,"K, 1, 2, 3, 4, 5, 6, 7, 8",400112,Edward M. Burke,ES,2015-12-02T17:40:19.962Z,row-fkxj_w9di~w4m7,2015-12-02T17:40:19.962Z,rv-2e8i_ssdf~jvfr,UNO - SOCCER ELEM,-87.708797,41.801042,POINT (-87.70879678374058 41.8010424143053),8,14,1(312)455-5450,Charter,GAGE PARK,Charter,60632
1443 N Ogden Ave,"6, 7, 8, 9, 10, 11, 12",400113,"Walter Burnett, Jr.",HS,2015-12-02T17:40:19.962Z,row-wi2c_krm2-pzgf,2015-12-02T17:40:19.962Z,rv-w64b~99iy~94ru,CICS - CHICAGOQUEST HS,-87.645561,41.907797,POINT (-87.64556149922792 41.90779679597639),4,27,1(773)565-2100,Charter,NEAR NORTH SIDE,Charter,60610
2510 W Cortez St,"K, 1, 2, 3, 4, 5, 6, 7, 8",400114,Proco (Joe) Moreno III,ES,2015-12-02T17:40:19.962Z,row-zxun-t6u5-6frb,2015-12-02T17:40:19.962Z,rv-9pcj~u89w~2myu,UNO - SANTIAGO,-87.689896,41.900344,POINT (-87.68989562534732 41.90034363535655),5,1,1(312)455-5410,Charter,WEST TOWN,Charter,60622
6727 S California Ave,"K, 1, 2, 3, 4, 5, 6, 7, 8, 9, 10, 11, 12",400115,Latasha R. Thomas,ES,2015-12-02T17:40:19.962Z,row-zrtc-5xug.dddp,2015-12-02T17:40:19.962Z,rv-jra8_m74w-nkby,CATALYST - MARIA,-87.693075,41.770992,POINT (-87.69307532227394 41.770991719098475),10,17,1(773)993-1770,Charter,CHICAGO LAWN,Charter,60629
6550 S Seeley Ave,"K, 1, 2, 3, 4, 5",400116,JoAnn Thompson,ES,2015-12-02T17:40:19.962Z,row-a3wy.tvuk.hfbq,2015-12-02T17:40:19.962Z,rv-m958-ea4n-6d7q,MONTESSORI ENGLEWOOD,-87.676147,41.774572,POINT (-87.67614672702379 41.77457160262817),11,16,1(773)306-1759,Charter,WEST ENGLEWOOD,Charter,60636
8748 S Aberdeen St,"9, 10, 11, 12",400117,"Howard B. Brookins, Jr.",HS,2015-12-02T17:40:19.962Z,row-hiq8-tdq6~pw6h,2015-12-02T17:40:19.962Z,rv-9g9q~xk5d.jim7,NOBLE - HANSBERRY HS,-87.650987,41.734442,POINT (-87.65098672812682 41.73444162336514),11,21,1(773)729-3400,Charter,AUBURN GRESHAM,Charter,60620
931 S Homan Ave,"9, 10, 11, 12",400118,Michael D. Chandler,HS,2015-12-02T17:40:19.962Z,row-kzur-qfy5.wgye,2015-12-02T17:40:19.962Z,rv-t4tw.swnd~eky6,NOBLE - DRW HS,-87.711654,41.869328,POINT (-87.71165422601061 41.869328076839054),5,24,1(773)893-4500,Charter,NORTH LAWNDALE,Charter,60624
4319 W Washington Blvd,"9, 10, 11, 12",400119,Jason C. Ervin,HS,2015-12-02T17:40:19.962Z,row-frh8_d5ak_yha2,2015-12-02T17:40:19.962Z,rv-g28d-cgzc_adi8,LEGAL PREP HS,-87.733778,41.881733,POINT (-87.73377838256577 41.881732758914126),5,28,1(773)922-7800,Charter,WEST GARFIELD PARK,Charter,60612
2050 N Natchez Ave,"K, 1, 2, 3, 4, 5, 6, 7, 8",400120,Deborah L. Graham,ES,2015-12-02T17:40:19.962Z,row-5mfw.2gh8-4cij,2015-12-02T17:40:19.962Z,rv-vuwb.ngpv~es9f,UNO - CLEMENTE,-87.78783,41.917952,POINT (-87.78783043765829 41.917951680073145),3,29,1(312)455-5425,Charter,BELMONT CRAGIN,Charter,60707
7416 N Ridge Blvd,"K, 1, 2, 3, 4, 5, 6, 7, 8, 9, 10, 11",400121,Joe A. Moore,ES,2015-12-02T17:40:19.962Z,row-6hvf~cpm8~s4ja,2015-12-02T17:40:19.962Z,rv-8cmc-aji3-st9r,UNO - ROGERS PARK,-87.684406,42.016476,POINT (-87.68440568196371 42.01647588206149),2,49,1(312)455-5440,Charter,WEST RIDGE,Charter,60645
4651 W Madison St,"10, 11, 12",400123,Jason C. Ervin,HS,2015-12-02T17:40:19.962Z,row-t2kh_fnar.py6f,2015-12-02T17:40:19.962Z,rv-sw6k_76pk~qqrw,YCCS - SCHOLASTIC ACHIEVEMENT,-87.742539,41.880447,POINT (-87.74253889902673 41.88044718772905),3,28,1(773)921-1315,Options,AUSTIN,Charter,60644
2920 S Wabash Ave,"10, 11, 12",400124,Patricia R. Dowell,HS,2015-12-02T17:40:19.962Z,row-nagb.jr26_cqt2,2015-12-02T17:40:19.962Z,rv-yeai.vkcd-rj8e,YCCS - MCKINLEY,-87.625331,41.841331,POINT (-87.62533077020831 41.84133116768203),9,3,1(312)949-5010,Options,DOUGLAS,Charter,60616
3121 N Pulaski Rd,"10, 11, 12",400125,Ariel E. Reboyras,HS,2015-12-02T17:40:19.962Z,row-wvix.7riw.87zt,2015-12-02T17:40:19.962Z,rv-k4vw-nzau~u9i7,YCCS - ASPIRA PANTOJA,-87.727137,41.938187,POINT (-87.72713735978978 41.93818660360197),4,30,1(773)252-0970,Options,AVONDALE,Charter,60641
1116 N Kedzie Ave,"10, 11",400126,Roberto Maldonado,HS,2015-12-02T17:40:19.962Z,row-9p3y~nxsa_ktt8,2015-12-02T17:40:19.962Z,rv-9mts.cttu.ehk2,YCCS - ASSOCIATION HOUSE,-87.70686,41.901572,POINT (-87.70685988336464 41.90157240740904),5,26,1(773)772-7170,Options,HUMBOLDT PARK,Charter,60651
5352 W Chicago Ave,"10, 11, 12",400127,Emma M. Mitts,HS,2015-12-02T17:40:19.962Z,row-xtjc-yxrp_khsa,2015-12-02T17:40:19.962Z,rv-ub8z.qu33_f987,YCCS - AUSTIN CAREER,-87.760221,41.894976,POINT (-87.76022117540877 41.894976391181686),3,37,1(773)626-6988,Options,AUSTIN,Charter,60651
1231 S Pulaski Rd,"10, 11, 12",400128,Michael D. Chandler,HS,2015-12-02T17:40:19.962Z,row-edxs.5r4v~5igu,2015-12-02T17:40:19.962Z,rv-4abd-b5by_jxms,YCCS - CCA ACADEMY,-87.723662,41.864943,POINT (-87.72366217186307 41.8649433529602),5,24,1(773)762-2272,Options,NORTH LAWNDALE,Charter,60623
6620 S Dr Martin Luther King Jr Dr,"10, 11, 12",400129,Patricia R. Dowell,HS,2015-12-02T17:40:19.962Z,row-wnux.qdae.uccm,2015-12-02T17:40:19.962Z,rv-res9_rfp9_as6f,YCCS - HOUSTON,-87.61574,41.773962,POINT (-87.61356238526021 41.774182699292616),9,3,1(773)723-9631,Options,WOODLAWN,Charter,60637
7836 S Union Ave,"10, 11, 12",400130,Roderick T. Sawyer,HS,2015-12-02T17:40:19.962Z,row-mt3e~rguk_t5vc,2015-12-02T17:40:19.962Z,rv-6hpq.w76w.t9ws,YCCS - YOUTH DEVELOPMENT,-87.641731,41.751377,POINT (-87.64173118687638 41.75137711239825),11,6,1(773)224-2273,Options,AUBURN GRESHAM,Charter,60620
2739 W Division St,"10, 11, 12",400131,Roberto Maldonado,HS,2015-12-02T17:40:19.962Z,row-8eps.4vi8.ehrc,2015-12-02T17:40:19.962Z,rv-2erz~9n6m.a4q9,YCCS - CAMPOS,-87.696006,41.90285,POINT (-87.69600602270414 41.90284969772052),5,26,1(773)342-8022,Options,WEST TOWN,Charter,60622
17 N. State St.,"10, 11, 12",400133,Brendan M. Reilly,HS,2015-12-02T17:40:19.962Z,row-78eu.sqnc.efij,2015-12-02T17:40:19.962Z,rv-b7bb.7vgn_26gt,YCCS - INNOVATIONS,-87.627734,41.883047,POINT (-87.62773414532994 41.883047172107126),6,42,1(312)999-9360,Options,LOOP,Charter,60602
1814 S Union Ave,"10, 11, 12",400134,James A. Balcer,HS,2015-12-02T17:40:19.962Z,row-f4s5_6xtg-547x,2015-12-02T17:40:19.962Z,rv-kbpv_u35q_a4d6,YCCS - ADDAMS,-87.644888,41.857208,POINT (-87.6448879755713 41.85720785692408),7,11,1(312)563-1748,Options,LOWER WEST SIDE,Charter,60616
2001 S California Ave,"10, 11, 12",400135,George A. Cardenas,HS,2015-12-02T17:40:19.962Z,row-5i6z_q5dg-r56t,2015-12-02T17:40:19.962Z,rv-jbbf~2bx4.3i8u,YCCS - LATINO YOUTH,-87.69543,41.854665,POINT (-87.69543001372027 41.854664656154405),7,12,1(773)648-2130,Options,SOUTH LAWNDALE,Charter,60608
10001 S Woodlawn Ave,"10, 11",400136,Michelle A. Harris,HS,2015-12-02T17:40:19.962Z,row-f6hc_4wr3~jxtr,2015-12-02T17:40:19.962Z,rv-cz84.f4du.ka6s,YCCS - OLIVE HARVEY,-87.592333,41.712922,POINT (-87.5923332020458 41.71292210077311),12,8,1(773)291-6517,Options,PULLMAN,Charter,60628
1060 E 47th St,"9, 10, 11, 12",400137,"William ""Will"" D. Burns",HS,2015-12-02T17:40:19.962Z,row-ad4s_fcia-2bhj,2015-12-02T17:40:19.962Z,rv-jyae_3su6~3x6v,LITTLE BLACK PEARL HS,-87.59934,41.809695,POINT (-87.59933994051097 41.809695496557886),9,4,1(773)690-5500,Options,KENWOOD,Contract,60653
8164 S South Chicago Ave,"10, 11",400139,Michelle A. Harris,HS,2015-12-02T17:40:19.962Z,row-9ze2~kgz4.gapi,2015-12-02T17:40:19.962Z,rv-gm3m~rabs~nc5q,YCCS - SULLIVAN,-87.578492,41.746287,POINT (-87.57849166985653 41.746286570315625),12,8,1(773)978-8680,Options,AVALON PARK,Charter,60617
1145 W Wilson Ave,"10, 11, 12",400141,James Cappleman,HS,2015-12-02T17:40:19.962Z,row-53j5.79se~3fj4,2015-12-02T17:40:19.962Z,rv-2ztn_77jv.c3js,YCCS - TRUMAN,-87.659239,41.965295,POINT (-87.65923928993215 41.96529481724919),2,46,1(773)907-4840,Options,UPTOWN,Charter,60640
1900 W Van Buren St,"10, 11, 12",400142,"Walter Burnett, Jr.",HS,2015-12-02T17:40:19.962Z,row-dupc-tyvx_f3sp,2015-12-02T17:40:19.962Z,rv-qxk9.2sz9~akd2,YCCS - VIRTUAL,-87.674138,41.876317,POINT (-87.67413840128202 41.87631672800982),6,27,1(312)429-0027,Options,NEAR WEST SIDE,Charter,60612
500 N Sacramento Blvd,"10, 11",400143,"Walter Burnett, Jr.",HS,2015-12-02T17:40:19.962Z,row-thug-2xw2.fida,2015-12-02T17:40:19.962Z,rv-qrxd_tymm_dr3z,YCCS - WEST TOWN,-87.702053,41.890803,POINT (-87.70205280069064 41.89080312196514),5,27,1(312)563-9044,Options,HUMBOLDT PARK,Charter,60612
4909 W Division St,"10, 11, 12",400144,Emma M. Mitts,HS,2015-12-02T17:40:19.962Z,row-4kx5-ykn9-9jps,2015-12-02T17:40:19.962Z,rv-fkw5~6hyg-fa2v,YCCS - WESTSIDE HOLISTIC,-87.74881,41.90224,POINT (-87.74881028931185 41.90224003265154),3,37,1(773)261-0994,Options,AUSTIN,Charter,60651
3424 S State St,"10, 11, 12",400145,Patricia R. Dowell,HS,2015-12-02T17:40:19.962Z,row-cikx-5icm.t3mm,2015-12-02T17:40:19.962Z,rv-gsge.6nrp-udsq,YCCS - YOUTH CONNECTION,-87.626781,41.832072,POINT (-87.62678146946226 41.8320720589631),9,3,1(312)225-4668,Options,DOUGLAS,Charter,60616
4818 W Ohio St,"5, 6, 7, 8",400146,Emma M. Mitts,ES,2015-12-02T17:40:19.962Z,row-v6t3-tues~t3ux,2015-12-02T17:40:19.962Z,rv-sede~6ndv_m4ph,KIPP CHICAGO - CREATE,-87.746614,41.891816,POINT (-87.7466138390458 41.89181614289089),3,37,1(773)938-8553,Charter,AUSTIN,Charter,60644
1257 W 111th St,"9, 10, 11, 12",400147,Carrie M. Austin,HS,2015-12-02T17:40:19.962Z,row-hitb-jv9c_5stf,2015-12-02T17:40:19.962Z,rv-gcap.q88w~cbbg,CAMELOT - CHICAGO EXCEL HS,-87.654248,41.691953,POINT (-87.65372653769836 41.69196931427941),13,34,1(773)629-8379,Options,MORGAN PARK,Contract,60643
2570 S Blue Island Ave,"9, 10, 11, 12",400148,Daniel S. Solis,HS,2015-12-02T17:40:19.962Z,row-98wg~d3pa_zyh4,2015-12-02T17:40:19.962Z,rv-juvh~ij4v.7zeb,INSTITUTO - LOZANO HS,-87.684065,41.845446,POINT (-87.6840649380762 41.84544601613786),7,25,1(773)696-3610,Options,LOWER WEST SIDE,Charter,60608
5025 S Saint Louis Ave,"8, 9, 10, 11",400149,Edward M. Burke,HS,2015-12-02T17:40:19.962Z,row-d5fm-gitj~h949,2015-12-02T17:40:19.962Z,rv-ttsr~fvkp.q7ru,UNO - SOCCER HS,-87.711025,41.801762,POINT (-87.71102498431179 41.80176224634238),8,14,1(312)455-5446,Charter,GAGE PARK,Charter,60632
9035 S Langley Ave,"10, 11, 12",400150,Michelle A. Harris,HS,2015-12-02T17:40:19.962Z,row-xvy9.kabt-heyf,2015-12-02T17:40:19.962Z,rv-a7v2~kba7_creu,YCCS - CHATHAM,-87.60698,41.730131,POINT (-87.6069799088947 41.73013138526248),12,8,1(773)651-1500,Options,CHATHAM,Charter,60619
3021 W Carroll Ave,"K, 1, 2, 3, 4, 5",400151,"Walter Burnett, Jr.",ES,2015-12-02T17:40:19.962Z,row-utq4~dbqt~3xh3,2015-12-02T17:40:19.962Z,rv-tpi7_8yrq.q695,LEARN - 7,-87.701397,41.88741,POINT (-87.70139734988759 41.88741028509954),5,27,1(773)584-4350,Charter,EAST GARFIELD PARK,Charter,60612Â 
4420 S Fairfield Ave,"K, 1, 2, 3, 4, 5, 6, 7, 8",400153,Toni L. Foulkes,ES,2015-12-02T17:40:19.962Z,row-z3h8~g9t5_zisr,2015-12-02T17:40:19.962Z,rv-5xqg~ssgf_t2ms,UNO - BRIGHTON PARK,-87.693238,41.813109,POINT (-87.69323838452338 41.81310944556738),8,15,1(312)455-5434,Charter,BRIGHTON PARK,Charter,60632
821 E 103rd St,"9, 10, 11",400156,Anthony A. Beale,HS,2015-12-02T17:40:19.962Z,row-xfiy_fcjv-3vm3,2015-12-02T17:40:19.962Z,rv-qtys_k379.mfib,NOBLE - BUTLER HS,-87.602573,41.706667,POINT (-87.60257331742993 41.706666858674446),13,9,1(312)835-1863,Charter,PULLMAN,Charter,60628
2710 E 89th St,"9, 10, 11",400157,Natashia Holmes,HS,2015-12-02T17:40:19.962Z,row-pmqa-jf7g-tgw4,2015-12-02T17:40:19.962Z,rv-sgsu.w2gk~49d5,NOBLE - BAKER HS,-87.556201,41.734622,POINT (-87.5562014412568 41.734622371706195),12,7,1(773)535-6340,Charter,SOUTH CHICAGO,Charter,60617
5235 W Belden Ave,"K, 1, 2, 3",400159,Nicholas Sposato,ES,2015-12-02T17:40:19.962Z,row-5gis~8iu5_5ufe,2015-12-02T17:40:19.962Z,rv-mbai_ndss~4uqe,CHRISTOPHER HOUSE,-87.757522,41.922181,POINT (-87.7575215282549 41.92218115679206),3,36,1(773)472-1083,Charter,BELMONT CRAGIN,Charter,60639
11816 S Indiana Ave,"4, 5, 6, 7",400161,Anthony A. Beale,HS,2015-12-02T17:40:19.962Z,row-hwq3-6rhs-etbv,2015-12-02T17:40:19.962Z,rv-vw49_9wup_4gug,CHICAGO COLLEGIATE,-87.617968,41.679318,POINT (-87.61796787116381 41.67931844283862),13,9,1(773)536-9098,Charter,WEST PULLMAN,Charter,60628
4540 W Belmont Ave,"7, 8, 9, 10, 11",400162,Ariel E. Reboyras,HS,2015-12-02T17:40:19.962Z,row-bdmn~5ye9_ki45,2015-12-02T17:40:19.962Z,rv-c49r.xwbc.st3x,INTRINSIC HS,-87.741129,41.938988,POINT (-87.74112862649278 41.93898842888394),1,30,1(708)887-2735,Charter,IRVING PARK,Charter,60641
5515 S Lowe Ave,"5, 6, 7",400163,Willie B. Cochran,ES,2015-12-02T17:40:19.962Z,row-v7e4-akdg~34g2,2015-12-02T17:40:19.962Z,rv-6e9f.az8e-fs8c,KIPP CHICAGO - BLOOM,-87.639967,41.793556,POINT (-87.63996733123219 41.793556267951516),11,20,1(773)938-8565,Charter,ENGLEWOOD,Charter,60621
2520 S Western Ave,"9, 10, 11, 12",400164,Daniel S. Solis,HS,2015-12-02T17:40:19.962Z,row-nrx3~n6cf~avj5,2015-12-02T17:40:19.962Z,rv-37ur~7ynp_gcsa,INSTITUTO - LOZANO MASTERY HS,-87.685903,41.845957,POINT (-87.6859026110193 41.84595667425204),7,25,1(773)696-3610 x4645,Options,LOWER WEST SIDE,Charter,60608
3021 W Carroll Ave,"6, 7, 8",400165,"Walter Burnett, Jr.",ES,2015-12-02T17:40:19.962Z,row-6nbg.csb3-vfrk,2015-12-02T17:40:19.962Z,rv-cvs5-iust.cf4t,LEARN - MIDDLE,-87.702704,41.887413,POINT (-87.70270389866857 41.8874127033578),5,27,1(773)584-4300,Charter,EAST GARFIELD PARK,Charter,60612Â 
5401 S. Western,"K, 1, 2, 3, 4, 5, 6, 7, 8",400167,Toni L. Foulkes,ES,2015-12-02T17:40:19.962Z,row-u4z4.twhv_dbdr,2015-12-02T17:40:19.962Z,rv-yu7r~sjjp.7qv4,HORIZON - SOUTHWEST,-87.683963,41.795201,POINT (-87.68396339286605 41.79520095346442),8,15,1(773)498-3355,Charter,GAGE PARK,Charter,60609
2456 N. Mango Ave.,"9, 10",400169,Ariel E. Reboyras,HS,2015-12-02T17:40:19.962Z,row-ppae_3b6z.ds77,2015-12-02T17:40:19.962Z,rv-ayys.j98n-8cdg,NOBLE - ITW SPEER HS,-87.769808,41.92563,POINT (-87.7698077737688 41.925630271820076),3,30,1(773)278-6895,Charter,BELMONT CRAGIN,Charter,60639
1443 N Ogden Ave,"9, 10",400170,"Walter Burnett, Jr.",HS,2015-12-02T17:40:19.962Z,row-7dbv_ft2e_e62w,2015-12-02T17:40:19.962Z,rv-8kud~ny4a~rxiz,NOBLE - ACADEMY HS,-87.645577,41.906879,POINT (-87.64557693645024 41.906878795581775),4,27,1(773)862-1449,Charter,NEAR NORTH SIDE,Charter,60610
1233 W. 109th Street,"6, 7, 8",400171,Carrie M. Austin,HS,2015-12-02T17:40:19.962Z,row-czvj-xrz9_4dhi,2015-12-02T17:40:19.962Z,rv-6jxa~u7vm_zchz,FOUNDATIONS,-87.653535,41.694671,POINT (-87.65353524849182 41.694670739269824),13,34,1(773)298-5800,Charter,MORGAN PARK,Charter,60643
3124 W. 47th Street,"9, 10, 11, 12",400173,Edward M. Burke,HS,2015-12-02T17:40:19.962Z,row-azgx_ubqt_36js,2015-12-02T17:40:19.962Z,rv-3d4v-ypjs_am43,PATHWAYS - BRIGHTON PARK HS,-87.702645,41.808226,POINT (-87.70264475188074 41.80822578588327),8,14,1(773)588-5007,Options,BRIGHTON PARK,ALOP,60632
7530 S South Shore Dr,"9, 10, 11, 12",400175,Natashia Holmes,HS,2015-12-02T17:40:19.962Z,row-dqtt_26rq_6rvu,2015-12-02T17:40:19.962Z,rv-gjch~z99y~msen,CAMELOT - EXCEL WOODLAWN HS,-87.556487,41.759749,POINT (-87.55648708380524 41.75974863966093),9,7,1(773)902-7800,Options,WOODLAWN,Contract,60649
7014 S Washtenaw Ave,"9, 10, 11, 12",400176,Latasha R. Thomas,HS,2015-12-02T17:40:19.962Z,row-b65b.7mzc~6gzx,2015-12-02T17:40:19.962Z,rv-nasn~khv8-dzes,CAMELOT - EXCEL SOUTHWEST HS,-87.69073,41.765929,POINT (-87.69073009144024 41.76592892107531),11,17,1(773)424-0721,Options,AUBURN GRESHAM,Contract,60629
1440 S. Christiana,"K, 1, 2, 3, 4, 5",400177,Michael D. Chandler,ES,2015-12-02T17:40:19.962Z,row-aidn~rfw6.vunb,2015-12-02T17:40:19.962Z,rv-u9tg-7nie.599p,KIPP CHICAGO - ASCEND PRIMARY,-87.709287,41.861174,POINT (-87.7092868302553 41.86117418904422),5,24,1(773)522-1261,Charter,NORTH LAWNDALE,Charter,60623
2100 E 87th St,"9, 10, 11, 12",609674,Michelle A. Harris,HS,2015-12-02T17:40:19.962Z,row-cr7u-ib2y.bdud,2015-12-02T17:40:19.962Z,rv-7y2v.mppq~jxki,CHICAGO VOCATIONAL HS,-87.573268,41.737174,POINT (-87.57326751563566 41.73717393432699),12,8,1(773)535-6100,OS4,AVALON PARK,District,60617
3000 S King Dr,"9, 10, 11, 12",609676,"William ""Will"" D. Burns",HS,2015-12-02T17:40:19.962Z,row-9tca-55gk_iqf3,2015-12-02T17:40:19.962Z,rv-c2rm-h9xn_4gjd,DUNBAR HS,-87.617637,41.840226,POINT (-87.61763743509766 41.84022557213286),9,4,1(773)534-9000,Network 9,DOUGLAS,District,60616
700 S State St,"9, 10, 11, 12",609678,"William ""Will"" D. Burns",HS,2015-12-02T17:40:19.962Z,row-vczk.98g4_cnfg,2015-12-02T17:40:19.962Z,rv-puaq-xms4.ck3d,JONES HS,-87.627675,41.873066,POINT (-87.62767532245121 41.873065923599285),6,4,1(773)534-8600,ISP,LOOP,District,60605
2148 N Long Ave,"9, 10, 11, 12",609679,Nicholas Sposato,HS,2015-12-02T17:40:19.962Z,row-9gnb_5qyb_masz,2015-12-02T17:40:19.962Z,rv-97aj_hcfp~csf6,PROSSER HS,-87.761048,41.920059,POINT (-87.76104831549574 41.9200594000567),3,36,1(773)534-3200,Network 3,BELMONT CRAGIN,District,60639
1034 N Wells St,"9, 10, 11, 12",609680,"Walter Burnett, Jr.",HS,2015-12-02T17:40:19.962Z,row-d9kn-t6fx-ctnr,2015-12-02T17:40:19.962Z,rv-4np7_p5k5_fyrj,PAYTON HS,-87.635385,41.901575,POINT (-87.63538476564176 41.9015751700547),6,27,1(773)534-0034,ISP,NEAR NORTH SIDE,District,60610
5009 S Laflin St,"9, 10, 11, 12",609682,Willie B. Cochran,HS,2015-12-02T17:40:19.962Z,row-jujr_mymr.6x6r,2015-12-02T17:40:19.962Z,rv-k97f~9gsx~mz2y,RICHARDS HS,-87.662278,41.802881,POINT (-87.6622778452799 41.80288137568821),8,20,1(773)535-4945,Network 8,NEW CITY,District,60609
4338 W Wabansia Ave,"9, 10, 11, 12",609691,Nicholas Sposato,HS,2015-12-02T17:40:19.962Z,row-quef.dtnq.xrur,2015-12-02T17:40:19.962Z,rv-e799~uq6d.nnex,NORTH-GRAND HS,-87.735238,41.911674,POINT (-87.73523755589862 41.91167369277199),5,36,1(773)534-8520,Network 5,HUMBOLDT PARK,District,60639
8147 S Vincennes Ave,"9, 10, 11, 12",609692,"Howard B. Brookins, Jr.",HS,2015-12-02T17:40:19.962Z,row-vrh6_7wcc_rvud,2015-12-02T17:40:19.962Z,rv-mtre.72mz-wsnt,SIMEON HS,-87.63541,41.745781,POINT (-87.63541036865855 41.745781230693545),11,21,1(773)535-3200,Network 11,CHATHAM,District,60620
3223 W Franklin Blvd,"9, 10, 11, 12",609693,Jason C. Ervin,HS,2015-12-02T17:40:19.962Z,row-hz38.gx7r~akz9,2015-12-02T17:40:19.962Z,rv-wvzd~vziu.vcq6,WESTINGHOUSE HS,-87.707332,41.889977,POINT (-87.70733230850237 41.88997720366547),5,28,1(773)534-6400,Network 5,HUMBOLDT PARK,District,60624
4034 W 56th St,"9, 10, 11, 12",609694,Marty Quinn,HS,2015-12-02T17:40:19.962Z,row-gp2a_tx4q-bnj6,2015-12-02T17:40:19.962Z,rv-syac_6wd6_nmap,HANCOCK HS,-87.72447,41.791464,POINT (-87.72447046479571 41.79146390936971),8,13,1(773)535-2410,Network 8,WEST ELSDON,District,60629
5110 N Damen Ave,"9, 10, 11, 12",609695,Patrick O'Connor,HS,2015-12-02T17:40:19.962Z,row-28x7.bcw9-icds,2015-12-02T17:40:19.962Z,rv-anfp.ibg9~3xkj,AMUNDSEN HS,-87.679484,41.975067,POINT (-87.67948421514224 41.975067256994045),2,40,1(773)534-2320,Network 2,LINCOLN SQUARE,District,60625
3939 W 79th St,"9, 10, 11, 12",609698,Lona Lane,HS,2015-12-02T17:40:19.962Z,row-5ame.2b8n_bbwd,2015-12-02T17:40:19.962Z,rv-sgbu_st8z_jnw3,BOGAN HS,-87.721097,41.749376,POINT (-87.72109744580335 41.74937561004766),10,18,1(773)535-2180,OS4,ASHBURN,District,60652
2345 S Christiana Ave,"PK, 9, 10, 11, 12",609704,Ricardo Munoz,HS,2015-12-02T17:40:19.962Z,row-i4jj.hypb.g7kv,2015-12-02T17:40:19.962Z,rv-7g9x~qt95_pdtv,FARRAGUT HS,-87.708706,41.84856,POINT (-87.70870563206347 41.84855987505955),7,22,1(773)534-1300,Network 7,SOUTH LAWNDALE,District,60623
11220 S Wallace St,"9, 10, 11, 12",609705,Carrie M. Austin,HS,2015-12-02T17:40:19.962Z,row-cxka.x3f4_dhiq,2015-12-02T17:40:19.962Z,rv-gvhc.acgp-giud,FENGER HS,-87.637572,41.689951,POINT (-87.63757205072528 41.68995072538473),13,34,1(773)535-5430,Network 13,ROSELAND,District,60628
6835 S Normal Blvd,"9, 10, 11, 12",609707,Roderick T. Sawyer,HS,2015-12-02T17:40:19.962Z,row-tqtm-rbgj_p9qs,2015-12-02T17:40:19.962Z,rv-jtys_pff4~3jp6,ROBESON HS,-87.637153,41.769714,POINT (-87.6371527175061 41.769713795989084),11,6,1(773)535-3800,Network 11,ENGLEWOOD,District,60621
3235 N LeClaire Ave,"9, 10, 11, 12",609708,Ray Suarez,HS,2015-12-02T17:40:19.962Z,row-vjvj-r3ma_9gcw,2015-12-02T17:40:19.962Z,rv-9iix_mqmv-npaq,FOREMAN HS,-87.754167,41.939797,POINT (-87.75416654340691 41.93979676789523),1,31,1(773)534-3400,Network 1,PORTAGE PARK,District,60641
5630 S Rockwell St,"9, 10, 11, 12",609709,Toni L. Foulkes,HS,2015-12-02T17:40:19.962Z,row-d5yn_ygth.qfwb,2015-12-02T17:40:19.962Z,rv-6bt6~4pas~6taz,GAGE PARK HS,-87.688954,41.791013,POINT (-87.68895394224212 41.79101283918909),8,15,1(773)535-9230,Network 8,GAGE PARK,District,60629
9652 S Michigan Ave,"7, 8, 9, 10, 11, 12",609710,Anthony A. Beale,HS,2015-12-02T17:40:19.962Z,row-6m3y.9hnj~irui,2015-12-02T17:40:19.962Z,rv-ixp3.9r26.pi69,HARLAN HS,-87.620623,41.718372,POINT (-87.62062343652678 41.71837234638688),12,9,1(773)535-5400,Network 12,ROSELAND,District,60628
6520 S Wood St,"9, 10, 11, 12",609711,Toni L. Foulkes,HS,2015-12-02T17:40:19.962Z,row-2eih_6qmk.s5xq,2015-12-02T17:40:19.962Z,rv-e2ii_t6cr.3ynb,HARPER HS,-87.669089,41.775124,POINT (-87.66908929604386 41.775124084052855),11,15,1(773)535-9150,Network 11,WEST ENGLEWOOD,District,60636
7740 S Ingleside Ave,"9, 10, 11, 12",609712,Michelle A. Harris,HS,2015-12-02T17:40:19.962Z,row-xu9d_eqpy_jz3m,2015-12-02T17:40:19.962Z,rv-drds~m8qc_fvy5,HIRSCH HS,-87.601727,41.753748,POINT (-87.60172726590383 41.75374795611148),12,8,1(773)535-3100,OS4,GREATER GRAND CROSSING,District,60619
6220 S Stony Island Ave,"9, 10, 11, 12",609713,Leslie A. Hairston,HS,2015-12-02T17:40:19.962Z,row-7znf~2mag-y7h7,2015-12-02T17:40:19.962Z,rv-7kev~mnr3.bb7q,HYDE PARK HS,-87.586615,41.782257,POINT (-87.58661501015102 41.782256927571886),9,5,1(773)535-0880,Network 9,WOODLAWN,District,60637
4136 S California Ave,"9, 10, 11, 12",609715,George A. Cardenas,HS,2015-12-02T17:40:19.962Z,row-9xeu-z5rd~wd3d,2015-12-02T17:40:19.962Z,rv-4vu6_ycme-t6tw,KELLY HS,-87.694639,41.818729,POINT (-87.69463865994655 41.81872906412202),8,12,1(773)535-4900,OS4,BRIGHTON PARK,District,60632
4343 W Wrightwood Ave,"7, 8, 9, 10, 11, 12",609716,Ray Suarez,HS,2015-12-02T17:40:19.962Z,row-qze4_77zk-z9yu,2015-12-02T17:40:19.962Z,rv-k3xi~c2eq-n5hj,KELVYN PARK HS,-87.735999,41.927918,POINT (-87.7359988220364 41.92791840338069),4,31,1(773)534-4200,Network 4,HERMOSA,District,60639
6325 W 56th St,"9, 10, 11, 12",609718,Marty Quinn,HS,2015-12-02T17:40:19.962Z,row-x9t6-jtcm_8mtg,2015-12-02T17:40:19.962Z,rv-du5u~xmup-94ii,KENNEDY HS,-87.78084,41.789961,POINT (-87.78083975557318 41.789961252539975),10,13,1(773)535-2325,Network 10,GARFIELD RIDGE,District,60638
4015 N Ashland Ave,"9, 10, 11, 12",609719,Ameya Pawar,HS,2015-12-02T17:40:19.962Z,row-cmzq_j9z3.5sxa,2015-12-02T17:40:19.962Z,rv-dz94~gdax.r7ia,LAKE VIEW HS,-87.668953,41.954764,POINT (-87.66895268956614 41.954764067815226),2,47,1(773)534-5440,Network 2,LAKE VIEW,District,60613
2501 W Addison St,"7, 8, 9, 10, 11, 12",609720,Ameya Pawar,HS,2015-12-02T17:40:19.962Z,row-98zg-xxqh.c7xs,2015-12-02T17:40:19.962Z,rv-9z53_dx6c.bqbf,LANE TECH HS,-87.691013,41.946645,POINT (-87.69101262730577 41.946644574617885),4,47,1(773)534-5400,Network 4,NORTH CENTER,District,60618
2935 W Polk St,"9, 10, 11, 12",609722,Jason C. Ervin,HS,2015-12-02T17:40:19.962Z,row-vysy-gw5t~mjz5,2015-12-02T17:40:19.962Z,rv-qfpr_cxwz.mwbs,MANLEY HS,-87.699896,41.870939,POINT (-87.69989559006058 41.870938956927844),5,28,1(773)534-6900,Network 5,EAST GARFIELD PARK,District,60612
3250 W Adams St,"9, 10, 11, 12",609723,Jason C. Ervin,HS,2015-12-02T17:40:19.962Z,row-hycz_cxnk.wybe,2015-12-02T17:40:19.962Z,rv-5ugs.qwyd_a4uc,MARSHALL HS,-87.70805,41.878444,POINT (-87.70805006999515 41.878444085878876),5,28,1(773)534-6455,ISP,EAST GARFIELD PARK,District,60624
5835 N Lincoln Ave,"9, 10, 11, 12",609724,Patrick O'Connor,HS,2015-12-02T17:40:19.962Z,row-779g.an59_h9pv,2015-12-02T17:40:19.962Z,rv-acsa~guz7.jf46,MATHER HS,-87.702496,41.987589,POINT (-87.70249639590673 41.98758868236977),2,40,1(773)534-2350,Network 2,WEST RIDGE,District,60659
1744 W Pryor Ave,"7, 8, 9, 10, 11, 12",609725,Matthew J. O'Shea,HS,2015-12-02T17:40:19.962Z,row-ug5h.nzsu-dge8,2015-12-02T17:40:19.962Z,rv-z9dg_sm4m_nmbf,MORGAN PARK HS,-87.665658,41.692035,POINT (-87.66565754495967 41.69203500928577),10,19,1(773)535-2550,Network 10,MORGAN PARK,District,60643
250 E 111th St,"9, 10, 11, 12",609726,Anthony A. Beale,HS,2015-12-02T17:40:19.962Z,row-pqcq.jgmy~u5h6,2015-12-02T17:40:19.962Z,rv-ujh9~hncu~jsyf,BROOKS HS,-87.616353,41.692763,POINT (-87.61635260695466 41.692762528813084),13,9,1(773)535-9930,ISP,ROSELAND,District,60628
244 E Pershing Rd,"9, 10, 11, 12",609727,Patricia R. Dowell,HS,2015-12-02T17:40:19.962Z,row-4rqb_p6ax-r598,2015-12-02T17:40:19.962Z,rv-gz25_nw29-7rhs,PHILLIPS HS,-87.619796,41.82388,POINT (-87.61979634587072 41.82387996859641),9,3,1(773)535-1603,AUSL,DOUGLAS,District,60653
3436 W Wilson Ave,"9, 10, 11, 12",609728,Deborah Mell,HS,2015-12-02T17:40:19.962Z,row-9ump-btu5-rh4r,2015-12-02T17:40:19.962Z,rv-qcg8.f2eg~uuvz,ROOSEVELT HS,-87.714819,41.964828,POINT (-87.71481861587411 41.96482788473771),1,33,1(773)534-5000,Network 1,ALBANY PARK,District,60625
3601 N Milwaukee Ave,"9, 10, 11, 12",609729,John Arena,HS,2015-12-02T17:40:19.962Z,row-e9q7.f3kf~33rw,2015-12-02T17:40:19.962Z,rv-pvr6-i4bp_4znf,SCHURZ HS,-87.735612,41.946365,POINT (-87.73561211024985 41.94636454337412),1,45,1(773)534-3420,Network 1,IRVING PARK,District,60641
5900 N Glenwood Ave,"9, 10, 11, 12",609730,Harry Osterman,HS,2015-12-02T17:40:19.962Z,row-a6mg.gq94.m8bh,2015-12-02T17:40:19.962Z,rv-k6ew.bqpf_yxsy,SENN HS,-87.667136,41.989029,POINT (-87.66713618965939 41.98902853902925),2,48,1(773)534-2365,Network 2,EDGEWATER,District,60660
3030 N Mobile Ave,"9, 10, 11, 12",609732,Nicholas Sposato,HS,2015-12-02T17:40:19.962Z,row-rge5~wy6q~s8c9,2015-12-02T17:40:19.962Z,rv-s3c9~hp2e.7dde,STEINMETZ HS,-87.783515,41.935634,POINT (-87.78351523303142 41.93563358800359),3,36,1(773)534-3030,Network 3,BELMONT CRAGIN,District,60634
6631 N Bosworth Ave,"9, 10, 11, 12",609733,Joe A. Moore,HS,2015-12-02T17:40:19.962Z,row-4fev_b2w6~uh3w,2015-12-02T17:40:19.962Z,rv-x5ry~44v8.r9m9,SULLIVAN HS,-87.669192,42.002688,POINT (-87.6691921456324 42.00268755904464),2,49,1(773)534-2000,Network 2,ROGERS PARK,District,60626
6530 W Bryn Mawr Ave,"7, 8, 9, 10, 11, 12",609734,Mary O'Connor,HS,2015-12-02T17:40:19.962Z,row-kyzz-ndpk-9kzf,2015-12-02T17:40:19.962Z,rv-zvwb~a9mr_ebey,TAFT HS,-87.791547,41.982961,POINT (-87.79154724888738 41.98296098663134),1,41,1(773)534-1000,Network 1,NORWOOD PARK,District,60631
4747 S Union Ave,"9, 10, 11, 12",609735,James A. Balcer,HS,2015-12-02T17:40:19.962Z,row-s6ty.3s3u-7arm,2015-12-02T17:40:19.962Z,rv-crrv_f3vt~aiah,TILDEN HS,-87.642966,41.80751,POINT (-87.64296648368519 41.807510071707746),8,11,1(773)535-1625,Network 8,NEW CITY,District,60609
5039 N Kimball Ave,"9, 10, 11, 12",609737,Margaret Laurino,HS,2015-12-02T17:40:19.962Z,row-yrc2~3wbt-yxxv,2015-12-02T17:40:19.962Z,rv-tc6m~j9rk.673x,VON STEUBEN HS,-87.713386,41.973185,POINT (-87.7133862532503 41.97318504859484),1,39,1(773)534-5100,Network 1,NORTH PARK,District,60625
2001 N Orchard St,"9, 10, 11, 12",609738,Michele Smith,HS,2015-12-02T17:40:19.962Z,row-b7h7-meys~e89n,2015-12-02T17:40:19.962Z,rv-v2pn~zghe~jg7p,LINCOLN PARK HS,-87.646009,41.918268,POINT (-87.64600935977136 41.91826831166824),4,43,1(773)534-8130,ISP,LINCOLN PARK,District,60614
3535 E 114th St,"9, 10, 11, 12",609739,John A. Pope,HS,2015-12-02T17:40:19.962Z,row-avwb-fp8w~h9jv,2015-12-02T17:40:19.962Z,rv-g3j9-2h6x_su6f,WASHINGTON HS,-87.53757,41.688137,POINT (-87.53757030014917 41.688136936429636),13,10,1(773)535-5725,Network 13,EAST SIDE,District,60617
936 N Ashland Ave,"9, 10, 11, 12",609740,Proco (Joe) Moreno III,HS,2015-12-02T17:40:19.962Z,row-dys6~dzk7~4gx7,2015-12-02T17:40:19.962Z,rv-4hiw~qgn6_rnnu,WELLS HS,-87.667483,41.898995,POINT (-87.66748286870542 41.89899470821062),6,1,1(773)534-7010,Network 6,WEST TOWN,District,60622
6200 S Hamlin Ave,"9, 10, 11, 12",609741,Michael R. Zalewski,HS,2015-12-02T17:40:19.962Z,row-tu4y.qtfp.mvkh,2015-12-02T17:40:19.962Z,rv-vu2r~thew-p3v8,HUBBARD HS,-87.718014,41.780526,POINT (-87.7180137434039 41.780526387480066),10,23,1(773)535-2200,Network 10,WEST LAWN,District,60629
3730 W Bryn Mawr Ave,"9, 10, 11, 12",609744,Margaret Laurino,HS,2015-12-02T17:40:19.962Z,row-6bkh.ixt5~vj6b,2015-12-02T17:40:19.962Z,rv-ise2.wzsr-9g3w,NORTHSIDE LEARNING HS,-87.722386,41.982973,POINT (-87.7223862157087 41.982972522184035),1,39,1(773)534-5180,Network 1,NORTH PARK,District,60659
7342 S Hoyne Ave,"11, 12",609745,Latasha R. Thomas,HS,2015-12-02T17:40:19.962Z,row-j73q.adw6_duxp,2015-12-02T17:40:19.962Z,rv-cvsg-4vfg~s7w4,SOUTHSIDE HS,-87.675947,41.759852,POINT (-87.67594676754263 41.75985242883261),11,17,1(773)535-9100,Network 11,WEST ENGLEWOOD,District,60636
5015 S Blackstone Ave,"7, 8, 9, 10, 11, 12",609746,"William ""Will"" D. Burns",HS,2015-12-02T17:40:19.962Z,row-fega~3unh.527h,2015-12-02T17:40:19.962Z,rv-d8gu-i3vt-m2f7,KENWOOD HS,-87.590421,41.803772,POINT (-87.59042088967382 41.80377211955022),9,4,1(773)535-1350,Network 9,KENWOOD,District,60615
2700 S California Ave,"9, 10, 11, 12",609748,Michael D. Chandler,HS,2015-12-02T17:40:19.962Z,row-yaqi-mwfs.mbki,2015-12-02T17:40:19.962Z,rv-j8m3~r62b_rsyz,YORK HS,-87.695261,41.842533,POINT (-87.69526101546586 41.84253334878237),7,24,1(773)535-7021,Options,SOUTH LAWNDALE,District,60608
5501 N Kedzie Ave,"9, 10, 11, 12",609749,Patrick O'Connor,HS,2015-12-02T17:40:19.962Z,row-f96w~d4hh_2bkg,2015-12-02T17:40:19.962Z,rv-2xu3~xvz3~sgdb,NORTHSIDE PREP HS,-87.708708,41.981315,POINT (-87.70870780028477 41.981315282997855),1,40,1(773)534-3954,Network 1,NORTH PARK,District,60625
1321 S Paulina St,"8, 9, 10, 11, 12",609750,Jason C. Ervin,HS,2015-12-02T17:40:19.962Z,row-viig-cecy~uax2,2015-12-02T17:40:19.962Z,rv-zydr.b6dh.rv9j,SIMPSON HS,-87.668722,41.864365,POINT (-87.66872222929065 41.86436548318817),6,28,1(773)534-7812,Options,NEAR WEST SIDE,District,60608
4445 S Drexel Blvd,"9, 10, 11, 12",609751,"William ""Will"" D. Burns",HS,2015-12-02T17:40:19.962Z,row-5mzi.44uk~7ic9,2015-12-02T17:40:19.962Z,rv-zqju~jkd4_emim,KING HS,-87.603874,41.813675,POINT (-87.60387386150119 41.813675452906),9,4,1(773)535-1180,Network 9,KENWOOD,District,60653
3857 W 111th St,"9, 10, 11, 12",609753,Matthew J. O'Shea,HS,2015-12-02T17:40:19.962Z,row-99pg_na9i.8qc6,2015-12-02T17:40:19.962Z,rv-uk75.mctm~5y6y,CHICAGO AGRICULTURE HS,-87.71777,41.691221,POINT (-87.71776967258769 41.69122074223002),10,19,1(773)535-2500,Network 10,MOUNT GREENWOOD,District,60655
3519 S Giles Ave,"9, 10, 11, 12",609754,Patricia R. Dowell,HS,2015-12-02T17:40:19.962Z,row-rvy8_ysyq.nxn5,2015-12-02T17:40:19.962Z,rv-j7jr-pujp.k953,CHICAGO MILITARY HS,-87.619216,41.830555,POINT (-87.61921554276002 41.83055497792453),9,3,1(773)534-9750,SLA,DOUGLAS,District,60653
211 S Laflin St,"7, 8, 9, 10, 11, 12",609755,"Walter Burnett, Jr.",HS,2015-12-02T17:40:19.962Z,row-f2pv.swbn-jrmb,2015-12-02T17:40:19.962Z,rv-k8g3-8hsk~j3yx,YOUNG HS,-87.664233,41.878603,POINT (-87.66423334279986 41.878602533533325),6,27,1(773)534-7500,ISP,NEAR WEST SIDE,District,60607
4959 S Archer Ave,"9, 10, 11, 12",609756,Edward M. Burke,HS,2015-12-02T17:40:19.962Z,row-qdf9_jf6j_rkxm,2015-12-02T17:40:19.962Z,rv-jvrm~hkbx~rbr2,CURIE HS,-87.722042,41.80306,POINT (-87.72204165486488 41.80306020731717),8,14,1(773)535-2100,Network 8,ARCHER HEIGHTS,District,60632
1147 N Western Ave,"9, 10, 11, 12",609759,Proco (Joe) Moreno III,HS,2015-12-02T17:40:19.962Z,row-hw3s~pr7t~7aha,2015-12-02T17:40:19.962Z,rv-uw6t_4gnf.33zf,CLEMENTE HS,-87.686906,41.902626,POINT (-87.6869061464135 41.902625792174874),5,1,1(773)534-4000,OS4,WEST TOWN,District,60622
13100 S Doty Ave,"9, 10, 11, 12",609760,Anthony A. Beale,HS,2015-12-02T17:40:19.962Z,row-p5er_zkb6-7m24,2015-12-02T17:40:19.962Z,rv-dn4q~u6wn_egrr,CARVER MILITARY HS,-87.59062,41.65629,POINT (-87.59062038494643 41.65628995178471),13,9,1(773)535-5250,SLA,RIVERDALE,District,60627
821 E 103rd St,"9, 10, 11, 12",609761,Anthony A. Beale,HS,2015-12-02T17:40:19.962Z,row-cypg_e5nx-ezpv,2015-12-02T17:40:19.962Z,rv-xr76-mp5v.naf5,CORLISS HS,-87.601216,41.70666,POINT (-87.6012158765708 41.7066596171329),13,9,1(773)535-5115,Network 13,PULLMAN,District,60628
10330 S Elizabeth St,"9, 10, 11, 12",609762,Carrie M. Austin,HS,2015-12-02T17:40:19.962Z,row-9vgb-kefr.bw23,2015-12-02T17:40:19.962Z,rv-qdc8~ic8n.bxcu,JULIAN HS,-87.653749,41.705859,POINT (-87.6537492110693 41.705858936649804),10,34,1(773)535-5170,Network 13,WASHINGTON HEIGHTS,District,60643
2150 S Laflin St,"9, 10, 11, 12",609764,Daniel S. Solis,HS,2015-12-02T17:40:19.962Z,row-fu5s-k2em-hwws,2015-12-02T17:40:19.962Z,rv-6sgj_6sft.skba,JUAREZ HS,-87.663732,41.852667,POINT (-87.6637324465737 41.85266660015807),7,25,1(773)534-7030,ISP,LOWER WEST SIDE,District,60608
4355 N Linder Ave,"9, 10, 11, 12",609766,Timothy M. Cullerton,HS,2015-12-02T17:40:19.962Z,row-jc7d_r6gd.tpt9,2015-12-02T17:40:19.962Z,rv-vmzq.5jtf_6mkg,VAUGHN HS,-87.764663,41.960364,POINT (-87.76466317314798 41.960363796892295),1,38,1(773)534-3600,Network 1,PORTAGE PARK,District,60641
5515 S Lowe Ave,"9, 10, 11, 12",609768,Willie B. Cochran,HS,2015-12-02T17:40:19.962Z,row-9zzq-tysv~4ia4,2015-12-02T17:40:19.962Z,rv-qpi2~3qhx~kac4,HOPE HS,-87.641244,41.793553,POINT (-87.64124410974131 41.79355346753225),11,20,1(773)535-3160,Network 11,ENGLEWOOD,District,60621
2347 S Wabash Ave,"9, 10, 11, 12",609769,Patricia R. Dowell,HS,2015-12-02T17:40:19.962Z,row-rm3p~asm2-7fgu,2015-12-02T17:40:19.962Z,rv-hjh4.ra59-c8q5,GRAHAM HS,-87.625315,41.849675,POINT (-87.62531481577435 41.84967541803652),6,3,1(773)534-9257,Network 6,NEAR SOUTH SIDE,District,60616
10810 S Avenue H,"PK, K, 1, 2, 3, 4, 5, 6, 7, 8",609772,John A. Pope,ES,2015-12-02T17:40:19.962Z,row-2vv9-wu5w_cf5h,2015-12-02T17:40:19.962Z,rv-vu4i.i62i-vp6m,ADDAMS,-87.532976,41.698739,POINT (-87.53297604185967 41.698738800280616),13,10,1(773)535-6210,Network 13,EAST SIDE,District,60617
2851 N Seminary Ave,"PK, K, 1, 2, 3, 4, 5, 6, 7, 8",609773,Thomas Tunney,ES,2015-12-02T17:40:19.962Z,row-t3dr~hcub_xxq4,2015-12-02T17:40:19.962Z,rv-cc72~69ki~3ktd,AGASSIZ,-87.656229,41.934126,POINT (-87.65622866786502 41.934126298153714),4,44,1(773)534-5725,Network 4,LAKE VIEW,District,60657
950 W 33rd Pl,"PK, K, 1, 2, 3, 4, 5, 6, 7, 8",609777,James A. Balcer,ES,2015-12-02T17:40:19.962Z,row-n8sv_zquz~i8jb,2015-12-02T17:40:19.962Z,rv-yfe7_3fxg~injw,ARMOUR,-87.650653,41.833854,POINT (-87.65065315593255 41.83385390993294),6,11,1(773)535-4530,Network 6,BRIDGEPORT,District,60608
2110 W Greenleaf Ave,"PK, K, 1, 2, 3, 4, 5, 6, 7, 8",609779,Debra L. Silverstein,ES,2015-12-02T17:40:19.962Z,row-efws.5xhg_eapu,2015-12-02T17:40:19.962Z,rv-k4xj.nvip.mvas,ARMSTRONG G,-87.684442,42.01015,POINT (-87.6844418272272 42.01014998439017),2,50,1(773)534-2150,Network 2,WEST RIDGE,District,60645
1920 N Hamlin Ave,"7, 8, 9, 10, 11, 12",609780,Roberto Maldonado,HS,2015-12-02T17:40:19.962Z,row-ipbc~m7ir_tsuj,2015-12-02T17:40:19.962Z,rv-pvdy-izca~8uby,MARINE LEADERSHIP AT AMES HS,-87.721742,41.916045,POINT (-87.72174231736754 41.91604463360454),4,26,1(773)534-4970,SLA,LOGAN SQUARE,District,60647
3500 N Hoyne Ave,"PK, K, 1, 2, 3, 4, 5, 6, 7, 8",609782,Ameya Pawar,ES,2015-12-02T17:40:19.962Z,row-hd45_3uau_q8r2,2015-12-02T17:40:19.962Z,rv-ezpp_y74s~qm46,AUDUBON,-87.681041,41.945062,POINT (-87.68104105326039 41.945062225026966),4,47,1(773)534-5470,Network 4,NORTH CENTER,District,60618
1100 S Hamilton Ave,"6, 7, 8, 9, 10, 11, 12",609783,"Walter Burnett, Jr.",HS,2015-12-02T17:40:19.962Z,row-kff2~bd8d.y748,2015-12-02T17:40:19.962Z,rv-p3ki_tipa_d4jd,JEFFERSON HS,-87.680418,41.867832,POINT (-87.68041755513862 41.86783228575905),6,27,1(312)433-7110,Options,NEAR WEST SIDE,District,60612
8045 S Kenwood Ave,"PK, K, 1, 2, 3, 4, 5, 6, 7, 8",609786,Michelle A. Harris,ES,2015-12-02T17:40:19.962Z,row-x826~m2zp~7vay,2015-12-02T17:40:19.962Z,rv-vkey.m7ge~ecgf,AVALON PARK,-87.591654,41.748247,POINT (-87.59165381066411 41.748246994406024),12,8,1(773)535-6615,Network 12,AVALON PARK,District,60619
10354 S Charles St,"PK, K, 1, 2, 3, 4, 5, 6, 7, 8",609788,Matthew J. O'Shea,ES,2015-12-02T17:40:19.962Z,row-q8ft~876u~25fb,2015-12-02T17:40:19.962Z,rv-4857.ma5q_nydv,BARNARD,-87.658074,41.705131,POINT (-87.65807422421867 41.70513101172685),10,19,1(773)535-2625,Network 10,BEVERLY,District,60643
2828 N Kilbourn Ave,"PK, K, 1, 2, 3, 4, 5, 6",609789,Ray Suarez,ES,2015-12-02T17:40:19.962Z,row-vhyp.4efy-subh,2015-12-02T17:40:19.962Z,rv-p7x8~jfxh.rpsc,BARRY,-87.739388,41.932511,POINT (-87.73938835131963 41.932510583541145),4,31,1(773)534-3455,Network 4,HERMOSA,District,60641
7650 S Wolcott Ave,"PK, K, 1, 2, 3, 4, 5, 6, 7, 8",609790,Latasha R. Thomas,ES,2015-12-02T17:40:19.962Z,row-n22g~t8b2~qd3q,2015-12-02T17:40:19.962Z,rv-m4ga-ggvh~pwhq,BARTON,-87.670927,41.754194,POINT (-87.67092712893017 41.754193850494374),11,17,1(773)535-3260,Network 11,AUBURN GRESHAM,District,60620
1140 W 66th St,"PK, K, 1, 2, 3, 4, 5, 6, 7, 8",609791,JoAnn Thompson,ES,2015-12-02T17:40:19.962Z,row-ivwq~teuk~5jgs,2015-12-02T17:40:19.962Z,rv-bhkq-zcyw.n59w,BASS,-87.653532,41.774246,POINT (-87.65353241973901 41.774246450896506),11,16,1(773)535-3275,Network 11,ENGLEWOOD,District,60621
4220 N Richmond St,"PK, K, 1, 2, 3, 4, 5, 6, 7, 8",609792,Deborah Mell,ES,2015-12-02T17:40:19.962Z,row-7v96.5pui_m9ep,2015-12-02T17:40:19.962Z,rv-hebx.xij9.sw49,BATEMAN,-87.702151,41.95822,POINT (-87.70215096221916 41.95821983935837),1,33,1(773)534-5055,Network 1,IRVING PARK,District,60618
6006 S Peoria St,"PK, K, 1, 2, 3, 4, 5, 6, 7, 8",609793,JoAnn Thompson,ES,2015-12-02T17:40:19.962Z,row-xqk8-m7w9~vjfh,2015-12-02T17:40:19.962Z,rv-atgu_9hi2~x5t9,NICHOLSON,-87.647453,41.784942,POINT (-87.64745284218537 41.78494238024299),11,16,1(773)535-3285,Network 11,ENGLEWOOD,District,60621
4929 N Sawyer Ave,"K, 1, 2, 3, 4, 5, 6, 7, 8",609794,Deborah Mell,ES,2015-12-02T17:40:19.962Z,row-t8xr-izv9_degc,2015-12-02T17:40:19.962Z,rv-heps_fhvh_cin9,EDISON,-87.709304,41.971506,POINT (-87.70930366601418 41.97150609695558),1,33,1(773)534-0540,Network 1,ALBANY PARK,District,60625
1045 S Monitor Ave,"PK, K, 1, 2, 3, 4, 5, 6, 7, 8",609795,Deborah L. Graham,ES,2015-12-02T17:40:19.962Z,row-xbkp~km6j~95zi,2015-12-02T17:40:19.962Z,rv-a5zj~q5th_a8di,CLARK ES,-87.770418,41.867813,POINT (-87.77041752681555 41.86781256847059),3,29,1(773)534-6225,Network 3,AUSTIN,District,60644
5025 N Laramie Ave,"PK, K, 1, 2, 3, 4, 5, 6, 7, 8",609796,John Arena,ES,2015-12-02T17:40:19.962Z,row-54w2-qm28.rcfv,2015-12-02T17:40:19.962Z,rv-n5kp.azz2-dej5,BEAUBIEN,-87.757565,41.972394,POINT (-87.75756503952019 41.97239394518009),1,45,1(773)534-3500,Network 1,JEFFERSON PARK,District,60630
3151 W Walnut St,"PK, K, 1, 2, 3, 4, 5, 6, 7, 8",609797,"Walter Burnett, Jr.",ES,2015-12-02T17:40:19.962Z,row-p8h2-dmad_e4m3,2015-12-02T17:40:19.962Z,rv-vg5y.dgty_ucnq,BEIDLER,-87.705855,41.885321,POINT (-87.70585481253717 41.88532104046794),5,27,1(773)534-6811,Network 5,EAST GARFIELD PARK,District,60612
4257 N Tripp Ave,"PK, K, 1, 2, 3, 4, 5, 6, 7, 8",609798,Margaret Laurino,ES,2015-12-02T17:40:19.962Z,row-fhhc.tj25-34zd,2015-12-02T17:40:19.962Z,rv-4t6z_jtue~teyd,BELDING,-87.73402,41.958938,POINT (-87.7340197291338 41.95893849417326),1,39,1(773)534-3590,Network 1,IRVING PARK,District,60641
3730 N Oakley Ave,"K, 1, 2, 3, 4, 5, 6, 7, 8",609799,Ameya Pawar,ES,2015-12-02T17:40:19.962Z,row-q6cq_jteg.n9r5,2015-12-02T17:40:19.962Z,rv-vz8y.e7sa~ic64,BELL,-87.686018,41.94953,POINT (-87.68601824452615 41.949529799045145),4,47,1(773)534-5150,Network 4,NORTH CENTER,District,60618
10115 S Prairie Ave,"PK, K, 1, 2, 3, 4, 5, 6, 7, 8",609800,Anthony A. Beale,ES,2015-12-02T17:40:19.962Z,row-7npm_utiw.efdp,2015-12-02T17:40:19.962Z,rv-rqji_b8x5_cnbq,BENNETT,-87.61739,41.710435,POINT (-87.61739045569578 41.710434949606494),13,9,1(773)535-5460,Network 13,ROSELAND,District,60628
1420 W Grace St,"PK, K, 1, 2, 3, 4, 5, 6, 7, 8",609803,Thomas Tunney,ES,2015-12-02T17:40:19.962Z,row-2rm7_5mcf.pth9,2015-12-02T17:40:19.962Z,rv-mxhz_abnc.b3hg,BLAINE,-87.664968,41.950781,POINT (-87.66496784430818 41.950780518746996),4,44,1(773)534-5750,Network 4,LAKE VIEW,District,60613
6710 N Washtenaw Ave,"PK, K, 1, 2, 3, 4, 5, 6, 7, 8",609804,Debra L. Silverstein,ES,2015-12-02T17:40:19.962Z,row-yb6s-74sv_38hp,2015-12-02T17:40:19.962Z,rv-b3i2~2749.xujb,BOONE,-87.697463,42.003412,POINT (-87.69746282200741 42.00341160771439),2,50,1(773)534-2160,Network 2,WEST RIDGE,District,60645
7931 S Honore St,"PK, K, 1, 2, 3, 4, 5, 6, 7, 8",609805,Latasha R. Thomas,ES,2015-12-02T17:40:19.962Z,row-jewm.wk52.5vtm,2015-12-02T17:40:19.962Z,rv-j8vh-wbvq_q6uu,JOPLIN,-87.669366,41.749339,POINT (-87.66936564977568 41.749339161801984),11,17,1(773)535-3425,Network 11,AUBURN GRESHAM,District,60620
7736 S Burnham Ave,"PK, K, 1, 2, 3, 4, 5, 6, 7, 8",609806,Natashia Holmes,ES,2015-12-02T17:40:19.962Z,row-ndyp~hvck.qcka,2015-12-02T17:40:19.962Z,rv-b98w-fiyp-rsqa,BRADWELL,-87.557142,41.754365,POINT (-87.55714197049453 41.75436513223218),12,7,1(773)535-6600,AUSL,SOUTH SHORE,District,60649
3434 W 77th St,"K, 1, 2, 3, 4, 5, 6, 7, 8",609807,Lona Lane,ES,2015-12-02T17:40:19.962Z,row-fbiv-9crj.45k6,2015-12-02T17:40:19.962Z,rv-5viz.ug3i-d7uj,HAMPTON,-87.708731,41.753457,POINT (-87.70873128492237 41.75345719340535),10,18,1(773)535-4030,Network 10,ASHBURN,District,60652
11411 S Eggleston Ave,"PK, K, 1, 2, 3, 4, 5, 6, 7, 8",609808,Carrie M. Austin,ES,2015-12-02T17:40:19.962Z,row-qjn9~eegd_k8ef,2015-12-02T17:40:19.962Z,rv-85si_z49z-7m4m,HALEY,-87.633632,41.68666,POINT (-87.6336321364016 41.68665997049498),13,34,1(773)535-5340,Network 13,ROSELAND,District,60628
2723 N Fairfield Ave,"PK, K, 1, 2, 3, 4, 5, 6, 7, 8",609809,Scott Waguespack,ES,2015-12-02T17:40:19.962Z,row-iqqt-qgb8~rsvr,2015-12-02T17:40:19.962Z,rv-vsdp_5wby~gcxi,BRENTANO,-87.696294,41.930966,POINT (-87.69629419836072 41.93096609655106),4,32,1(773)534-4100,Network 4,LOGAN SQUARE,District,60647
3800 N New England Ave,"PK, K, 1, 2, 3, 4, 5, 6, 7, 8",609810,Timothy M. Cullerton,ES,2015-12-02T17:40:19.962Z,row-i3gq-n7fr.ic7y,2015-12-02T17:40:19.962Z,rv-ieiu-xt4b~vrtu,BRIDGE,-87.798669,41.949114,POINT (-87.7986689200339 41.9491143867471),1,38,1(773)534-3718,Network 1,DUNNING,District,60634
10740 S Calhoun Ave,"PK, K, 1, 2, 3, 4, 5, 6, 7, 8",609811,John A. Pope,ES,2015-12-02T17:40:19.962Z,row-ff74~mkkh.qtzr,2015-12-02T17:40:19.962Z,rv-dnhd-g5mn-ueyb,BRIGHT,-87.562084,41.699726,POINT (-87.56208422941677 41.69972622174497),13,10,1(773)535-6215,Network 13,SOUTH DEERING,District,60617
54 N Hermitage Ave,"PK, K, 1, 2, 3, 4, 5, 6, 7, 8",609812,"Walter Burnett, Jr.",ES,2015-12-02T17:40:19.962Z,row-84zu_7fqg_gkax,2015-12-02T17:40:19.962Z,rv-z2b6_th9r.mgzw,BROWN W,-87.670682,41.882997,POINT (-87.6706823910512 41.8829967847415),6,27,1(773)534-7250,Network 6,NEAR WEST SIDE,District,60612
6741 S Michigan Ave,"PK, K, 1, 2, 3, 4, 5, 6",609813,Roderick T. Sawyer,ES,2015-12-02T17:40:19.962Z,row-a92p~y8mi.2zpj,2015-12-02T17:40:19.962Z,rv-fwht.6suq.3sku,BROWNELL,-87.621746,41.77162,POINT (-87.62174596862063 41.77162036005252),12,6,1(773)535-3030,Network 12,GREATER GRAND CROSSING,District,60637
7355 S Jeffery Blvd,"PK, K, 1, 2, 3, 4, 5, 6, 7, 8",609815,Natashia Holmes,ES,2015-12-02T17:40:19.962Z,row-cbaw.w8ns-e4tq,2015-12-02T17:40:19.962Z,rv-iksj-zima.dd96,BOUCHET,-87.576075,41.760847,POINT (-87.57607485767996 41.76084748107714),12,7,1(773)535-0501,Network 12,SOUTH SHORE,District,60649
2701 W Foster Ave,"PK, K, 1, 2, 3, 4, 5, 6, 7, 8",609817,Patrick O'Connor,ES,2015-12-02T17:40:19.962Z,row-8maj~ypxz~u8we,2015-12-02T17:40:19.962Z,rv-fhqh-qghj~p6dn,BUDLONG,-87.696556,41.975754,POINT (-87.6965560322374 41.97575433070856),2,40,1(773)534-2591,Network 2,LINCOLN SQUARE,District,60625
2035 N Mobile Ave,"PK, K, 1, 2, 3, 4, 5, 6, 7, 8",609818,Deborah L. Graham,ES,2015-12-02T17:40:19.962Z,row-fmbj~q7fx~4ph2,2015-12-02T17:40:19.962Z,rv-frfb-tz4v-frfj,BURBANK,-87.7827,41.917598,POINT (-87.7826995703658 41.91759813794979),3,29,1(773)534-3000,Network 3,BELMONT CRAGIN,District,60639
5356 S King Dr,"PK, K, 1, 2, 3, 4, 5, 6, 7, 8",609819,Patricia R. Dowell,ES,2015-12-02T17:40:19.962Z,row-bnpv.basg-4gc8,2015-12-02T17:40:19.962Z,rv-bmn3-6aer_zfiv,BURKE,-87.616141,41.79676,POINT (-87.61614052409718 41.796759564093136),9,3,1(773)535-1325,OS4,WASHINGTON PARK,District,60615
1630 W Barry Ave,"PK, K, 1, 2, 3, 4, 5, 6, 7, 8",609820,Scott Waguespack,ES,2015-12-02T17:40:19.962Z,row-a5tb-s98q_u4w5,2015-12-02T17:40:19.962Z,rv-w55r_3ius-rr8s,BURLEY,-87.669853,41.937937,POINT (-87.66985312359844 41.93793747421322),4,32,1(773)534-5475,Network 4,LAKE VIEW,District,60657
9928 S Crandon Ave,"PK, K, 1, 2, 3, 4, 5, 6, 7, 8",609821,Natashia Holmes,ES,2015-12-02T17:40:19.962Z,row-z88i_4q8v~ycpy,2015-12-02T17:40:19.962Z,rv-p9xb_c5iz-fi4p,BURNHAM,-87.567131,41.714402,POINT (-87.56713059140394 41.71440206280562),13,7,1(773)535-6530,ISP,SOUTH DEERING,District,60617
2524 S Central Park Ave,"4, 5, 6, 7, 8",609826,Ricardo Munoz,ES,2015-12-02T17:40:19.962Z,row-grpq.45nb_xztg,2015-12-02T17:40:19.962Z,rv-3wtx-tuxd_tewz,CASTELLANOS,-87.714927,41.84545,POINT (-87.71492701373938 41.8454498793978),7,22,1(773)534-1620,Network 7,SOUTH LAWNDALE,District,60623
650 E 91st Pl,"PK, K, 1, 2, 3, 4, 5, 6, 7, 8",609827,Michelle A. Harris,ES,2015-12-02T17:40:19.962Z,row-paqy_e4cs~nwp6,2015-12-02T17:40:19.962Z,rv-n5e4~6a78.ccaw,BURNSIDE,-87.607435,41.728481,POINT (-87.60743532151142 41.72848063864711),12,8,1(773)535-3300,Network 12,CHATHAM,District,60619
1621 W Wabansia Ave,"PK, K, 1, 2, 3, 4, 5, 6, 7, 8",609828,Scott Waguespack,ES,2015-12-02T17:40:19.962Z,row-uw7r_bxui~fphy,2015-12-02T17:40:19.962Z,rv-fwa6-7rhy_z78w,BURR,-87.668661,41.912358,POINT (-87.66866060399342 41.91235790842861),6,32,1(773)534-4090,Network 6,WEST TOWN,District,60622
3542 S Washtenaw Ave,"PK, K, 1, 2, 3, 4, 5, 6, 7, 8",609829,George A. Cardenas,ES,2015-12-02T17:40:19.962Z,row-5253~5t28~23r4,2015-12-02T17:40:19.962Z,rv-ygfs~fwdh.wf5k,BURROUGHS,-87.692457,41.828868,POINT (-87.69245662873759 41.828867907603865),8,12,1(773)535-7226,Network 8,BRIGHTON PARK,District,60632
932 N Central Ave,"PK, K, 1, 2, 3, 4, 5, 6, 7, 8",609830,Deborah L. Graham,ES,2015-12-02T17:40:19.962Z,row-wffa_5a3i-7jsk,2015-12-02T17:40:19.962Z,rv-rva6.i4t7~bneu,BRUNSON,-87.765606,41.897663,POINT (-87.7656056579403 41.897662572094205),3,29,1(773)534-6025,Network 3,AUSTIN,District,60651
5329 S Oak Park Ave,"K, 1, 2, 3, 4, 5, 6, 7, 8",609832,Michael R. Zalewski,ES,2015-12-02T17:40:19.962Z,row-xira_5agz_f2n4,2015-12-02T17:40:19.962Z,rv-xmtj_t65m_4zth,BYRNE,-87.791544,41.795031,POINT (-87.79154448271657 41.79503096522182),10,23,1(773)535-2170,Network 10,GARFIELD RIDGE,District,60638
8546 S Cregier Ave,"PK, K, 1, 2, 3, 4, 5, 6, 7, 8",609833,Michelle A. Harris,ES,2015-12-02T17:40:19.962Z,row-t4aw_8dg2-vbcc,2015-12-02T17:40:19.962Z,rv-ziqy.9cr4.q6ha,CALDWELL,-87.580729,41.739226,POINT (-87.58072902768997 41.739226355596244),12,8,1(773)535-6300,Network 12,AVALON PARK,District,60617
2620 S Lawndale Ave,"PK, K, 1, 2, 3, 4, 5, 6, 7, 8",609834,Ricardo Munoz,ES,2015-12-02T17:40:19.962Z,row-d3cz~cimn.sdne,2015-12-02T17:40:19.962Z,rv-9hpw-tc97.nvb5,LITTLE VILLAGE,-87.717319,41.843698,POINT (-87.71731895282397 41.84369811861245),7,22,1(773)534-1880,Network 7,SOUTH LAWNDALE,District,60623
1234 N Monticello Ave,"PK, K, 1, 2, 3, 4, 5, 6, 7, 8",609835,Roberto Maldonado,ES,2015-12-02T17:40:19.962Z,row-3eif_aa8z.mek3,2015-12-02T17:40:19.962Z,rv-kyv4_5tzk.zfe8,CAMERON,-87.717927,41.903792,POINT (-87.71792663527239 41.90379211837752),5,26,1(773)534-4290,Network 5,HUMBOLDT PARK,District,60651
3740 N Panama Ave,"PK, K, 1, 2, 3, 4, 5, 6, 7, 8",609836,Timothy M. Cullerton,ES,2015-12-02T17:40:19.962Z,row-wqm8-t9tj.hrkv,2015-12-02T17:40:19.962Z,rv-aags_msdv.mg8b,CANTY,-87.829296,41.948007,POINT (-87.82929570056224 41.948007028237804),1,38,1(773)534-1238,Network 1,DUNNING,District,60634
1414 E 61st Pl,"PK, K, 1, 2, 3, 4, 5, 6, 7, 8",609837,Willie B. Cochran,ES,2015-12-02T17:40:19.962Z,row-uia9-sfzz_xu74,2015-12-02T17:40:19.962Z,rv-226j_kywf.dtzj,CARNEGIE,-87.590795,41.783368,POINT (-87.59079500879852 41.78336832375731),9,20,1(773)535-0530,Network 9,WOODLAWN,District,60637
2929 W 83rd St,"PK, K, 1, 2, 3, 4, 5, 6, 7, 8",609839,Lona Lane,ES,2015-12-02T17:40:19.962Z,row-7r7c_v4i4.dz5t,2015-12-02T17:40:19.962Z,rv-b2fc.9wm6.y8sr,CARROLL,-87.696012,41.742517,POINT (-87.69601207552847 41.74251662700824),10,18,1(773)535-9414,Network 10,ASHBURN,District,60652
5516 S Maplewood Ave,"PK, K, 1, 2, 3, 4, 5, 6, 7, 8",609842,Toni L. Foulkes,ES,2015-12-02T17:40:19.962Z,row-uww9_3yai.emeb,2015-12-02T17:40:19.962Z,rv-sjqj.xxtu~mrvq,CARSON,-87.6878,41.793272,POINT (-87.68779954329426 41.79327214439986),8,15,1(773)535-9222,ISP,GAGE PARK,District,60629
5740 S Michigan Ave,"PK, K, 1, 2, 3, 4, 5, 6, 7, 8",609844,Willie B. Cochran,ES,2015-12-02T17:40:19.962Z,row-cv63.tzdp~tuya,2015-12-02T17:40:19.962Z,rv-hzax-v6te~8iqt,CARTER,-87.622453,41.789828,POINT (-87.62245275221274 41.78982790556688),9,20,1(773)535-0860,AUSL,WASHINGTON PARK,District,60637
901 E 133rd Pl,"PK, K, 1, 2, 3, 4, 5, 6, 7, 8",609845,Anthony A. Beale,ES,2015-12-02T17:40:19.962Z,row-4rpb.8c6f_aumq,2015-12-02T17:40:19.962Z,rv-tp6z.fck7-2swm,CARVER G,-87.599516,41.653702,POINT (-87.59951563228815 41.653702116053246),13,9,1(773)535-5674,Network 13,RIVERDALE,District,60827
630 E 131st St,"PK, K, 1, 2, 3, 4, 5, 6, 7, 8",609848,Anthony A. Beale,ES,2015-12-02T17:40:19.962Z,row-aqdv~8mkd_2e6f,2015-12-02T17:40:19.962Z,rv-idwi_mp88~47gd,ALDRIDGE,-87.606474,41.657405,POINT (-87.60647384721634 41.657404970403604),13,9,1(773)535-5614,Network 13,RIVERDALE,District,60827
11314 S Spaulding Ave,"K, 1, 2, 3, 4, 5, 6, 7, 8",609849,Matthew J. O'Shea,ES,2015-12-02T17:40:19.962Z,row-8nyb_czmg_3c2g,2015-12-02T17:40:19.962Z,rv-mnju~89gr_dzpy,CASSELL,-87.703215,41.687347,POINT (-87.70321548850967 41.687347055472344),10,19,1(773)535-2640,Network 10,MOUNT GREENWOOD,District,60655
832 W Sheridan Rd,"PK, K, 1, 2, 3, 4, 5, 6, 7, 8",609850,James Cappleman,ES,2015-12-02T17:40:19.962Z,row-e95r_eu58_ht9g,2015-12-02T17:40:19.962Z,rv-wtjt.fxx2~pc5f,GREELEY,-87.65098,41.95281,POINT (-87.65097986912645 41.95280951233409),4,46,1(773)534-5800,Network 4,LAKE VIEW,District,60613
2745 W Roosevelt Rd,"PK, K, 1, 2, 3, 4, 5, 6, 7, 8",609851,Jason C. Ervin,ES,2015-12-02T17:40:19.962Z,row-7c99-d4b8~af6d,2015-12-02T17:40:19.962Z,rv-tedj_ey47_jnpw,CHALMERS,-87.695259,41.866435,POINT (-87.69525936895282 41.86643525254971),5,28,1(773)534-1720,AUSL,NORTH LAWNDALE,District,60608
2135 W Foster Ave,"PK, K, 1, 2, 3, 4, 5, 6, 7, 8",609852,Patrick O'Connor,ES,2015-12-02T17:40:19.962Z,row-rfkn-udse~6nvb,2015-12-02T17:40:19.962Z,rv-thha~8ryr_u3bp,CHAPPELL,-87.683264,41.975894,POINT (-87.6832635915745 41.97589430091326),2,40,1(773)534-2390,Network 2,LINCOLN SQUARE,District,60625
2021 N Point St,"PK, K, 1, 2, 3, 4, 5, 6, 7, 8",609853,Proco (Joe) Moreno III,ES,2015-12-02T17:40:19.962Z,row-df9u_xmdc-wjih,2015-12-02T17:40:19.962Z,rv-en75-ei5d_7c9y,CHASE,-87.694562,41.917993,POINT (-87.6945622511329 41.91799265334613),4,1,1(773)534-4185,Network 4,LOGAN SQUARE,District,60647
2450 W Rice St,"PK, K, 1, 2, 3, 4, 5, 6, 7, 8",609854,Roberto Maldonado,ES,2015-12-02T17:40:19.962Z,row-29bn~myfj~s7gy,2015-12-02T17:40:19.962Z,rv-tfg8-hes6_nzgp,CHOPIN,-87.688937,41.896713,POINT (-87.68893676227361 41.89671268933644),5,26,1(773)534-4080,Network 5,WEST TOWN,District,60622
5042 S Artesian Ave,"K, 1, 2, 3, 4, 5, 6, 7, 8",609855,Edward M. Burke,ES,2015-12-02T17:40:19.962Z,row-ci3i~zcbk.4ipe,2015-12-02T17:40:19.962Z,rv-88uq~sniy-uwuk,CHRISTOPHER,-87.685607,41.801659,POINT (-87.68560700279136 41.80165862466598),8,14,1(773)535-9375,Network 8,GAGE PARK,District,60632
13231 S Burley Ave,"PK, K, 1, 2, 3, 4, 5, 6, 7, 8",609856,John A. Pope,ES,2015-12-02T17:40:19.962Z,row-fa56-cb3k~6g49,2015-12-02T17:40:19.962Z,rv-dzix.t43a~852j,CLAY,-87.544614,41.654558,POINT (-87.5446135978302 41.65455814892288),13,10,1(773)535-5600,Network 13,HEGEWISCH,District,60633
3121 W Byron St,"PK, K, 1, 2, 3, 4, 5, 6, 7, 8",609857,Deborah Mell,ES,2015-12-02T17:40:19.962Z,row-wjab-wwq5_kt9k,2015-12-02T17:40:19.962Z,rv-hykv~8ye6~adf5,CLEVELAND,-87.706443,41.952042,POINT (-87.70644252561287 41.95204212187962),1,33,1(773)534-5130,Network 1,IRVING PARK,District,60618
6110 N Fairfield Ave,"PK, K, 1, 2, 3, 4, 5, 6, 7, 8",609859,Patrick O'Connor,ES,2015-12-02T17:40:19.962Z,row-xcmv~sek5~f44c,2015-12-02T17:40:19.962Z,rv-mtxd.pf9f.6zpi,CLINTON,-87.69836,41.992541,POINT (-87.69835995455804 41.99254136051501),2,40,1(773)534-2025,Network 2,WEST RIDGE,District,60659
2350 W 110th Pl,"K, 1, 2, 3, 4, 5, 6, 7, 8",609861,Matthew J. O'Shea,ES,2015-12-02T17:40:19.962Z,row-eb9g-c6w8~2kdd,2015-12-02T17:40:19.962Z,rv-uuz7.neia_svq9,CLISSOLD,-87.680897,41.693026,POINT (-87.68089678721856 41.693026006788244),10,19,1(773)535-2560,Network 10,MORGAN PARK,District,60643
8441 S Yates Blvd,"PK, K, 1, 2, 3, 4, 5, 6, 7, 8",609862,Natashia Holmes,ES,2015-12-02T17:40:19.962Z,row-bcys~63s5~jaqx,2015-12-02T17:40:19.962Z,rv-xi26~7n3f_ahmy,COLES,-87.56597,41.741413,POINT (-87.56596977128596 41.74141280743846),12,7,1(773)535-6550,Network 12,SOUTH CHICAGO,District,60617
1003 N Leavitt St,"PK, K, 1, 2, 3, 4, 5, 6, 7, 8",609863,Bob Fioretti,ES,2015-12-02T17:40:19.962Z,row-bfm8.rhyw_tpfs,2015-12-02T17:40:19.962Z,rv-bvs3_bv8c-6g8w,COLUMBUS,-87.681938,41.899566,POINT (-87.68193804939365 41.8995657758234),5,2,1(773)534-4350,Network 5,WEST TOWN,District,60622
8150 S Bishop St,"PK, K, 1, 2, 3, 4, 5, 6, 7, 8",609864,"Howard B. Brookins, Jr.",ES,2015-12-02T17:40:19.962Z,row-bcfj_5pes_frgw,2015-12-02T17:40:19.962Z,rv-iqmu~hfd9_mpyx,COOK,-87.659775,41.745237,POINT (-87.6597745902765 41.74523702179156),11,21,1(773)535-3315,Network 11,AUBURN GRESHAM,District,60620
7414 N Wolcott Ave,"PK, K, 1, 2, 3, 4, 5, 6, 7, 8",609865,Joe A. Moore,ES,2015-12-02T17:40:19.962Z,row-nx7t.3dvx.sm47,2015-12-02T17:40:19.962Z,rv-aucm.8tgg~ubbi,JORDAN,-87.677763,42.017088,POINT (-87.67776251667244 42.01708759163853),2,49,1(773)534-2220,Network 2,ROGERS PARK,District,60626
4046 N Leavitt St,"PK, K, 1, 2, 3, 4, 5, 6, 7, 8",609866,Ameya Pawar,ES,2015-12-02T17:40:19.962Z,row-kd4r-z85n-z49y,2015-12-02T17:40:19.962Z,rv-m52k_6ycg~rr29,COONLEY,-87.683765,41.955553,POINT (-87.68376530038417 41.955553195108415),2,47,1(773)534-5140,Network 2,NORTH CENTER,District,60618
1624 W 19th St,"PK, K, 1, 2, 3, 4, 5",609867,Daniel S. Solis,ES,2015-12-02T17:40:19.962Z,row-m67q_fxny.wse8,2015-12-02T17:40:19.962Z,rv-77bz_kr2a.q5fa,COOPER,-87.667227,41.856031,POINT (-87.6672270843215 41.856031192520845),7,25,1(773)534-7205,Network 7,LOWER WEST SIDE,District,60608
6010 S Throop St,"PK, K, 1, 2, 3, 4, 5, 6, 7, 8",609869,JoAnn Thompson,ES,2015-12-02T17:40:19.962Z,row-jtun~qcb8.4ybc,2015-12-02T17:40:19.962Z,rv-r54w~84vw-xwpk,LANGFORD,-87.657169,41.784681,POINT (-87.65716920557595 41.78468086149698),11,16,1(773)535-9180,Network 11,WEST ENGLEWOOD,District,60636
2510 S Kildare Ave,"PK, K, 1, 2, 3, 4, 5, 6, 7, 8",609870,Ricardo Munoz,ES,2015-12-02T17:40:19.962Z,row-axkf-7drd_47zb,2015-12-02T17:40:19.962Z,rv-naa5_da5e.zs2v,CORKERY,-87.731193,41.845602,POINT (-87.73119286518298 41.84560242260817),7,22,1(773)534-1650,Network 7,SOUTH LAWNDALE,District,60623
2554 W 113th St,PK,609871,Matthew J. O'Shea,ES,2015-12-02T17:40:19.962Z,row-2dke.sg5c.paha,2015-12-02T17:40:19.962Z,rv-e5tc.dveb.58j2,VICK,-87.685677,41.688191,POINT (-87.68567659746944 41.68819083816183),10,19,1(773)535-2671,Network 10,MORGAN PARK,District,60655
1241 W 19th St,"PK, K, 1, 2, 3, 4, 5, 6, 7, 8",609872,Daniel S. Solis,ES,2015-12-02T17:40:19.962Z,row-6r9a~nn5d.trdf,2015-12-02T17:40:19.962Z,rv-nef5.ity8.6hqt,PEREZ,-87.65798,41.856029,POINT (-87.65798012816259 41.856028723222444),7,25,1(773)534-7650,ISP,LOWER WEST SIDE,District,60608
2128 S Saint Louis Ave,"PK, K, 1, 2, 3, 4, 5, 6, 7, 8",609873,Michael D. Chandler,ES,2015-12-02T17:40:19.962Z,row-2ucn~kww3-mad4,2015-12-02T17:40:19.962Z,rv-2j3z~pkjw.xeh2,CROWN,-87.71247,41.852663,POINT (-87.71247015109812 41.8526634881361),5,24,1(773)534-1680,Network 5,NORTH LAWNDALE,District,60623
8601 W Foster Ave,"PK, K, 1, 2, 3, 4, 5, 6, 7, 8",609874,Mary O'Connor,ES,2015-12-02T17:40:19.962Z,row-6p4c_cyhq-6zmv,2015-12-02T17:40:19.962Z,rv-ijfk_d8td~7xih,DIRKSEN,-87.841041,41.973715,POINT (-87.84104144205814 41.97371477784984),1,41,1(773)534-1090,Network 1,OHARE,District,60656
3116 W Belden Ave,"PK, K, 1, 2, 3, 4, 5, 6, 7, 8",609875,Scott Waguespack,ES,2015-12-02T17:40:19.962Z,row-4ytn-65r8~s9gq,2015-12-02T17:40:19.962Z,rv-ua7s~x9ti-zupn,DARWIN,-87.705413,41.923323,POINT (-87.70541291324925 41.92332271787146),4,32,1(773)534-4110,Network 4,LOGAN SQUARE,District,60647
3014 W 39th Pl,"PK, K, 1, 2, 3, 4, 5, 6, 7, 8",609876,George A. Cardenas,ES,2015-12-02T17:40:19.962Z,row-syrp~iqsf-2xg5,2015-12-02T17:40:19.962Z,rv-j8bt-mrhs-j5wr,DAVIS N,-87.700202,41.821852,POINT (-87.70020216056176 41.82185161501595),8,12,1(773)535-4540,Network 8,BRIGHTON PARK,District,60632
3810 W 81st Pl,"PK, K, 1, 2, 3, 4, 5, 6, 7, 8",609879,Lona Lane,ES,2015-12-02T17:40:19.962Z,row-xwep_jus5_n4ny,2015-12-02T17:40:19.962Z,rv-mu9x~btdm.f2qr,DAWES,-87.717353,41.745078,POINT (-87.71735342381503 41.74507775217972),10,18,1(773)535-2350,Network 10,ASHBURN,District,60652
7030 N Sacramento Ave,"K, 1, 2, 3, 4, 5, 6",609880,Debra L. Silverstein,ES,2015-12-02T17:40:19.962Z,row-6ys8_faiv_8dt7,2015-12-02T17:40:19.962Z,rv-gbqv~76u3~q335,DECATUR,-87.704619,42.009289,POINT (-87.70461859276938 42.00928855749518),2,50,1(773)534-2201,Network 2,WEST RIDGE,District,60645
7240 S Wabash Ave,"PK, K, 1, 2, 3, 4, 5, 6, 7, 8",609883,Roderick T. Sawyer,ES,2015-12-02T17:40:19.962Z,row-u5m2.x8pi~iqr2,2015-12-02T17:40:19.962Z,rv-7yq4_42b7-aek7,DENEEN,-87.623345,41.76249,POINT (-87.62334458913149 41.76249026457508),12,6,1(773)535-3035,AUSL,GREATER GRAND CROSSING,District,60619
3436 N Osceola Ave,"PK, K, 1, 2, 3, 4, 5, 6, 7, 8",609884,Timothy M. Cullerton,ES,2015-12-02T17:40:19.962Z,row-6zxy~u98w~6hjx,2015-12-02T17:40:19.962Z,rv-79x5.6p4d.2ia5,DEVER,-87.813132,41.942552,POINT (-87.81313152493232 41.942551669903125),1,38,1(773)534-3090,Network 1,DUNNING,District,60634
5415 S Union Ave,"PK, K, 1, 2, 3, 4, 5, 6, 7, 8",609885,Willie B. Cochran,ES,2015-12-02T17:40:19.962Z,row-6sr6.5j3j-be2v,2015-12-02T17:40:19.962Z,rv-xymp.y7hc~u8m5,DEWEY,-87.642652,41.795646,POINT (-87.6426515781214 41.795645683830024),11,20,1(773)535-1666,AUSL,NEW CITY,District,60609
8306 S Saint Lawrence Ave,"PK, K, 1, 2, 3, 4, 5, 6, 7, 8",609887,Roderick T. Sawyer,ES,2015-12-02T17:40:19.962Z,row-padr.dayp_3im4,2015-12-02T17:40:19.962Z,rv-95a4.6vdw~udvz,DIXON,-87.609979,41.743669,POINT (-87.60997887509087 41.743669242191366),12,6,1(773)535-3834,Network 12,CHATHAM,District,60619
431 N Troy St,"PK, K, 1, 2, 3, 4, 5, 6, 7, 8",609888,"Walter Burnett, Jr.",ES,2015-12-02T17:40:19.962Z,row-hzvq-sm8f_pdq6,2015-12-02T17:40:19.962Z,rv-6kbd_22h3_g3ew,DODGE,-87.703794,41.889184,POINT (-87.70379373543253 41.889184175654265),5,27,1(773)534-6640,AUSL,HUMBOLDT PARK,District,60612
535 E 35th St,"PK, K, 1, 2, 3, 4, 5, 6, 7, 8",609891,"William ""Will"" D. Burns",ES,2015-12-02T17:40:19.962Z,row-58h3-7p8y.yd5y,2015-12-02T17:40:19.962Z,rv-kjtz~cq8q_jara,DOOLITTLE,-87.612275,41.831121,POINT (-87.6122745425369 41.83112062918387),9,4,1(773)535-1040,Network 9,DOUGLAS,District,60616
6108 S Natoma Ave,"PK, K, 1, 2, 3, 4, 5, 6, 7, 8",609893,Marty Quinn,ES,2015-12-02T17:40:19.962Z,row-try8-vuvw_gatp,2015-12-02T17:40:19.962Z,rv-c7q7_hdas_yy4n,DORE,-87.787604,41.780954,POINT (-87.78760442136841 41.78095446429405),10,13,1(773)535-2080,ISP,CLEARING,District,60638
2710 S Dearborn St,"PK, K, 1, 2, 3, 4, 5, 6, 7, 8",609894,Patricia R. Dowell,ES,2015-12-02T17:40:19.962Z,row-3yui_hu73-9s7w,2015-12-02T17:40:19.962Z,rv-ethm.jbkp~3ytk,DRAKE,-87.628553,41.844043,POINT (-87.62855344679393 41.844043313288154),9,3,1(773)534-9129,Network 9,DOUGLAS,District,60616
9300 S Princeton Ave,"K, 1, 2, 3, 4, 5, 6, 7, 8",609895,"Howard B. Brookins, Jr.",ES,2015-12-02T17:40:19.962Z,row-4jvc~423h_6p62,2015-12-02T17:40:19.962Z,rv-cnkh.ubb3_ed33,TURNER-DREW,-87.630164,41.725609,POINT (-87.63016447921711 41.7256092162375),11,21,1(773)535-5720,Network 11,ROSELAND,District,60620
1845 W Cortland St,"PK, K, 1, 2, 3, 4, 5, 6, 7, 8",609896,Scott Waguespack,ES,2015-12-02T17:40:19.962Z,row-4sw9_bahz~wz3x,2015-12-02T17:40:19.962Z,rv-nihu~tnzr~hpks,DRUMMOND,-87.674495,41.915914,POINT (-87.67449459920272 41.91591380223775),6,32,1(773)534-4120,Network 6,LOGAN SQUARE,District,60622
2040 W 62nd St,"PK, K, 1, 2, 3, 4, 5, 6, 7, 8",609897,JoAnn Thompson,ES,2015-12-02T17:40:19.962Z,row-u955~4vhy-9mmj,2015-12-02T17:40:19.962Z,rv-sfmy.9q23-mt9d,EARLE,-87.675547,41.781225,POINT (-87.67554666057482 41.781225173053805),11,16,1(773)535-9130,Network 11,WEST ENGLEWOOD,District,60636
3400 W 65th Pl,"PK, K, 1, 2, 3, 4, 5, 6, 7, 8",609898,Michael R. Zalewski,ES,2015-12-02T17:40:19.962Z,row-6vq9-rnau-mi5r,2015-12-02T17:40:19.962Z,rv-5eb6.ugen~4pj7,EBERHART,-87.707953,41.77442,POINT (-87.70795263404564 41.77442045236846),10,23,1(773)535-9190,Network 10,CHICAGO LAWN,District,60629
7350 W Pratt Ave,"K, 1, 2, 3, 4, 5, 6, 7, 8",609899,Mary O'Connor,ES,2015-12-02T17:40:19.962Z,row-2i2c_puud.nt2y,2015-12-02T17:40:19.962Z,rv-wmwk_2xhw_7jpf,EBINGER,-87.81117,42.004408,POINT (-87.81116978457902 42.00440792166091),1,41,1(773)534-1070,Network 1,EDISON PARK,District,60631
32 E 115th St,"PK, K, 1, 2, 3, 4, 5, 6, 7, 8",609900,Anthony A. Beale,ES,2015-12-02T17:40:19.962Z,row-ft7t.8v3v_pxbc,2015-12-02T17:40:19.962Z,rv-kfh9.yfbt_q5gh,CURTIS,-87.621653,41.685418,POINT (-87.62165260768882 41.68541840038957),13,9,1(773)535-5050,AUSL,ROSELAND,District,60628
6525 N Hiawatha Ave,"K, 1, 2, 3, 4, 5, 6, 7, 8",609901,Mary O'Connor,ES,2015-12-02T17:40:19.962Z,row-s333~hvce_4vs7,2015-12-02T17:40:19.962Z,rv-5fun.hrb7.pwfs,EDGEBROOK,-87.76184,41.999437,POINT (-87.76184047493662 41.999436833665804),1,41,1(773)534-1194,ISP,FOREST GLEN,District,60646
12339 S Normal Ave,"PK, K, 1, 2, 3, 4, 5, 6, 7, 8",609902,Carrie M. Austin,ES,2015-12-02T17:40:19.962Z,row-5iji~wcji~fifa,2015-12-02T17:40:19.962Z,rv-z8br_sw8u-i4t8,METCALFE,-87.634306,41.669444,POINT (-87.63430552145294 41.66944402277346),13,34,1(773)535-5590,Network 13,WEST PULLMAN,District,60628
4815 S Karlov Ave,"PK, K, 1, 2, 3, 4, 5, 6, 7, 8",609903,Edward M. Burke,ES,2015-12-02T17:40:19.962Z,row-rdi7.b6vt_5dav,2015-12-02T17:40:19.962Z,rv-g8y8.2r7b-tns5,EDWARDS,-87.725856,41.805542,POINT (-87.72585617780213 41.80554154017704),8,14,1(773)535-4875,Network 8,ARCHER HEIGHTS,District,60632
243 N Parkside Ave,"PK, K, 1, 2, 3, 4, 5, 6, 7, 8",609904,Deborah L. Graham,ES,2015-12-02T17:40:19.962Z,row-umvr-eq3t-y2b8,2015-12-02T17:40:19.962Z,rv-ndf3_46rm.pagn,ELLINGTON,-87.766589,41.88553,POINT (-87.7665893774387 41.885529580631264),3,29,1(773)534-6361,Network 3,AUSTIN,District,60644
3600 W 5th Ave,"PK, K, 1, 2, 3, 4, 5, 6, 7, 8",609907,Jason C. Ervin,ES,2015-12-02T17:40:19.962Z,row-urbf~zybw_qgzm,2015-12-02T17:40:19.962Z,rv-fyjx_kgqe-5e8n,ERICSON,-87.715804,41.875744,POINT (-87.71580443125494 41.87574412320104),5,28,1(773)534-6660,Network 5,EAST GARFIELD PARK,District,60624
1865 W Montvale Ave,"PK, K, 1, 2, 3, 4, 5, 6, 7, 8",609908,Matthew J. O'Shea,ES,2015-12-02T17:40:19.962Z,row-xqjb~fsf4_vgb2,2015-12-02T17:40:19.962Z,rv-66cf-f2ab.nzcd,ESMOND,-87.669159,41.68942,POINT (-87.66915866971293 41.68941960670054),10,19,1(773)535-2650,Network 10,MORGAN PARK,District,60643
3419 S Bell Ave,"PK, K, 1, 2, 3, 4, 5",609909,George A. Cardenas,ES,2015-12-02T17:40:19.962Z,row-pjt3.c3i9~ykmb,2015-12-02T17:40:19.962Z,rv-8e8i-4x4z.6z8z,EVERETT,-87.68131,41.831555,POINT (-87.68131030396447 41.831555161171295),8,12,1(773)535-4550,Network 8,MCKINLEY PARK,District,60608
3020 N Lamon Ave,"PK, K, 1, 2, 3, 4, 5, 6",609910,Ray Suarez,ES,2015-12-02T17:40:19.962Z,row-65sc.u9ph-7bkv,2015-12-02T17:40:19.962Z,rv-mte5-i6vh~78a9,FALCONER,-87.749331,41.935785,POINT (-87.7493306250851 41.93578457421183),3,31,1(773)534-3560,Network 3,BELMONT CRAGIN,District,60641
5414 N Linder Ave,"PK, K, 1, 2, 3, 4, 5, 6, 7, 8",609912,John Arena,ES,2015-12-02T17:40:19.962Z,row-6adj~hw5y-8ucr,2015-12-02T17:40:19.962Z,rv-kfhp~5pti-rv5g,FARNSWORTH,-87.766072,41.97979,POINT (-87.76607165769727 41.97979005586698),1,45,1(773)534-3535,Network 1,JEFFERSON PARK,District,60630
10041 S Union Ave,"PK, K, 1, 2, 3, 4, 5, 6, 7, 8",609917,Carrie M. Austin,ES,2015-12-02T17:40:19.962Z,row-smuq-w4a3~tapr,2015-12-02T17:40:19.962Z,rv-jrqp_abh9~z2b3,FERNWOOD,-87.640414,41.711184,POINT (-87.6404136460056 41.71118362266995),13,34,1(773)535-2700,Network 13,WASHINGTON HEIGHTS,District,60628
7019 N Ashland Ave,"4, 5, 6, 7, 8",609918,Joe A. Moore,ES,2015-12-02T17:40:19.962Z,row-fsbq.f243_md6d,2015-12-02T17:40:19.962Z,rv-b64d~j4zd~znnt,FIELD,-87.669985,42.009664,POINT (-87.66998540120437 42.00966385527161),2,49,1(773)534-2030,Network 2,ROGERS PARK,District,60626
6020 S Langley Ave,"PK, K, 1, 2, 3, 4, 5, 6, 7, 8",609919,Willie B. Cochran,ES,2015-12-02T17:40:19.962Z,row-xv8v~jkxg-deyr,2015-12-02T17:40:19.962Z,rv-iuxi_x7ym_tagw,FISKE,-87.608633,41.785183,POINT (-87.60863289676954 41.785182816749966),9,20,1(773)535-0990,Network 9,WOODLAWN,District,60637
2233 S Kedzie Ave,"PK, K, 1, 2, 3, 4, 5, 6, 7, 8",609920,George A. Cardenas,ES,2015-12-02T17:40:19.962Z,row-rfny-wyaw_ensz,2015-12-02T17:40:19.962Z,rv-p27k.4mje-yc6k,KANOON,-87.705112,41.850771,POINT (-87.70511207744183 41.850771483971116),7,12,1(773)534-1736,Network 7,SOUTH LAWNDALE,District,60623
2832 W 24th Blvd,"PK, K, 1, 2, 3, 4, 5, 6, 7, 8",609921,George A. Cardenas,ES,2015-12-02T17:40:19.962Z,row-vm2n_i47f_jaib,2015-12-02T17:40:19.962Z,rv-na8s_zngj.b38b,TELPOCHCALLI,-87.696006,41.847947,POINT (-87.69600587940728 41.847947432627194),7,12,1(773)534-1402,Network 7,SOUTH LAWNDALE,District,60623
5252 W Palmer St,"PK, K, 1, 2, 3, 4, 5, 6, 7, 8",609922,Nicholas Sposato,ES,2015-12-02T17:40:19.962Z,row-e4ya_zai9_6rqu,2015-12-02T17:40:19.962Z,rv-md4f~3vek.g9sy,BELMONT-CRAGIN,-87.756843,41.92015,POINT (-87.75684290346346 41.920150047038405),3,36,1(773)534-2900,Network 3,BELMONT CRAGIN,District,60639
9025 S Throop St,"PK, K, 1, 2, 3, 4, 5, 6, 7, 8",609924,"Howard B. Brookins, Jr.",ES,2015-12-02T17:40:19.962Z,row-uj8z-c9n5~72ww,2015-12-02T17:40:19.962Z,rv-i8b7~46ud_x9e8,FORT DEARBORN,-87.655481,41.729673,POINT (-87.6554811603943 41.72967267505925),11,21,1(773)535-2680,Network 11,WASHINGTON HEIGHTS,District,60620
3030 W Arthington St,"PK, K, 1, 2, 3, 4, 5, 6, 7, 8",609925,Jason C. Ervin,ES,2015-12-02T17:40:19.962Z,row-4hes_jbzn~hdgt,2015-12-02T17:40:19.962Z,rv-tmfd~nzuy_8kzj,KELLMAN,-87.702163,41.870168,POINT (-87.7021629045286 41.87016771755697),5,28,1(773)534-6602,Network 5,EAST GARFIELD PARK,District,60612
225 W Evergreen Ave,"K, 1, 2, 3, 4, 5, 6, 7, 8",609926,"Walter Burnett, Jr.",ES,2015-12-02T17:40:19.962Z,row-u6iy-xxtw~ei3r,2015-12-02T17:40:19.962Z,rv-kp8b.c3ng-wwbp,FRANKLIN,-87.635513,41.9066,POINT (-87.63551281029522 41.906599990449884),4,27,1(773)534-8510,Network 4,NEAR NORTH SIDE,District,60610
8530 S Wood St,"PK, K, 1, 2, 3, 4, 5, 6, 7, 8",609927,"Howard B. Brookins, Jr.",ES,2015-12-02T17:40:19.962Z,row-tddh.psta~jitv,2015-12-02T17:40:19.962Z,rv-2zvj.zdch_sjxb,FOSTER PARK,-87.668099,41.738425,POINT (-87.66809931188477 41.73842547780772),11,21,1(773)535-2725,Network 11,AUBURN GRESHAM,District,60620
4214 S St Lawrence Ave,"PK, K, 1, 2, 3, 4, 5, 6, 7, 8",609928,"William ""Will"" D. Burns",ES,2015-12-02T17:40:19.962Z,row-dwas-y743~6zk7,2015-12-02T17:40:19.962Z,rv-33r6~eicv_u4iz,FULLER,-87.611784,41.818003,POINT (-87.61178404273244 41.81800340374355),9,4,1(773)535-1687,AUSL,GRAND BOULEVARD,District,60653
5300 S Hermitage Ave,"PK, K, 1, 2, 3, 4, 5, 6, 7, 8",609929,JoAnn Thompson,ES,2015-12-02T17:40:19.962Z,row-9uqj_6uuu~ggss,2015-12-02T17:40:19.962Z,rv-x8un_3jgv~349m,FULTON,-87.668436,41.79758,POINT (-87.66843588138876 41.79758027117526),11,16,1(773)535-9000,Network 11,NEW CITY,District,60609
2010 N Central Park Ave,"PK, K, 1, 2, 3, 4, 5, 6, 7, 8",609930,Roberto Maldonado,ES,2015-12-02T17:40:19.962Z,row-z6bq-qfvq.cs9v,2015-12-02T17:40:19.962Z,rv-qfb8.3hmf-79na,FUNSTON,-87.716892,41.917617,POINT (-87.7168916649345 41.91761651439109),4,26,1(773)534-4125,Network 4,LOGAN SQUARE,District,60647
1631 W Jonquil Ter,"PK, K, 1, 2, 3, 4, 5, 6, 7, 8",609933,Joe A. Moore,ES,2015-12-02T17:40:19.962Z,row-cc86~rgaq.q5eu,2015-12-02T17:40:19.962Z,rv-vr4b~ugek-exaj,GALE,-87.671939,42.021091,POINT (-87.67193897605307 42.02109055814915),2,49,1(773)534-2100,Network 2,ROGERS PARK,District,60626
10347 S Ewing Ave,"PK, K, 1, 2, 3, 4, 5, 6, 7, 8",609935,John A. Pope,ES,2015-12-02T17:40:19.962Z,row-sqfm-th9e~2922,2015-12-02T17:40:19.962Z,rv-q4cd-htz9-aevc,GALLISTEL,-87.535175,41.706801,POINT (-87.53517530620321 41.70680099982409),13,10,1(773)535-6540,Network 13,EAST SIDE,District,60617
5225 N Oak Park Ave,"K, 1, 2, 3, 4, 5, 6, 7, 8",609937,Mary O'Connor,ES,2015-12-02T17:40:19.962Z,row-kbpp.5s2e_zq5z,2015-12-02T17:40:19.962Z,rv-h5df-ghya-4m64,GARVY,-87.796235,41.976352,POINT (-87.79623511346946 41.97635166416263),1,41,1(773)534-1185,Network 1,NORWOOD PARK,District,60656
3740 W 31st St,"PK, 3, 4, 5, 6, 7, 8",609938,Ricardo Munoz,ES,2015-12-02T17:40:19.962Z,row-gi46_abwy_ezyf,2015-12-02T17:40:19.962Z,rv-j6j8_pbnq-p628,GARY,-87.718697,41.837065,POINT (-87.71869663523354 41.83706515212115),7,22,1(773)534-1455,Network 7,SOUTH LAWNDALE,District,60623
9301 S State St,"PK, K, 1, 2, 3, 4, 5, 6, 7, 8",609939,Anthony A. Beale,ES,2015-12-02T17:40:19.962Z,row-tggy~inqd_txf5,2015-12-02T17:40:19.962Z,rv-s6aj~pjbc_2zgv,GILLESPIE,-87.623719,41.725332,POINT (-87.62371943794665 41.72533227949612),12,9,1(773)535-5065,Network 12,ROSELAND,District,60619
7316 S Hoyne Ave,"PK, K, 1, 2, 3, 4, 5, 6, 7, 8",609941,Latasha R. Thomas,ES,2015-12-02T17:40:19.962Z,row-2cbi~ekfu~e4vm,2015-12-02T17:40:19.962Z,rv-dje6~gqk4~rw23,RANDOLPH,-87.675966,41.760614,POINT (-87.67596551370144 41.760614127954284),11,17,1(773)535-9015,Network 11,WEST ENGLEWOOD,District,60636
2236 N Rockwell St,"PK, K, 1, 2, 3, 4, 5, 6, 7, 8",609942,Proco (Joe) Moreno III,ES,2015-12-02T17:40:19.962Z,row-4ave.dtrb_4aa4,2015-12-02T17:40:19.962Z,rv-vd2n-5rpc~rxby,GOETHE,-87.6929,41.922831,POINT (-87.6928996957519 41.922831007689666),4,1,1(773)534-4135,Network 4,LOGAN SQUARE,District,60647
12302 S State St,"PK, K, 1, 2, 3, 4, 5, 6, 7, 8",609943,Anthony A. Beale,ES,2015-12-02T17:40:19.962Z,row-phbb_jddc.53d4,2015-12-02T17:40:19.962Z,rv-35s2.zqve_9b3a,OWENS,-87.622546,41.670618,POINT (-87.62254566112398 41.67061754018416),13,9,1(773)535-5475,Network 13,WEST PULLMAN,District,60628
12810 S Escanaba Ave,"PK, K, 1, 2, 3, 4, 5, 6, 7, 8",609944,John A. Pope,ES,2015-12-02T17:40:19.962Z,row-ujs5~b6bk~77px,2015-12-02T17:40:19.962Z,rv-zcy7~kiru-ciep,GRISSOM,-87.553307,41.662481,POINT (-87.55330670973798 41.66248099896203),13,10,1(773)535-5380,Network 13,HEGEWISCH,District,60633
5120 N Winthrop Ave,"PK, K, 1, 2, 3, 4, 5, 6, 7, 8",609945,Harry Osterman,ES,2015-12-02T17:40:19.962Z,row-cw6n~mr9v.4q3f,2015-12-02T17:40:19.962Z,rv-6mdf~ed4i-w8y2,GOUDY,-87.657912,41.975817,POINT (-87.65791249293737 41.975816530624726),2,48,1(773)534-2480,Network 2,UPTOWN,District,60640
4436 S Union Ave,"PK, K, 1, 2, 3, 4, 5, 6, 7, 8",609947,James A. Balcer,ES,2015-12-02T17:40:19.962Z,row-d4yb-sra6~38pg,2015-12-02T17:40:19.962Z,rv-dp39_fp58_8mwf,GRAHAM ES,-87.643344,41.813304,POINT (-87.64334423528281 41.81330372954103),6,11,1(773)535-1308,Network 6,NEW CITY,District,60609
3730 N Laramie Ave,"PK, K, 1, 2, 3, 4, 5, 6, 7, 8",609949,John Arena,ES,2015-12-02T17:40:19.962Z,row-mjbv-gac4.yuqe,2015-12-02T17:40:19.962Z,rv-pfyg-xqhu-g6dc,GRAY,-87.757116,41.948764,POINT (-87.75711559878036 41.948763579648976),1,45,1(773)534-3520,Network 1,PORTAGE PARK,District,60641
3000 S Lawndale Ave,"PK, K, 1, 2",609950,Ricardo Munoz,ES,2015-12-02T17:40:19.962Z,row-4zx9_7biz.w7af,2015-12-02T17:40:19.962Z,rv-w8vn-ed48_y6jc,ORTIZ DE DOMINGUEZ,-87.71719,41.838791,POINT (-87.71719032063734 41.83879052052434),7,22,1(773)534-1600,Network 7,SOUTH LAWNDALE,District,60623
1119 E 46th St,"PK, K, 1, 2, 3, 4, 5, 6, 7, 8",609951,"William ""Will"" D. Burns",ES,2015-12-02T17:40:19.962Z,row-igkn.wnuz~tkuz,2015-12-02T17:40:19.962Z,rv-bt5u_r9d4.ax5b,ARIEL,-87.597503,41.811173,POINT (-87.59750293141377 41.81117346222018),9,4,1(773)535-1996,ISP,KENWOOD,District,60653
3525 S Honore St,"PK, K, 1, 2, 3, 4, 5",609952,George A. Cardenas,ES,2015-12-02T17:40:19.962Z,row-fw5b_7nhd_tjin,2015-12-02T17:40:19.962Z,rv-x6ix_4n47~pe5c,GREENE,-87.671492,41.829669,POINT (-87.67149236977632 41.829669281787375),8,12,1(773)535-4560,Network 8,MCKINLEY PARK,District,60609
3715 W Polk St,"PK, K, 1, 2, 3, 4, 5, 6, 7, 8",609954,Michael D. Chandler,ES,2015-12-02T17:40:19.962Z,row-qed7.3fj4.te2u,2015-12-02T17:40:19.962Z,rv-fpeg-chcx_7mt8,GREGORY,-87.718666,41.870742,POINT (-87.71866612874993 41.870742162889094),5,24,1(773)534-6820,Network 5,EAST GARFIELD PARK,District,60624
8524 S Green St,"PK, K, 1, 2, 3, 4, 5, 6, 7, 8",609955,"Howard B. Brookins, Jr.",ES,2015-12-02T17:40:19.962Z,row-9eyc.rh3y-gqys,2015-12-02T17:40:19.962Z,rv-qcwq-thbj_idx5,GRESHAM,-87.645025,41.73892,POINT (-87.64502523785522 41.738920158149604),11,21,1(773)535-3350,AUSL,AUBURN GRESHAM,District,60620
5450 W 64th Pl,"PK, K, 1, 2, 3, 4, 5, 6, 7, 8",609956,Marty Quinn,ES,2015-12-02T17:40:19.962Z,row-jh7b~xwrn~ky58,2015-12-02T17:40:19.962Z,rv-9t6u~f2hi_ja44,GRIMES,-87.758803,41.775464,POINT (-87.75880329372353 41.77546426181999),10,13,1(773)535-2364,Network 10,CLEARING,District,60638
4420 S Sacramento Ave,"PK, K, 1, 2, 3, 4, 5, 6, 7, 8",609958,Toni L. Foulkes,ES,2015-12-02T17:40:19.962Z,row-svw6.4zn5~cb8e,2015-12-02T17:40:19.962Z,rv-zfmx~6edn-2pe8,GUNSAULUS,-87.699364,41.813007,POINT (-87.69936418517861 41.813007370292176),8,15,1(773)535-7215,Network 8,BRIGHTON PARK,District,60632
247 W 23rd Pl,"PK, K, 1, 2, 3, 4, 5, 6, 7, 8",609959,Daniel S. Solis,ES,2015-12-02T17:40:19.962Z,row-34ig~bzv8-g9tz,2015-12-02T17:40:19.962Z,rv-tfxy_gqk2.tcrq,HAINES,-87.633806,41.849958,POINT (-87.63380633150742 41.84995831581532),6,25,1(773)534-9200,ISP,ARMOUR SQUARE,District,60616
6140 S Melvina Ave,"PK, K, 1, 2, 3, 4, 5, 6, 7, 8",609960,Marty Quinn,ES,2015-12-02T17:40:19.962Z,row-jeaf_chqs_yehv,2015-12-02T17:40:19.962Z,rv-seq6-5zbd.38ab,HALE,-87.776579,41.780192,POINT (-87.77657870911844 41.78019173234117),10,13,1(773)535-2265,Network 10,CLEARING,District,60638
8344 S Commercial Ave,"PK, K, 1, 2, 3, 4, 5, 6, 7, 8",609961,Natashia Holmes,ES,2015-12-02T17:40:19.962Z,row-3iwx.hu35.jt6b,2015-12-02T17:40:19.962Z,rv-gapk.6s34_r47j,NINOS HEROES,-87.551862,41.743753,POINT (-87.55186171908194 41.74375308374468),12,7,1(773)535-6694,Network 12,SOUTH CHICAGO,District,60617
1650 W Cornelia Ave,"PK, K, 1, 2, 3, 4, 5, 6, 7, 8",609963,Ameya Pawar,ES,2015-12-02T17:40:19.962Z,row-exqq~g5wb-f33h,2015-12-02T17:40:19.962Z,rv-q58k~pz3s-ejnv,HAMILTON,-87.670865,41.94522,POINT (-87.67086537347177 41.945219654610455),4,47,1(773)534-5484,Network 4,LAKE VIEW,District,60657
4747 S Bishop St,"PK, K, 1, 2, 3, 4, 5, 6, 7, 8",609964,Willie B. Cochran,ES,2015-12-02T17:40:19.962Z,row-jja6-xdbb~df7q,2015-12-02T17:40:19.962Z,rv-26s7-zh38.cwbm,HAMLINE,-87.661175,41.807242,POINT (-87.66117465941865 41.80724155794065),8,20,1(773)535-4565,Network 8,NEW CITY,District,60609
2819 W 21st Pl,"PK, K, 1, 2, 3, 4, 5, 6, 7, 8",609966,George A. Cardenas,ES,2015-12-02T17:40:19.962Z,row-7ecc_43x7-dt5e,2015-12-02T17:40:19.962Z,rv-753e-4gvu~g2hu,HAMMOND,-87.696243,41.852719,POINT (-87.69624330058197 41.85271913479804),7,12,1(773)535-4580,Network 7,SOUTH LAWNDALE,District,60623
2332 S Western Ave,"PK, K, 1, 2, 3, 4, 5, 6, 7, 8",609967,Daniel S. Solis,ES,2015-12-02T17:40:19.962Z,row-n2zs-w3pr~ef7m,2015-12-02T17:40:19.962Z,rv-3uj8~6arq~wsq3,FINKL,-87.685668,41.849215,POINT (-87.68566784313633 41.8492149059004),7,25,1(773)535-5850,Network 7,LOWER WEST SIDE,District,60608
1841 N Springfield Ave,"PK, K, 1, 2, 3, 4, 5, 6, 7, 8",609968,Roberto Maldonado,ES,2015-12-02T17:40:19.962Z,row-xiqy.kmsk~i67p,2015-12-02T17:40:19.962Z,rv-dy72-zgm4-ucuy,MCAULIFFE,-87.723931,41.914816,POINT (-87.72393113191947 41.91481634188913),4,26,1(773)534-4400,Network 4,HERMOSA,District,60647
1556 E 56th St,"PK, K, 1, 2, 3, 4, 5, 6, 7, 8",609969,Leslie A. Hairston,ES,2015-12-02T17:40:19.962Z,row-g5iq-5c8k-cvz4,2015-12-02T17:40:19.962Z,rv-rrtr_ydtw.q7zj,HARTE,-87.586855,41.793447,POINT (-87.58685459676883 41.79344724412813),9,5,1(773)535-0870,Network 9,HYDE PARK,District,60637
7525 S Harvard,"PK, K, 1, 2, 3, 4, 5, 6, 7, 8",609971,Roderick T. Sawyer,ES,2015-12-02T17:40:19.962Z,row-dnyi~wk7e~x467,2015-12-02T17:40:19.962Z,rv-savh_q24y~wgcv,HARVARD,-87.632737,41.757341,POINT (-87.63273687382494 41.75734054229414),11,6,1(773)535-3045,AUSL,GREATER GRAND CROSSING,District,60620
4540 N Hamlin Ave,"PK, K, 1, 2, 3, 4, 5, 6",609972,Rey Colon,ES,2015-12-02T17:40:19.962Z,row-ht8j.f93c_nqum,2015-12-02T17:40:19.962Z,rv-jjz3-2yxn.dzct,HAUGAN,-87.723128,41.964029,POINT (-87.72312803518258 41.96402870955497),1,35,1(773)534-5040,Network 1,ALBANY PARK,District,60625
2728 S Kostner Ave,"PK, K, 1, 2, 3, 4, 5, 6, 7, 8",609973,Ricardo Munoz,ES,2015-12-02T17:40:19.962Z,row-k2mp.kris.p8vx,2015-12-02T17:40:19.962Z,rv-msuf~ykgs_vfh7,ZAPATA,-87.734313,41.841394,POINT (-87.73431332420165 41.84139380436652),7,22,1(773)534-1390,ISP,SOUTH LAWNDALE,District,60623
3319 N Clifton Ave,"K, 1, 2, 3, 4, 5, 6, 7, 8",609974,Thomas Tunney,ES,2015-12-02T17:40:19.962Z,row-bdwz_qkry-8m43,2015-12-02T17:40:19.962Z,rv-xjrf_d4ds_6qxj,HAWTHORNE,-87.657709,41.942275,POINT (-87.65770887691485 41.94227548893776),4,44,1(773)534-5550,Network 4,LAKE VIEW,District,60657
1018 N Laramie Ave,"PK, K, 1, 2, 3, 4, 5, 6, 7, 8",609975,Emma M. Mitts,ES,2015-12-02T17:40:19.962Z,row-kj2r_tggz~tigm,2015-12-02T17:40:19.962Z,rv-h9ni-56d2_re2r,HAY,-87.755813,41.899171,POINT (-87.75581325312007 41.89917135608494),3,37,1(773)534-6000,Network 3,AUSTIN,District,60651
1518 W Granville Ave,"PK, K, 1, 2, 3, 4, 5, 6, 7, 8",609976,Harry Osterman,ES,2015-12-02T17:40:19.962Z,row-7yby_h45f-ktvx,2015-12-02T17:40:19.962Z,rv-uw4a.4hjk-y6rc,HAYT,-87.668504,41.994541,POINT (-87.66850377448598 41.994540886747274),2,48,1(773)534-2040,Network 2,EDGEWATER,District,60660
6657 S Kimbark Ave,"PK, K, 1, 2, 3, 4, 5, 6",609977,Leslie A. Hairston,ES,2015-12-02T17:40:19.962Z,row-u5m6-kfkj_798g,2015-12-02T17:40:19.962Z,rv-f6pr_cvi5_upvp,WOODLAWN,-87.594392,41.773366,POINT (-87.594391995999 41.773365531999744),9,5,1(773)535-0801,Network 9,WOODLAWN,District,60637
744 E 103rd St,"PK, K, 1, 2, 3, 4, 5, 6, 7, 8",609978,Michelle A. Harris,ES,2015-12-02T17:40:19.962Z,row-fbr4~66g8.pntx,2015-12-02T17:40:19.962Z,rv-ip7z-yxs4_xnat,SMITH,-87.60466,41.707558,POINT (-87.60466040848125 41.70755761742015),13,8,1(773)535-5689,Network 13,PULLMAN,District,60628
3010 S Parnell Ave,"PK, K, 1, 2, 3, 4, 5, 6, 7, 8",609979,James A. Balcer,ES,2015-12-02T17:40:19.962Z,row-ntw8_3rm8.mptk,2015-12-02T17:40:19.962Z,rv-sdxh~m5yv_kn7x,HEALY,-87.640341,41.839595,POINT (-87.6403407500606 41.83959485626091),6,11,1(773)534-9190,ISP,BRIDGEPORT,District,60616
4640 S Lamon Ave,"PK, K, 1, 2, 3, 4, 5, 6, 7, 8",609981,Ricardo Munoz,ES,2015-12-02T17:40:19.962Z,row-ehae-3swz_xz4k,2015-12-02T17:40:19.962Z,rv-kc9r~4j49_xgkh,HEARST,-87.745726,41.808175,POINT (-87.74572605723584 41.80817500025469),10,22,1(773)535-2376,Network 10,GARFIELD RIDGE,District,60638
4747 S Winchester Ave,"PK, K, 1, 2, 3, 4, 5, 6, 7, 8",609983,Toni L. Foulkes,ES,2015-12-02T17:40:19.962Z,row-qru5_e2g2.a42j,2015-12-02T17:40:19.962Z,rv-adfv~kqkp-2zxb,HEDGES,-87.673327,41.807112,POINT (-87.67332725936151 41.807112131998174),8,15,1(773)535-7360,Network 8,NEW CITY,District,60609
4409 W Wilcox St,"PK, K, 1, 2, 3, 4, 5, 6, 7, 8",609985,Jason C. Ervin,ES,2015-12-02T17:40:19.962Z,row-5ru9~qppv.mfh8,2015-12-02T17:40:19.962Z,rv-y27r~zc7d.f3t6,HEFFERAN,-87.735802,41.878665,POINT (-87.73580189396158 41.87866464728026),5,28,1(773)534-6192,Network 5,WEST GARFIELD PARK,District,60624
5650 S Wolcott Ave,"PK, K, 1, 2, 3, 4, 5, 6, 7, 8",609986,Toni L. Foulkes,ES,2015-12-02T17:40:19.962Z,row-6dih.guui_zjzr,2015-12-02T17:40:19.962Z,rv-iqv6_nvz4-6sug,HENDERSON,-87.671887,41.790591,POINT (-87.67188730686242 41.79059128724355),11,15,1(773)535-9080,Network 11,WEST ENGLEWOOD,District,60636
4316 S Princeton Ave,"PK, K, 1, 2, 3, 4, 5, 6, 7, 8",609987,Patricia R. Dowell,ES,2015-12-02T17:40:19.962Z,row-xzwn.25x7_x4x2,2015-12-02T17:40:19.962Z,rv-pg5j.nq39_tbv7,HENDRICKS,-87.633664,41.815788,POINT (-87.6336644770054 41.81578775192073),9,3,1(773)535-1696,Network 9,FULLER PARK,District,60609
4250 N Saint Louis Ave,"PK, K, 1, 2, 3, 4, 5, 6",609988,Rey Colon,ES,2015-12-02T17:40:19.962Z,row-wh27.x2w8.2u39,2015-12-02T17:40:19.962Z,rv-q53r~y7zb~9cet,HENRY,-87.715632,41.958989,POINT (-87.71563237184283 41.95898879766762),1,35,1(773)534-5060,Network 1,IRVING PARK,District,60618
1212 S Plymouth Ct,"K, 1, 2, 3, 4, 5, 6, 7, 8",609990,Patricia R. Dowell,ES,2015-12-02T17:40:19.962Z,row-nxcy_s4ni~v5n4,2015-12-02T17:40:19.962Z,rv-7bcn-yy4j.wx2c,SOUTH LOOP,-87.628615,41.866875,POINT (-87.6286150040357 41.866874506351465),6,3,1(773)534-8690,ISP,NEAR SOUTH SIDE,District,60605
3711 W Douglas Blvd,"PK, K, 1, 2, 3, 4, 5, 6, 7, 8",609991,Michael D. Chandler,ES,2015-12-02T17:40:19.962Z,row-f9eu-nkwr_38dk,2015-12-02T17:40:19.962Z,rv-siw7~xqdu_be8f,HERZL,-87.718994,41.862081,POINT (-87.71899385397026 41.862081296788254),5,24,1(773)534-1480,AUSL,NORTH LAWNDALE,District,60623
4619 S Wolcott Ave,"PK, K, 1, 2, 3, 4, 5, 6, 7, 8",609993,Toni L. Foulkes,ES,2015-12-02T17:40:19.962Z,row-r2ag_nw7w~ydd4,2015-12-02T17:40:19.962Z,rv-ies7-bj97~kw5s,LARA,-87.672182,41.80977,POINT (-87.67218159318216 41.80977029727825),8,15,1(773)535-4389,Network 8,NEW CITY,District,60609
3244 W Ainslie St,"PK, K, 1, 2, 3, 4, 5, 6",609994,Deborah Mell,ES,2015-12-02T17:40:19.962Z,row-9jpb-4j2u.ijk8,2015-12-02T17:40:19.962Z,rv-c4xt-ahsc.eij5,HIBBARD,-87.710362,41.970335,POINT (-87.71036161363229 41.97033523527418),1,33,1(773)534-5191,Network 1,ALBANY PARK,District,60625
5625 N McVicker Ave,"PK, K, 1, 2, 3, 4, 5, 6, 7, 8",609995,John Arena,ES,2015-12-02T17:40:19.962Z,row-nreg_zn7f-jie9,2015-12-02T17:40:19.962Z,rv-7ttv.pez3-5xap,HITCH,-87.779123,41.983672,POINT (-87.77912305218136 41.983671696296184),1,45,1(773)534-1189,Network 1,NORWOOD PARK,District,60646
1104 W 31st St,"PK, K, 1, 2, 3, 4, 5, 6, 7, 8",609996,James A. Balcer,ES,2015-12-02T17:40:19.962Z,row-ccny~j23a~pck6,2015-12-02T17:40:19.962Z,rv-58jx~e7it_m4yc,HOLDEN,-87.653792,41.838027,POINT (-87.65379166824142 41.83802738823858),6,11,1(773)535-7200,Network 6,BRIDGEPORT,District,60608
955 W Garfield Blvd,"PK, K, 1, 2, 3, 4, 5, 6, 7, 8",609997,JoAnn Thompson,ES,2015-12-02T17:40:19.962Z,row-pi6i~kyr5_fyxj,2015-12-02T17:40:19.962Z,rv-hxkk_g32x_py2y,HOLMES,-87.649795,41.793788,POINT (-87.64979535585655 41.79378764949368),11,16,1(773)535-9025,OS4,ENGLEWOOD,District,60621
720 N Lorel Ave,"PK, K, 1, 2, 3, 4, 5, 6, 7, 8",610000,Emma M. Mitts,ES,2015-12-02T17:40:19.962Z,row-xkqx~avwi_n7ir,2015-12-02T17:40:19.962Z,rv-d2p4.naze.jvyn,HOWE,-87.759398,41.893612,POINT (-87.75939838484176 41.893612211604726),3,37,1(773)534-6060,AUSL,AUSTIN,District,60644
8905 S Crandon Ave,"K, 1, 2, 3, 4, 5, 6, 7, 8",610002,Natashia Holmes,ES,2015-12-02T17:40:19.962Z,row-pxjs.ch9r-96be,2015-12-02T17:40:19.962Z,rv-c68m_djzy.fu57,HOYNE,-87.568228,41.733338,POINT (-87.56822810112766 41.73333775261631),12,7,1(773)535-6425,Network 12,CALUMET HEIGHTS,District,60617
8324 S Racine Ave,"PK, K, 1, 2, 3, 4, 5, 6, 7, 8",610003,"Howard B. Brookins, Jr.",ES,2015-12-02T17:40:19.962Z,row-dg6c_v586.mjdr,2015-12-02T17:40:19.962Z,rv-cxej-u66x.exhk,CUFFE,-87.653633,41.742452,POINT (-87.65363344756491 41.742451627580586),11,21,1(773)535-8250,Network 11,AUBURN GRESHAM,District,60620
10650 S Eberhart Ave,"K, 1, 2, 3, 4, 5, 6, 7, 8",610004,Anthony A. Beale,ES,2015-12-02T17:40:19.962Z,row-zm5h~8g3x.hdmx,2015-12-02T17:40:19.962Z,rv-yawm~s43m.cddk,CULLEN,-87.611244,41.700335,POINT (-87.6112444583101 41.700335141901945),13,9,1(773)535-5375,Network 13,ROSELAND,District,60628
4247 W 15th St,"PK, K, 1, 2, 3, 4, 5, 6, 7, 8",610005,Michael D. Chandler,ES,2015-12-02T17:40:19.962Z,row-sgqz_7p7u_etd8,2015-12-02T17:40:19.962Z,rv-cp98~yysw_ewfu,HUGHES C,-87.731777,41.860518,POINT (-87.73177738698224 41.860517738413165),5,24,1(773)534-1762,Network 5,NORTH LAWNDALE,District,60623
3849 W 69th Pl,"PK, K, 1, 2, 3, 4, 5, 6, 7, 8",610006,Marty Quinn,ES,2015-12-02T17:40:19.962Z,row-nv2f_4jnh_h6k4,2015-12-02T17:40:19.962Z,rv-3349.byy6.gnjk,HURLEY,-87.719541,41.766785,POINT (-87.71954083232336 41.76678528169472),10,13,1(773)535-2068,Network 10,WEST LAWN,District,60629
820 S Carpenter St,"K, 1, 2, 3, 4, 5, 6, 7, 8",610009,Daniel S. Solis,ES,2015-12-02T17:40:19.962Z,row-dyze-tp7a-q3m6,2015-12-02T17:40:19.962Z,rv-zwek-j8jn.cudw,GALILEO,-87.653366,41.871255,POINT (-87.6533655527328 41.871254824347325),6,25,1(773)534-7070,Network 6,NEAR WEST SIDE,District,60607
3149 N Wolcott Ave,"PK, K, 1, 2, 3, 4, 5, 6, 7, 8",610010,Scott Waguespack,ES,2015-12-02T17:40:19.962Z,row-qwj5_r83w_3zd3,2015-12-02T17:40:19.962Z,rv-d3mf~rwq2-u7cc,JAHN,-87.67581,41.939247,POINT (-87.67580971886464 41.93924749698736),4,32,1(773)534-5500,Network 4,NORTH CENTER,District,60657
5650 N Mozart St,"PK, K, 1, 2, 3, 4, 5, 6, 7, 8",610011,Patrick O'Connor,ES,2015-12-02T17:40:19.962Z,row-cusy~3cwy~zr52,2015-12-02T17:40:19.962Z,rv-9yay_hxg2_am6v,JAMIESON,-87.700529,41.984641,POINT (-87.7005294202332 41.9846407763159),2,40,1(773)534-2395,Network 2,WEST RIDGE,District,60659
1119 N Cleveland Ave,"PK, K, 1, 2, 3, 4, 5, 6, 7, 8",610012,"Walter Burnett, Jr.",ES,2015-12-02T17:40:19.962Z,row-hx5r.zwyz.u6b6,2015-12-02T17:40:19.962Z,rv-a7s7_jjp6-n3cw,JENNER,-87.641056,41.902055,POINT (-87.64105555982708 41.90205484166509),6,27,1(773)534-8440,Network 6,NEAR NORTH SIDE,District,60610
1420 W 17th St,"PK, K, 1, 2, 3, 4, 5, 6, 7, 8",610013,Daniel S. Solis,ES,2015-12-02T17:40:19.962Z,row-whhm~r3ax_7dgk,2015-12-02T17:40:19.962Z,rv-vjzv-xpef~s5p5,PILSEN,-87.662209,41.858849,POINT (-87.66220943345982 41.85884887632038),7,25,1(773)534-7675,Network 7,LOWER WEST SIDE,District,60608
1746 S Miller St,"PK, K, 1, 2, 3, 4, 5, 6, 7, 8",610015,Daniel S. Solis,ES,2015-12-02T17:40:19.962Z,row-2dep-u4u8-ntax,2015-12-02T17:40:19.962Z,rv-qwge~xi4u-vx4j,JUNGMAN,-87.652302,41.858065,POINT (-87.65230159441386 41.858064777120056),7,25,1(773)534-7375,Network 7,LOWER WEST SIDE,District,60608
9241 S Leavitt St,"K, 1, 2, 3, 4, 5, 6, 7, 8",610016,Matthew J. O'Shea,ES,2015-12-02T17:40:19.962Z,row-mfqc.vm7t.cuke,2015-12-02T17:40:19.962Z,rv-dzg3-b284.b38z,KELLOGG,-87.677233,41.725263,POINT (-87.67723250660754 41.72526343976682),10,19,1(773)535-2590,Network 10,BEVERLY,District,60620
2850 W 24th Blvd,"PK, K, 1, 2, 3, 4, 5, 6, 7, 8",610017,George A. Cardenas,ES,2015-12-02T17:40:19.962Z,row-perh~4ti9-ecx5,2015-12-02T17:40:19.962Z,rv-hnv6.jc7y~5rcd,SAUCEDO,-87.697316,41.847941,POINT (-87.69731553798826 41.847940716554206),7,12,1(773)534-1770,Network 7,SOUTH LAWNDALE,District,60623
6450 S Lowe Ave,"PK, K, 1, 2, 3, 4, 5, 6, 7, 8",610019,Willie B. Cochran,ES,2015-12-02T17:40:19.962Z,row-dsmr_kpz9~3geu,2015-12-02T17:40:19.962Z,rv-njmw~jzdx-zzgu,KERSHAW,-87.640892,41.776453,POINT (-87.64089202531562 41.77645281062659),11,20,1(773)535-3050,Network 11,ENGLEWOOD,District,60621
3501 W Potomac Ave,"PK, K, 1, 2, 3, 4, 5, 6, 7, 8",610021,Roberto Maldonado,ES,2015-12-02T17:40:19.962Z,row-gtxd.sttn-swkc,2015-12-02T17:40:19.962Z,rv-hte8-wtze-9n7p,CASALS,-87.714234,41.904503,POINT (-87.71423364691857 41.90450276496282),5,26,1(773)534-4444,AUSL,HUMBOLDT PARK,District,60651
6700 N Greenview Ave,"PK, K, 1, 2, 3, 4, 5, 6, 7, 8",610022,Joe A. Moore,ES,2015-12-02T17:40:19.962Z,row-6xkb-jsg2.rtsz,2015-12-02T17:40:19.962Z,rv-vxmu.rqrs-pz48,KILMER,-87.668222,42.00364,POINT (-87.66822246667726 42.00364046286839),2,49,1(773)534-2115,Network 2,ROGERS PARK,District,60626
2345 S Millard Ave,"PK, K, 1, 2, 3",610024,Ricardo Munoz,ES,2015-12-02T17:40:19.962Z,row-vyqc.v7bu.9sgq,2015-12-02T17:40:19.962Z,rv-md22~qeav_j33w,CARDENAS,-87.716017,41.848488,POINT (-87.71601740711418 41.848487770816014),7,22,1(773)534-1465,Network 7,SOUTH LAWNDALE,District,60623
5625 S Mobile Ave,"PK, K, 1, 2, 3, 4, 5, 6, 7, 8",610026,Marty Quinn,ES,2015-12-02T17:40:19.962Z,row-ere4-n7gz~8ehc,2015-12-02T17:40:19.962Z,rv-3nht_fduh.g55a,KINZIE,-87.779483,41.789965,POINT (-87.77948260007388 41.78996463482958),10,13,1(773)535-2425,ISP,GARFIELD RIDGE,District,60638
9351 S Lowe Ave,"K, 1, 2, 3, 4, 5, 6, 7, 8",610027,"Howard B. Brookins, Jr.",ES,2015-12-02T17:40:19.962Z,row-49ua~p2nq_xjax,2015-12-02T17:40:19.962Z,rv-durm~dgqd.4g8p,KIPLING,-87.639521,41.723627,POINT (-87.6395207214447 41.72362690598935),11,21,1(773)535-3151,Network 11,WASHINGTON HEIGHTS,District,60620
1501 N Greenview Ave,"PK, K, 1, 2, 3, 4, 5, 6, 7, 8",610029,Bob Fioretti,ES,2015-12-02T17:40:19.962Z,row-za22~c9yv-w23d,2015-12-02T17:40:19.962Z,rv-7wrh~ccdr-nswu,LOZANO,-87.665093,41.908886,POINT (-87.66509327248652 41.90888612804594),6,2,1(773)534-4750,Network 6,WEST TOWN,District,60642
936 E 54th St,"PK, K, 1, 2, 3, 4, 5, 6, 7, 8",610030,Leslie A. Hairston,ES,2015-12-02T17:40:19.962Z,row-xear_7h84_5a69,2015-12-02T17:40:19.962Z,rv-e95m_rtij~u8nb,KOZMINSKI,-87.602481,41.798002,POINT (-87.60248144761799 41.798001877991666),9,5,1(773)535-0980,Network 9,HYDE PARK,District,60615
1150 W 96th St,"PK, K, 1, 2, 3, 4, 5, 6, 7, 8",610032,"Howard B. Brookins, Jr.",ES,2015-12-02T17:40:19.962Z,row-74zm~zb62.5nhc,2015-12-02T17:40:19.962Z,rv-kbx4~u5fn_4k5f,GREEN,-87.6525,41.719292,POINT (-87.65250013965985 41.71929194806672),11,21,1(773)535-2575,Network 11,WASHINGTON HEIGHTS,District,60643
1734 N Orleans St,"K, 1, 2, 3, 4, 5, 6, 7, 8",610033,Michele Smith,ES,2015-12-02T17:40:19.962Z,row-q63n-kp7f~h7xq,2015-12-02T17:40:19.962Z,rv-hg2v-ctya.j6fk,LASALLE,-87.637565,41.9139,POINT (-87.63756486379565 41.91389953297225),4,43,1(773)534-8470,Network 4,LINCOLN PARK,District,60614
3500 W Douglas Blvd,"PK, K, 1, 2, 3, 4, 5, 6, 7, 8",610034,Michael D. Chandler,ES,2015-12-02T17:40:19.962Z,row-ryu9_jyju.4rsq,2015-12-02T17:40:19.962Z,rv-wmqd-jmte-t2g5,LAWNDALE,-87.712957,41.86296,POINT (-87.71295678690625 41.86296002480986),5,24,1(773)534-1635,Network 5,NORTH LAWNDALE,District,60623
1431 N Leamington Ave,"PK, K, 1, 2, 3, 4, 5, 6, 7, 8",610036,Emma M. Mitts,ES,2015-12-02T17:40:19.962Z,row-tn5d~yrj9.tkbi,2015-12-02T17:40:19.962Z,rv-4r86.ir6d.d9qy,LEWIS,-87.75455,41.906826,POINT (-87.75454995047971 41.90682605055676),3,37,1(773)534-3060,AUSL,AUSTIN,District,60651
5300 S Loomis Blvd,"K, 1, 2, 3, 4, 5, 6, 7, 8",610037,Willie B. Cochran,ES,2015-12-02T17:40:19.962Z,row-f495-8t97_mgqg,2015-12-02T17:40:19.962Z,rv-suga_9j48-jydh,LIBBY,-87.659933,41.797685,POINT (-87.65993281739074 41.79768483258941),11,20,1(773)535-9050,Network 11,NEW CITY,District,60609
615 W Kemper Pl,"K, 1, 2, 3, 4, 5, 6, 7, 8",610038,Michele Smith,ES,2015-12-02T17:40:19.962Z,row-d7jq-wz4c_4gj8,2015-12-02T17:40:19.962Z,rv-wu2e.ssjn~5ua2,LINCOLN,-87.644497,41.924525,POINT (-87.64449730364142 41.924524816547134),4,43,1(773)534-5720,Network 4,LINCOLN PARK,District,60614
3221 N Sacramento Ave,"PK, K, 1, 2, 3, 4, 5, 6, 7, 8",610039,Deborah Mell,ES,2015-12-02T17:40:19.962Z,row-raai-5nnr.yugn,2015-12-02T17:40:19.962Z,rv-4m4k.3mc5~vynx,VON LINNE,-87.702635,41.940009,POINT (-87.70263467444693 41.940009280018735),4,33,1(773)534-5262,Network 4,AVONDALE,District,60618
2103 N Lamon Ave,"PK, K, 1, 2, 3, 4, 5",610040,Nicholas Sposato,ES,2015-12-02T17:40:19.962Z,row-f5gz-pwqz-u8mm,2015-12-02T17:40:19.962Z,rv-pmsd.vfpg~eu4a,LLOYD,-87.748515,41.918814,POINT (-87.74851501330687 41.91881409630328),3,36,1(773)534-3070,ISP,BELMONT CRAGIN,District,60639
2828 N Oak Park Ave,"PK, K, 1, 2, 3, 4, 5, 6, 7, 8",610041,Nicholas Sposato,ES,2015-12-02T17:40:19.962Z,row-2jr4_c5vz.q5cx,2015-12-02T17:40:19.962Z,rv-cruz_tknr~xwdw,LOCKE J,-87.795604,41.931762,POINT (-87.79560407070099 41.93176235449164),3,36,1(773)534-3300,Network 3,MONTCLARE,District,60634
6333 W Bloomingdale Ave,"PK, K, 1, 2, 3, 4, 5, 6, 7, 8",610043,Deborah L. Graham,ES,2015-12-02T17:40:19.962Z,row-22zt~ng6g-mcn5,2015-12-02T17:40:19.962Z,rv-k5ca~jnsg-8cki,LOVETT,-87.783919,41.912718,POINT (-87.78391884722303 41.91271802720463),3,29,1(773)534-3130,Network 3,AUSTIN,District,60639
3320 W Hirsch St,"PK, K, 1, 2, 3, 4, 5, 6, 7, 8",610044,Roberto Maldonado,ES,2015-12-02T17:40:19.962Z,row-f848_v4rn.kc9c,2015-12-02T17:40:19.962Z,rv-ugkn.46m5.p5t3,LOWELL,-87.710217,41.90652,POINT (-87.71021700219954 41.906519591635934),5,26,1(773)534-4300,Network 5,HUMBOLDT PARK,District,60651
2941 N McVicker Ave,"K, 1, 2, 3, 4, 5, 6, 7, 8",610046,Ariel E. Reboyras,ES,2015-12-02T17:40:19.962Z,row-7v7u-mez7.zihz,2015-12-02T17:40:19.962Z,rv-f4yq~qefy~7yqq,LYON,-87.777174,41.934192,POINT (-87.77717419854974 41.93419216300226),3,30,1(773)534-3120,Network 3,BELMONT CRAGIN,District,60634
7433 S Dorchester Ave,"PK, K, 1, 2, 3, 4, 5, 6, 7, 8",610047,Michelle A. Harris,ES,2015-12-02T17:40:19.962Z,row-nkbb~kg4r-2rpg,2015-12-02T17:40:19.962Z,rv-ng93-bfu3~6mnn,MADISON,-87.590712,41.759548,POINT (-87.5907123954885 41.759548060524274),12,8,1(773)535-0551,Network 12,SOUTH SHORE,District,60619
1420 N Hudson Ave,"PK, K, 1, 2, 3, 4, 5, 6, 7, 8",610048,"Walter Burnett, Jr.",ES,2015-12-02T17:40:19.962Z,row-hni3.5a7f.va5p,2015-12-02T17:40:19.962Z,rv-99n8~8gdp_gwi3,MANIERRE,-87.639827,41.908247,POINT (-87.63982651308685 41.9082468827221),4,27,1(773)534-8456,Network 4,NEAR NORTH SIDE,District,60610
5252 W Palmer St,"6, 7, 8",610051,Nicholas Sposato,ES,2015-12-02T17:40:19.962Z,row-nvyb_pres_8w8a,2015-12-02T17:40:19.962Z,rv-sa7a_3zab-43ju,NORTHWEST,-87.758154,41.920155,POINT (-87.75815425646047 41.92015477035853),3,36,1(773)534-3250,Network 3,BELMONT CRAGIN,District,60639
8050 S Chappel Ave,"PK, K, 1, 2, 3, 4, 5, 6, 7, 8",610052,Michelle A. Harris,ES,2015-12-02T17:40:19.962Z,row-c5cu.ivze.973x,2015-12-02T17:40:19.962Z,rv-dd85_mvmk~tt6r,MANN,-87.574816,41.748274,POINT (-87.57481563757929 41.748274127957686),12,8,1(773)535-6640,OS4,SOUTH CHICAGO,District,60617
6550 S Richmond St,"PK, K, 1, 2, 3, 4, 5, 6, 7, 8",610053,Latasha R. Thomas,ES,2015-12-02T17:40:19.962Z,row-k43g.fppq.u6e3,2015-12-02T17:40:19.962Z,rv-3qej.6x37_ryfw,MARQUETTE,-87.69703,41.773881,POINT (-87.69702979965113 41.77388108026705),10,17,1(773)535-9260,AUSL,CHICAGO LAWN,District,60629
9822 S Exchange Ave,"PK, K, 1, 2, 3, 4, 5, 6, 7, 8",610054,John A. Pope,ES,2015-12-02T17:40:19.962Z,row-v87g-dgyu_e62v,2015-12-02T17:40:19.962Z,rv-hgeh-x3bq.xetm,MARSH,-87.552483,41.716588,POINT (-87.55248342632741 41.716588014883484),13,10,1(773)535-6430,Network 13,SOUTH DEERING,District,60617
3250 W Monroe St,"PK, K, 1, 2, 3, 4, 5, 6, 7, 8",610055,Jason C. Ervin,ES,2015-12-02T17:40:19.962Z,row-b5pp~3fdk.f7bx,2015-12-02T17:40:19.962Z,rv-q8nb-cbb9_49v6,FARADAY,-87.708092,41.879714,POINT (-87.70809201986565 41.879713591558684),5,28,1(773)534-6670,Network 5,EAST GARFIELD PARK,District,60624
4217 W 18th St,"PK, K, 1, 2, 3, 4, 5, 6, 7, 8",610056,Michael D. Chandler,ES,2015-12-02T17:40:19.962Z,row-qgpn-sfhd-8aih,2015-12-02T17:40:19.962Z,rv-wfi2.2upk-s5kc,MASON,-87.731672,41.856864,POINT (-87.7316724333118 41.85686370074595),5,24,1(773)534-1530,Network 5,NORTH LAWNDALE,District,60623
6201 S Fairfield Ave,"PK, K, 1, 2, 3, 4, 5, 6, 7, 8",610057,JoAnn Thompson,ES,2015-12-02T17:40:19.962Z,row-tq2q.rwn8.ksrz,2015-12-02T17:40:19.962Z,rv-rfiw.y2u9~737q,FAIRFIELD,-87.692115,41.780904,POINT (-87.6921150640829 41.78090389859733),10,16,1(773)535-9500,Network 10,CHICAGO LAWN,District,60629
2250 N Clifton Ave,"PK, K, 1, 2, 3, 4, 5, 6, 7, 8",610059,Michele Smith,ES,2015-12-02T17:40:19.962Z,row-hjff.vkj8_fi7a,2015-12-02T17:40:19.962Z,rv-rjhn_pgsp-f4yx,MAYER,-87.657287,41.923204,POINT (-87.65728743866168 41.92320352252891),4,43,1(773)534-5535,Network 4,LINCOLN PARK,District,60614
1340 W Harrison St,"K, 1, 2, 3, 4, 5, 6, 7, 8",610060,Jason C. Ervin,ES,2015-12-02T17:40:19.962Z,row-a2jx~j6dw.m58k,2015-12-02T17:40:19.962Z,rv-d9p7.bmv6-p2cx,JACKSON A,-87.660985,41.8743,POINT (-87.66098467200842 41.87429963883125),6,28,1(773)534-7000,Network 6,NEAR WEST SIDE,District,60607
3527 S Wallace St,"PK, K, 1, 2, 3, 4, 5, 6, 7, 8",610062,James A. Balcer,ES,2015-12-02T17:40:19.962Z,row-c6c4~uk7y_awec,2015-12-02T17:40:19.962Z,rv-q8i7.5ntg~mrfi,MCCLELLAN,-87.641103,41.829993,POINT (-87.64110257491757 41.829992863263946),6,11,1(773)535-1732,Network 6,BRIDGEPORT,District,60609
2712 S Sawyer Ave,"PK, K, 1, 2, 3, 4, 5",610063,Ricardo Munoz,ES,2015-12-02T17:40:19.962Z,row-5dh9_s6sd-9dtp,2015-12-02T17:40:19.962Z,rv-djzb_74we_sjhi,MCCORMICK,-87.7063,41.842267,POINT (-87.70630009243725 41.8422671656938),7,22,1(773)535-7252,Network 7,SOUTH LAWNDALE,District,60623
6543 S Champlain Ave,"PK, K, 1, 2, 3, 4, 5, 6, 7, 8",610065,Willie B. Cochran,ES,2015-12-02T17:40:19.962Z,row-qpqa.pt2g.aeas,2015-12-02T17:40:19.962Z,rv-442m.ybae.ri36,TILL,-87.609357,41.775424,POINT (-87.60935721070929 41.77542384410605),9,20,1(773)535-0570,Network 9,WOODLAWN,District,60637
8801 S Indiana Ave,"K, 1, 2, 3, 4, 5, 6",610066,Anthony A. Beale,ES,2015-12-02T17:40:19.962Z,row-ez72-es8c_r6hd,2015-12-02T17:40:19.962Z,rv-p8vr_y5k4.7vg8,MCDADE,-87.619214,41.73455,POINT (-87.61921444333606 41.734549908472914),12,9,1(773)535-3669,Network 12,CHATHAM,District,60619
6901 S Fairfield Ave,"PK, K, 1, 2, 3, 4, 5, 6, 7, 8",610067,Latasha R. Thomas,ES,2015-12-02T17:40:19.962Z,row-wkmy~zwrg-vvmc,2015-12-02T17:40:19.962Z,rv-b2jy.eq7v.ypkw,MCKAY,-87.691787,41.768143,POINT (-87.69178650238207 41.76814276495704),10,17,1(773)535-9340,Network 10,CHICAGO LAWN,District,60629
5411 W Fullerton Ave,"PK, K, 1, 2, 3, 4, 5, 6, 7, 8",610068,Nicholas Sposato,ES,2015-12-02T17:40:19.962Z,row-2kvk-esqd_nqdn,2015-12-02T17:40:19.962Z,rv-zpnp-e2x9.42j7,HANSON PARK,-87.761515,41.923955,POINT (-87.76151477103915 41.92395525831387),3,36,1(773)534-3100,Network 3,BELMONT CRAGIN,District,60639
4728 N Wolcott Ave,"PK, K, 1, 2, 3, 4, 5, 6, 7, 8",610070,Ameya Pawar,ES,2015-12-02T17:40:19.962Z,row-rk4z-zk4n-k4t5,2015-12-02T17:40:19.962Z,rv-u2fu.3yp4~6bkv,MCPHERSON,-87.676288,41.967847,POINT (-87.67628825270492 41.967846868166774),2,47,1(773)534-2625,Network 2,LINCOLN SQUARE,District,60640
2233 W Ohio St,"PK, K, 1, 2, 3, 4, 5, 6, 7, 8",610073,Roberto Maldonado,ES,2015-12-02T17:40:19.962Z,row-9qye_igzg~65tp,2015-12-02T17:40:19.962Z,rv-nzur.pxjp_kkxs,MITCHELL,-87.683185,41.892082,POINT (-87.68318458646219 41.892082166407505),5,26,1(773)534-7655,Network 5,WEST TOWN,District,60612
3651 W Schubert Ave,"PK, K, 1, 2, 3, 4, 5, 6, 7, 8",610074,Rey Colon,ES,2015-12-02T17:40:19.962Z,row-g97d~nuth.5y66,2015-12-02T17:40:19.962Z,rv-grnd-i4a7_ccuv,MONROE,-87.719224,41.929989,POINT (-87.71922375120047 41.92998860360443),4,35,1(773)534-4155,Network 4,LOGAN SQUARE,District,60647
1310 S Ashland Ave,"4, 5, 6, 7, 8",610075,Jason C. Ervin,ES,2015-12-02T17:40:19.962Z,row-zeqg~xt3u-i577,2015-12-02T17:40:19.962Z,rv-twac.6rir_ptjb,MONTEFIORE,-87.666444,41.864724,POINT (-87.66644423138247 41.86472415436003),6,28,1(773)534-7825,Network 6,NEAR WEST SIDE,District,60608
1711 N California Ave,"PK, K, 1, 2, 3, 4, 5, 6, 7, 8",610076,Proco (Joe) Moreno III,ES,2015-12-02T17:40:19.962Z,row-swbp_ujhj~64nn,2015-12-02T17:40:19.962Z,rv-3b98~nabz~z9jm,MOOS,-87.696941,41.912505,POINT (-87.69694138663807 41.91250548373557),5,1,1(773)534-4340,ISP,WEST TOWN,District,60647
6011 S Rockwell St,"PK, K, 1, 2, 3, 4, 5, 6, 7, 8",610077,JoAnn Thompson,ES,2015-12-02T17:40:19.962Z,row-vd4w.i9w6~mfnt,2015-12-02T17:40:19.962Z,rv-5azz~jq82~f2bf,MORRILL,-87.688549,41.784313,POINT (-87.68854925559245 41.7843132819938),10,16,1(773)535-9288,Network 10,CHICAGO LAWN,District,60629
851 W Waveland Ave,"PK, K, 1, 2, 3, 4, 5, 6, 7, 8",610078,Thomas Tunney,ES,2015-12-02T17:40:19.962Z,row-vfv9-vak2-ws9q,2015-12-02T17:40:19.962Z,rv-uahh-wsbc.mnx7,INTER-AMERICAN,-87.651573,41.949003,POINT (-87.65157334175153 41.94900330071969),4,44,1(773)534-5490,Network 4,LAKE VIEW,District,60613
533 W 27th St,"K, 1, 2, 3, 4, 5, 6, 7, 8",610081,James A. Balcer,ES,2015-12-02T17:40:19.962Z,row-juy5~mc7g_sk3w,2015-12-02T17:40:19.962Z,rv-kd3s-b6sh-immr,SHERIDAN,-87.64134,41.8444,POINT (-87.6413398053317 41.84440015925903),6,11,1(773)534-9120,Network 6,BRIDGEPORT,District,60616
10841 S Homan Ave,"K, 1, 2, 3, 4, 5, 6, 7, 8",610082,Matthew J. O'Shea,ES,2015-12-02T17:40:19.962Z,row-44p2~q9gv~airz,2015-12-02T17:40:19.962Z,rv-qinu~aaba-dw2m,MOUNT GREENWOOD,-87.70581,41.695734,POINT (-87.70580994529541 41.69573386249031),10,19,1(773)535-2786,Network 10,MOUNT GREENWOOD,District,60655
6445 W Strong St,"PK, K, 1, 2, 3",610083,John Arena,ES,2015-12-02T17:40:19.962Z,row-wr32.gabd~4cbe,2015-12-02T17:40:19.962Z,rv-7fyw_fbs3.9fz9,BEARD,-87.78963,41.970125,POINT (-87.7896303312866 41.970124882818354),1,45,1(773)534-1228,Network 1,NORWOOD PARK,District,60656
3020 W 108th St,"1, 2, 3, 4, 5, 6, 7, 8",610084,Matthew J. O'Shea,ES,2015-12-02T17:40:19.962Z,row-48nf~kjw5_buc5,2015-12-02T17:40:19.962Z,rv-t7us_xuh5-hzq2,KELLER,-87.697278,41.69717,POINT (-87.69727833649985 41.69717033458099),10,19,1(773)535-2636,ISP,MOUNT GREENWOOD,District,60655
10540 S Morgan St,"PK, K, 1, 2, 3, 4, 5, 6, 7, 8",610086,Carrie M. Austin,ES,2015-12-02T17:40:19.962Z,row-hq5y.bqpr~9a3y,2015-12-02T17:40:19.962Z,rv-izhi-kyvw.mvp2,MOUNT VERNON,-87.647652,41.701952,POINT (-87.64765248640497 41.70195211745439),13,34,1(773)535-2825,Network 13,WASHINGTON HEIGHTS,District,60643
6751 W 63rd Pl,"PK, K, 1, 2",610087,Michael R. Zalewski,ES,2015-12-02T17:40:19.962Z,row-tkhz.v3vu.qbkr,2015-12-02T17:40:19.962Z,rv-yp32~9gwa_myuw,BLAIR,-87.790604,41.776556,POINT (-87.79060442493098 41.77655627015667),10,23,1(773)535-2076,Network 10,CLEARING,District,60638
2200 N Hamlin Ave,"PK, K, 1, 2, 3, 4, 5, 6, 7, 8",610088,Rey Colon,ES,2015-12-02T17:40:19.962Z,row-46v9-w2vt-ks7j,2015-12-02T17:40:19.962Z,rv-r9qq-divh_29jz,MOZART,-87.721888,41.92091,POINT (-87.72188814417129 41.920909649611396),4,35,1(773)534-4160,Network 4,LOGAN SQUARE,District,60647
3539 W Grace St,"PK, K, 1, 2, 3, 4, 5, 6, 7, 8",610089,Rey Colon,ES,2015-12-02T17:40:19.962Z,row-e3dd_per6-gkp4,2015-12-02T17:40:19.962Z,rv-c2ja-3x7q.792u,MURPHY,-87.716832,41.950078,POINT (-87.71683185493278 41.950077753630396),1,35,1(773)534-5223,Network 1,IRVING PARK,District,60618
5335 S Kenwood Ave,"K, 1, 2, 3, 4, 5, 6, 7, 8",610090,"William ""Will"" D. Burns",ES,2015-12-02T17:40:19.962Z,row-pedu_dbqc_y84z,2015-12-02T17:40:19.962Z,rv-7dnr.sxvi_f2xb,MURRAY,-87.59334,41.798535,POINT (-87.59334040588693 41.79853548497233),9,4,1(773)535-0585,Network 9,HYDE PARK,District,60615
12607 S Union Ave,"PK, K, 1, 2, 3, 4, 5, 6, 7, 8",610091,Anthony A. Beale,ES,2015-12-02T17:40:19.962Z,row-h9ey_8s79~e39a,2015-12-02T17:40:19.962Z,rv-cv3r-ubbm~58qv,BROWN R,-87.638958,41.664873,POINT (-87.63895772498718 41.66487335020802),13,9,1(773)535-5385,Network 13,WEST PULLMAN,District,60628
4837 W Erie St,"PK, K, 1, 2, 3, 4, 5, 6, 7, 8",610092,Emma M. Mitts,ES,2015-12-02T17:40:19.962Z,row-bpqy_iquq-gcrv,2015-12-02T17:40:19.962Z,rv-ebcb-6f32-5vb9,NASH,-87.747936,41.89181,POINT (-87.74793587859759 41.891809750973515),3,37,1(773)534-6125,Network 3,AUSTIN,District,60644
8555 S Michigan Ave,"PK, K, 1, 2, 3, 4, 5, 6, 7, 8",610093,Roderick T. Sawyer,ES,2015-12-02T17:40:19.962Z,row-xwsz-dwm9-ag4d,2015-12-02T17:40:19.962Z,rv-ys6t-bret.n5m5,NEIL,-87.620933,41.738407,POINT (-87.62093345477525 41.73840659489358),12,6,1(773)535-3000,Network 12,CHATHAM,District,60619
3252 N Broadway St,"PK, K, 1, 2, 3, 4, 5, 6, 7, 8",610094,Thomas Tunney,ES,2015-12-02T17:40:19.962Z,row-gv6j_zctv-9ieq,2015-12-02T17:40:19.962Z,rv-j5f5~4amw.35xc,NETTELHORST,-87.644561,41.941637,POINT (-87.6445612217499 41.941636554791124),4,44,1(773)534-5810,Network 4,LAKE VIEW,District,60657
700 W Willow St,"PK, K, 1, 2, 3, 4, 5, 6, 7, 8",610095,Michele Smith,ES,2015-12-02T17:40:19.962Z,row-ddrd-jvfw.57wr,2015-12-02T17:40:19.962Z,rv-k6vi_imek.rjz7,NEWBERRY,-87.64599,41.913947,POINT (-87.64599025175156 41.91394721765941),4,43,1(773)534-8000,Network 4,LINCOLN PARK,District,60614
5250 S Rockwell St,"PK, K, 1, 2, 3, 4, 5, 6, 7, 8",610096,Edward M. Burke,ES,2015-12-02T17:40:19.962Z,row-ni9g.ik7a~7czt,2015-12-02T17:40:19.962Z,rv-n947-uwdd_n4ey,NIGHTINGALE,-87.689139,41.797714,POINT (-87.68913886411549 41.79771437899785),8,14,1(773)535-9270,Network 8,GAGE PARK,District,60632
2121 N Keeler Ave,"PK, K, 1, 2, 3, 4, 5, 6",610097,Rey Colon,ES,2015-12-02T17:40:19.962Z,row-9eqv.2yqn-dxt6,2015-12-02T17:40:19.962Z,rv-8yqs.avyg_qy5w,NIXON,-87.73142,41.919581,POINT (-87.73142009140325 41.91958145323894),4,35,1(773)534-4375,Network 4,HERMOSA,District,60639
4127 W Hirsch St,"PK, K, 1, 2, 3, 4, 5, 6, 7, 8",610098,Roberto Maldonado,ES,2015-12-02T17:40:19.962Z,row-54vj~g6n7_uzi3,2015-12-02T17:40:19.962Z,rv-835p.eaxb-33p9,NOBEL,-87.729955,41.906155,POINT (-87.72995463212953 41.90615515344373),5,26,1(773)534-4365,Network 5,HUMBOLDT PARK,District,60651
5900 N Nina Ave,"PK, K, 1, 2, 3, 4, 5, 6, 7, 8",610099,Mary O'Connor,ES,2015-12-02T17:40:19.962Z,row-5cch.umqf_xtn9,2015-12-02T17:40:19.962Z,rv-anzh-y8jt_mk7a,NORWOOD PARK,-87.802979,41.988153,POINT (-87.80297944018825 41.988152506725925),1,41,1(773)534-1198,Network 1,NORWOOD PARK,District,60631
1425 N Tripp Ave,"PK, K, 1, 2, 3, 4, 5, 6, 7, 8",610100,Roberto Maldonado,ES,2015-12-02T17:40:19.962Z,row-2ei4_e4id.8dg8,2015-12-02T17:40:19.962Z,rv-hdar.7amb-f83z,WEST PARK,-87.732443,41.906907,POINT (-87.73244309617144 41.90690720547789),5,26,1(773)534-4940,Network 5,HUMBOLDT PARK,District,60651
7646 S Green St,"PK, K, 1, 2, 3, 4, 5, 6, 7, 8",610102,Latasha R. Thomas,ES,2015-12-02T17:40:19.962Z,row-tsfn-wgiq_pry5,2015-12-02T17:40:19.962Z,rv-hpnx_nzhj_z42v,OGLESBY,-87.645469,41.75467,POINT (-87.64546949679277 41.75467006329084),11,17,1(773)535-3060,Network 11,AUBURN GRESHAM,District,60620
6940 S Merrill Ave,"PK, K, 1, 2, 3, 4, 5, 6, 7, 8",610103,Leslie A. Hairston,ES,2015-12-02T17:40:19.962Z,row-99pw_3ehq_dwhw,2015-12-02T17:40:19.962Z,rv-rmas~kkgu~prma,OKEEFFE,-87.572806,41.768602,POINT (-87.57280595520469 41.768602312333435),12,5,1(773)535-0600,AUSL,SOUTH SHORE,District,60649
6634 W Raven St,"PK, K, 1, 2, 3, 4, 5, 6, 7, 8",610104,Mary O'Connor,ES,2015-12-02T17:40:19.962Z,row-bsej.6pu7-9bww,2015-12-02T17:40:19.962Z,rv-nnrp-77iw~vwf3,ONAHAN,-87.793108,41.99379,POINT (-87.79310825558277 41.99379035005529),1,41,1(773)534-1180,Network 1,NORWOOD PARK,District,60631
5424 N Oketo Ave,"PK, K, 1, 2, 3, 4, 5, 6, 7, 8",610105,Mary O'Connor,ES,2015-12-02T17:40:19.962Z,row-q6u8~bvcg.967e,2015-12-02T17:40:19.962Z,rv-2b5q~mps4~2dmg,ORIOLE PARK,-87.812054,41.978501,POINT (-87.81205403932091 41.97850137665319),1,41,1(773)534-1201,Network 1,NORWOOD PARK,District,60656
1040 N Keeler Ave,"PK, K, 1, 2, 3, 4, 5, 6, 7, 8",610106,Emma M. Mitts,ES,2015-12-02T17:40:19.962Z,row-hv2w~fy6z-x53f,2015-12-02T17:40:19.962Z,rv-w2rn.mh92~52sr,PICCOLO,-87.731261,41.90014,POINT (-87.73126059577943 41.90013965590848),5,37,1(773)534-4425,AUSL,HUMBOLDT PARK,District,60651
525 N Armour St,"PK, K, 1, 2, 3, 4, 5, 6, 7, 8",610107,Proco (Joe) Moreno III,ES,2015-12-02T17:40:19.962Z,row-n3gw_v57y-7k2b,2015-12-02T17:40:19.962Z,rv-8rrc-j6nj-k3ux,OTIS,-87.665426,41.891806,POINT (-87.66542623611423 41.891806082255506),6,1,1(773)534-7665,Network 6,WEST TOWN,District,60642
6550 S Seeley Ave,"PK, K, 1, 2, 3, 4, 5, 6, 7, 8",610108,JoAnn Thompson,ES,2015-12-02T17:40:19.962Z,row-wbbm~trrb_55ts,2015-12-02T17:40:19.962Z,rv-e7m3.39u7~q75s,OTOOLE,-87.674865,41.774571,POINT (-87.674864999934 41.774571073888666),11,16,1(773)535-9040,Network 11,WEST ENGLEWOOD,District,60636
8247 S Christiana Ave,"K, 1, 2, 3, 4, 5, 6, 7, 8",610109,Lona Lane,ES,2015-12-02T17:40:19.962Z,row-q2f6-6ajp~b5kg,2015-12-02T17:40:19.962Z,rv-yvwz_fr56-nydk,OWEN,-87.705749,41.74285,POINT (-87.70574908733956 41.74284992222829),10,18,1(773)535-9330,Network 10,ASHBURN,District,60652
249 E 37th St,"PK, K, 1, 2, 3, 4, 5, 6, 7, 8",610110,Patricia R. Dowell,ES,2015-12-02T17:40:19.962Z,row-pvfr.8jsu~gnsh,2015-12-02T17:40:19.962Z,rv-qtqt_2u2g-ghrg,WELLS ES,-87.61978,41.827355,POINT (-87.61977965996628 41.82735526679594),9,3,1(773)535-1204,Network 9,DOUGLAS,District,60653
5051 N Kenneth Ave,"PK, K, 1, 2, 3, 4, 5, 6, 7, 8",610111,Margaret Laurino,ES,2015-12-02T17:40:19.962Z,row-pb7h.n9ct_hffb,2015-12-02T17:40:19.962Z,rv-p93v-fbm8.dabv,PALMER,-87.739213,41.973289,POINT (-87.73921294531708 41.973289393548576),1,39,1(773)534-3704,Network 1,ALBANY PARK,District,60630
6800 S Stewart Ave,"PK, K, 1, 2, 3, 4, 5, 6, 7, 8",610112,Roderick T. Sawyer,ES,2015-12-02T17:40:19.962Z,row-nzz5-7x7b~nmbd,2015-12-02T17:40:19.962Z,rv-wwih-s456-eyft,PARKER,-87.634086,41.77078,POINT (-87.63408585642215 41.77077979589718),11,6,1(773)535-3375,Network 11,ENGLEWOOD,District,60621
7037 S Rhodes Ave,"PK, K, 1, 2, 3, 4, 5, 6, 7, 8",610115,Roderick T. Sawyer,ES,2015-12-02T17:40:19.962Z,row-8gs3_m6n5-iji8,2015-12-02T17:40:19.962Z,rv-i6en.37a9-xbvj,PARK MANOR,-87.611546,41.766477,POINT (-87.61154559294427 41.76647654366857),12,6,1(773)535-3070,Network 12,GREATER GRAND CROSSING,District,60637
6938 S East End Ave,"PK, K, 1, 2, 3, 4, 5, 6, 7, 8",610116,Leslie A. Hairston,ES,2015-12-02T17:40:19.962Z,row-n8fh~rprs_2enw,2015-12-02T17:40:19.962Z,rv-xmkz_mwwb_8z6q,PARKSIDE,-87.582954,41.768555,POINT (-87.58295438327976 41.7685551905868),12,5,1(773)535-0940,Network 12,SOUTH SHORE,District,60649
5825 S Kostner Ave,"PK, K, 1, 2, 3, 4, 5, 6, 7, 8",610117,Marty Quinn,ES,2015-12-02T17:40:19.962Z,row-ea38_ytrx-h5cs,2015-12-02T17:40:19.962Z,rv-54wa-qhjv-vgk9,PASTEUR,-87.732666,41.786895,POINT (-87.73266645508888 41.78689537715725),8,13,1(773)535-2270,Network 8,WEST ELSDON,District,60629
3826 W 58th St,"PK, K, 1, 2, 3, 4, 5, 6, 7, 8",610120,Michael R. Zalewski,ES,2015-12-02T17:40:19.962Z,row-dvsg_f8jc.yuqg,2015-12-02T17:40:19.962Z,rv-wtnd_2aep-rxup,PECK,-87.719216,41.787899,POINT (-87.71921626098701 41.787898970815384),8,23,1(773)535-2450,ISP,WEST ELSDON,District,60629
749 S Oakley Blvd,"PK, K, 1, 2, 3, 4, 5, 6, 7, 8",610121,Jason C. Ervin,ES,2015-12-02T17:40:19.962Z,row-itax.n82g_c8xs,2015-12-02T17:40:19.962Z,rv-imz2~7rs9-jq48,IRVING,-87.683616,41.871595,POINT (-87.68361565160295 41.87159549202603),6,28,1(773)534-7295,Network 6,NEAR WEST SIDE,District,60612
1423 W Bryn Mawr Ave,"PK, K, 1, 2, 3, 4, 5, 6, 7, 8",610122,Harry Osterman,ES,2015-12-02T17:40:19.962Z,row-afd6-jv86_g34f,2015-12-02T17:40:19.962Z,rv-ww5m~jcnm_i9jf,PEIRCE,-87.66585,41.983456,POINT (-87.66585003641742 41.98345579260179),2,48,1(773)534-2440,Network 2,EDGEWATER,District,60660
1616 S Avers Ave,"PK, K, 1, 2, 3, 4, 5, 6, 7, 8",610123,Michael D. Chandler,ES,2015-12-02T17:40:19.962Z,row-pgnn~qg5d.whna,2015-12-02T17:40:19.962Z,rv-dna2.2ne6-yqz4,PENN,-87.722386,41.858372,POINT (-87.72238554795227 41.85837242013085),5,24,1(773)534-1665,Network 5,NORTH LAWNDALE,District,60623
9130 S University Ave,"PK, K, 1, 2, 3, 4, 5, 6, 7, 8",610124,Michelle A. Harris,ES,2015-12-02T17:40:19.962Z,row-ik82.3365_q97w,2015-12-02T17:40:19.962Z,rv-fw77~9gfs~a9bg,WASHINGTON H ES,-87.596257,41.728534,POINT (-87.59625661607488 41.728534142993205),12,8,1(773)535-6225,Network 12,BURNSIDE,District,60619
2410 S Leavitt St,"PK, K, 1, 2, 3, 4, 5, 6, 7, 8",610125,Daniel S. Solis,ES,2015-12-02T17:40:19.962Z,row-sjqt.a3fr_zit6,2015-12-02T17:40:19.962Z,rv-bpa3-wxik.5yde,RUIZ,-87.680745,41.848101,POINT (-87.68074453530946 41.848100939690376),7,25,1(773)535-4825,Network 7,LOWER WEST SIDE,District,60608
3200 S Calumet Ave,"PK, K, 1, 2, 3, 4, 5, 6, 7, 8",610126,"William ""Will"" D. Burns",ES,2015-12-02T17:40:19.962Z,row-9ufj~t9ur-stmr,2015-12-02T17:40:19.962Z,rv-g424_szg9_efbg,PERSHING,-87.618338,41.836527,POINT (-87.61833765412555 41.836526953644125),9,4,1(773)534-9272,Network 9,DOUGLAS,District,60616
5510 N Christiana Ave,"PK, K, 1, 2, 3, 4, 5, 6, 7, 8",610127,Margaret Laurino,ES,2015-12-02T17:40:19.962Z,row-fs45.8pa7.vvn5,2015-12-02T17:40:19.962Z,rv-wctb~w4w8_4ak6,PETERSON,-87.712583,41.981557,POINT (-87.71258257738653 41.9815571384021),1,39,1(773)534-5070,Network 1,NORTH PARK,District,60625
10309 S Morgan St,"PK, K, 1, 2, 3, 4, 5, 6, 7, 8",610128,Carrie M. Austin,ES,2015-12-02T17:40:19.962Z,row-m7vr_ue2q~wq6h,2015-12-02T17:40:19.962Z,rv-rshg.x8wz_sdwr,GARVEY,-87.647577,41.706603,POINT (-87.6475771653251 41.706602859498176),13,34,1(773)535-2763,Network 13,WASHINGTON HEIGHTS,District,60643
2301 W 21st Pl,"PK, K, 1, 2, 3, 4, 5, 6, 7, 8",610129,Daniel S. Solis,ES,2015-12-02T17:40:19.962Z,row-qivd~mzv3_9v3u,2015-12-02T17:40:19.962Z,rv-xk3n.2hpb_6h69,PICKARD,-87.683291,41.8529,POINT (-87.68329074301202 41.85290039503307),7,25,1(773)535-7280,Network 7,LOWER WEST SIDE,District,60608
650 E 85th St,"PK, K, 1, 2, 3, 4, 5, 6",610130,Roderick T. Sawyer,ES,2015-12-02T17:40:19.962Z,row-fxzq_bm4e~pm75,2015-12-02T17:40:19.962Z,rv-zyfk.2f76_cqvc,PIRIE,-87.607891,41.74034,POINT (-87.60789113712316 41.740340233839476),12,6,1(773)535-3435,Network 12,CHATHAM,District,60619
2642 W 15th Pl,"K, 1, 2, 3, 4, 5, 6, 7, 8",610131,Jason C. Ervin,ES,2015-12-02T17:40:19.962Z,row-6g4q_v8pe.fucb,2015-12-02T17:40:19.962Z,rv-eeyb_qtx8_jet8,PLAMONDON,-87.692526,41.860259,POINT (-87.69252575070831 41.860258899326375),5,28,1(773)534-1789,Network 5,NORTH LAWNDALE,District,60608
10538 S Langley Ave,"K, 1, 2, 3, 4, 5, 6",610132,Anthony A. Beale,ES,2015-12-02T17:40:19.962Z,row-ctid~ire3~vms7,2015-12-02T17:40:19.962Z,rv-wzc9.sggb_3gmj,POE,-87.606419,41.70263,POINT (-87.60641917381575 41.70263000166141),13,9,1(773)535-5525,Network 13,PULLMAN,District,60628
646 N Lawndale Ave,"PK, K, 1, 2, 3, 4, 5, 6, 7, 8",610133,"Walter Burnett, Jr.",ES,2015-12-02T17:40:19.962Z,row-dhec-if8n.6ukz,2015-12-02T17:40:19.962Z,rv-ufdv_iavj.bpqa,WARD L,-87.718797,41.893236,POINT (-87.71879729276195 41.89323561061053),5,27,1(773)534-6440,Network 5,HUMBOLDT PARK,District,60624
5330 W Berteau Ave,"PK, K, 1, 2, 3, 4, 5, 6, 7, 8",610135,Timothy M. Cullerton,ES,2015-12-02T17:40:19.962Z,row-cx63_zsqi-zx2w,2015-12-02T17:40:19.962Z,rv-7m9n-a4t2_grin,PORTAGE PARK,-87.761007,41.956988,POINT (-87.76100700389269 41.956987637401745),1,38,1(773)534-3576,Network 1,PORTAGE PARK,District,60641
1632 W Wrightwood Ave,"PK, K, 1, 2, 3, 4, 5, 6, 7, 8",610136,Scott Waguespack,ES,2015-12-02T17:40:19.962Z,row-7htg_9md4~gvav,2015-12-02T17:40:19.962Z,rv-dcq2.g5z9-ea5t,PRESCOTT,-87.669528,41.928841,POINT (-87.66952750369366 41.92884110071892),4,32,1(773)534-5505,Network 4,LINCOLN PARK,District,60614
4650 N Menard Ave,"PK, K, 1, 2, 3, 4, 5, 6, 7, 8",610137,John Arena,ES,2015-12-02T17:40:19.962Z,row-bg27.e6kh_wu86,2015-12-02T17:40:19.962Z,rv-nb99.nami.7ihv,PRUSSING,-87.772414,41.965619,POINT (-87.7724141662568 41.96561907176977),1,45,1(773)534-3460,Network 1,PORTAGE PARK,District,60630
2230 W McLean Ave,"PK, K, 1, 2, 3, 4, 5, 6, 7, 8",610138,Scott Waguespack,ES,2015-12-02T17:40:19.962Z,row-knia.ack5.3d2j,2015-12-02T17:40:19.962Z,rv-hdjb-87b4~2nsh,PULASKI,-87.683801,41.918486,POINT (-87.68380143054229 41.918486278568984),6,32,1(773)534-4391,Network 6,LOGAN SQUARE,District,60647
11311 S Forrestville Ave,"PK, K, 1, 2, 3, 4, 5, 6, 7, 8",610139,Anthony A. Beale,ES,2015-12-02T17:40:19.962Z,row-fh8y.4zab~euqn,2015-12-02T17:40:19.962Z,rv-fjtu~x8hp_qu3p,PULLMAN,-87.609431,41.688819,POINT (-87.60943096709843 41.688819352961836),13,9,1(773)535-5395,Network 13,PULLMAN,District,60628
4332 N Paulina St,"PK, K, 1, 2, 3, 4, 5, 6, 7, 8",610141,Ameya Pawar,ES,2015-12-02T17:40:19.962Z,row-ssn2.kymq~aqas,2015-12-02T17:40:19.962Z,rv-ergd~g9by.gi58,RAVENSWOOD,-87.670922,41.960746,POINT (-87.6709224190248 41.96074569302817),2,47,1(773)534-5525,Network 2,LAKE VIEW,District,60613
5631 S Kimbark Ave,"PK, K, 1, 2, 3, 4, 5, 6, 7, 8",610142,Leslie A. Hairston,ES,2015-12-02T17:40:19.962Z,row-b6tn~pkma.mhin,2015-12-02T17:40:19.962Z,rv-ipii-xz8p~e7rd,RAY,-87.594752,41.792348,POINT (-87.59475207228131 41.79234788086451),9,5,1(773)535-0970,Network 9,HYDE PARK,District,60637
834 E 50th St,"PK, K, 1, 2, 3, 4, 5, 6, 7, 8",610143,"William ""Will"" D. Burns",ES,2015-12-02T17:40:19.962Z,row-iyap~mn4x_4ifk,2015-12-02T17:40:19.962Z,rv-bwnp~junt_kvuu,REAVIS,-87.604925,41.804174,POINT (-87.60492543004906 41.80417379199363),9,4,1(773)535-1060,Network 9,KENWOOD,District,60615
3650 W School St,"PK, K, 1, 2, 3, 4, 5, 6, 7, 8",610144,Ariel E. Reboyras,ES,2015-12-02T17:40:19.962Z,row-up2b-rtt5.vikp,2015-12-02T17:40:19.962Z,rv-ey5s.28ac~b3mg,REILLY,-87.719541,41.941094,POINT (-87.71954054433657 41.94109399101762),4,30,1(773)534-5250,Network 4,AVONDALE,District,60618
3425 N Major Ave,"PK, K, 1, 2, 3, 4, 5, 6, 7, 8",610145,Nicholas Sposato,ES,2015-12-02T17:40:19.962Z,row-cm6s~bbb3~7jc6,2015-12-02T17:40:19.962Z,rv-jb7h_aqgw_i9ca,REINBERG,-87.768983,41.943019,POINT (-87.76898261836898 41.94301889611013),1,36,1(773)534-3465,Network 1,PORTAGE PARK,District,60634
1010 E 72nd St,"PK, K, 1, 2, 3, 4, 5, 6, 7, 8",610146,Leslie A. Hairston,ES,2015-12-02T17:40:19.962Z,row-385v.nm7y-r29a,2015-12-02T17:40:19.962Z,rv-zdgj-m6dm-eqjy,REVERE,-87.600177,41.764196,POINT (-87.60017682376919 41.76419586468225),12,5,1(773)535-0618,Network 12,GREATER GRAND CROSSING,District,60619
7345 N Washtenaw Ave,"PK, K, 1, 2, 3, 4, 5, 6, 7, 8",610147,Debra L. Silverstein,ES,2015-12-02T17:40:19.962Z,row-kei4-f9jb~6bzx,2015-12-02T17:40:19.962Z,rv-uump.jksv_cvwn,ROGERS,-87.697185,42.015265,POINT (-87.69718539353012 42.015265046200206),2,50,1(773)534-2125,Network 2,WEST RIDGE,District,60645
4747 S Marshfield Ave,"PK, K, 1, 2, 3, 4, 5, 6, 7, 8",610148,Willie B. Cochran,ES,2015-12-02T17:40:19.962Z,row-xv7h_biz7_aecr,2015-12-02T17:40:19.962Z,rv-xm58_z36r.44gw,CHAVEZ,-87.666037,41.807143,POINT (-87.66603693387908 41.80714283127736),8,20,1(773)535-4600,ISP,NEW CITY,District,60609
7831 S Prairie Ave,"PK, K, 1, 2, 3, 4, 5, 6, 7, 8",610152,Roderick T. Sawyer,ES,2015-12-02T17:40:19.962Z,row-pik7.b685~nmgf,2015-12-02T17:40:19.962Z,rv-s3h9~2egw_jwb8,RUGGLES,-87.618066,41.751946,POINT (-87.61806644775375 41.7519455763314),12,6,1(773)535-3085,Network 12,GREATER GRAND CROSSING,District,60619
8716 S Wallace St,"PK, K, 1, 2, 3, 4, 5, 6, 7, 8",610153,"Howard B. Brookins, Jr.",ES,2015-12-02T17:40:19.962Z,row-m97f~n4xc.d26h,2015-12-02T17:40:19.962Z,rv-7hy5-gs5d-dnsk,RYDER,-87.638843,41.735379,POINT (-87.6388427003168 41.735379389767054),11,21,1(773)535-3843,Network 11,AUBURN GRESHAM,District,60620
6040 N Kilpatrick Ave,"K, 1, 2, 3, 4, 5, 6, 7, 8",610155,Margaret Laurino,ES,2015-12-02T17:40:19.962Z,row-qi65~7uuc~m8sk,2015-12-02T17:40:19.962Z,rv-8byr-ss7k~9vp4,SAUGANASH,-87.745951,41.991169,POINT (-87.74595144463426 41.99116924643027),1,39,1(773)534-3470,Network 1,FOREST GLEN,District,60646
5248 S Sawyer Ave,"K, 1, 2, 3, 4, 5, 6, 7, 8",610157,Edward M. Burke,ES,2015-12-02T17:40:19.962Z,row-62z8-qssp.ycn6,2015-12-02T17:40:19.962Z,rv-acaw~c75w~ng66,SAWYER,-87.705006,41.797498,POINT (-87.70500578092046 41.797498203402256),8,14,1(773)535-0440,Network 8,GAGE PARK,District,60632
1850 N Newland Ave,"PK, K, 1, 2, 3, 4, 5, 6, 7, 8",610158,Deborah L. Graham,ES,2015-12-02T17:40:19.962Z,row-k83s-8nn7_bk6g,2015-12-02T17:40:19.962Z,rv-96m8~vcfj_ts6b,SAYRE,-87.798721,41.914151,POINT (-87.79872070516093 41.91415063045139),3,29,1(773)534-3351,Network 3,AUSTIN,District,60707
4201 W Henderson St,"PK, K, 1, 2, 3, 4, 5, 6, 7, 8",610159,Ariel E. Reboyras,ES,2015-12-02T17:40:19.962Z,row-kjz9~rd5d~h7x2,2015-12-02T17:40:19.962Z,rv-zkck-t2ts-6e2a,SCAMMON,-87.732179,41.941678,POINT (-87.73217877730796 41.941677604265344),1,30,1(773)534-3475,Network 1,IRVING PARK,District,60641
7507 W Birchwood Ave,PK,610163,Mary O'Connor,ES,2015-12-02T17:40:19.962Z,row-63s7~c4p8~8iq3,2015-12-02T17:40:19.962Z,rv-ivm7~h28g.mkcg,STOCK,-87.814195,42.016892,POINT (-87.81419465462 42.01689164178767),1,41,1(773)534-1215,Network 1,EDISON PARK,District,60631
2727 N Long Ave,"PK, K, 1, 2, 3, 4, 5",610165,Ray Suarez,ES,2015-12-02T17:40:19.962Z,row-3sj6-8iqk.6q8i,2015-12-02T17:40:19.962Z,rv-q8fy_7gx6.evxx,SCHUBERT,-87.76119,41.930403,POINT (-87.76119046881581 41.930403316555264),3,31,1(773)534-3080,Network 3,BELMONT CRAGIN,District,60639
4600 S Hermitage Ave,"PK, K, 1, 2, 3, 4, 5, 6, 7, 8",610167,Toni L. Foulkes,ES,2015-12-02T17:40:19.962Z,row-nwcq~72tb.dmxw,2015-12-02T17:40:19.962Z,rv-vh7f~5nrt-zxfh,SEWARD,-87.668772,41.810333,POINT (-87.66877201102223 41.81033324106931),8,15,1(773)535-4890,Network 8,NEW CITY,District,60609
4520 S Kedzie Ave,"K, 1, 2, 3, 4, 5, 6, 7, 8",610170,Edward M. Burke,ES,2015-12-02T17:40:19.962Z,row-nfm3.wyfv~29ej,2015-12-02T17:40:19.962Z,rv-4qkp-i64f-np9d,COLUMBIA EXPLORERS,-87.704199,41.811069,POINT (-87.70419859056284 41.811068609683254),8,14,1(773)535-4050,Network 8,BRIGHTON PARK,District,60632
9000 S Exchange Ave,"PK, K, 1, 2, 3, 4, 5, 6, 7, 8",610171,John A. Pope,ES,2015-12-02T17:40:19.962Z,row-4r2v.pyr4_jc7p,2015-12-02T17:40:19.962Z,rv-cujc_aq9d_5zmn,MIRELES,-87.552788,41.731717,POINT (-87.55278794402584 41.7317169165631),12,10,1(773)535-6360,Network 12,SOUTH CHICAGO,District,60617
1000 W 52nd St,"PK, K, 1, 2, 3, 4, 5, 6, 7, 8",610172,Willie B. Cochran,ES,2015-12-02T17:40:19.962Z,row-2aa3_avnh.z9nn,2015-12-02T17:40:19.962Z,rv-v2f2.dxc2.3yuv,SHERMAN,-87.650221,41.799766,POINT (-87.65022144595541 41.79976620580785),11,20,1(773)535-1757,AUSL,NEW CITY,District,60609
245 W 57th St,"PK, K, 1, 2, 3, 4, 5, 6, 7, 8",610173,Willie B. Cochran,ES,2015-12-02T17:40:19.962Z,row-mtdc.u99y-8yzi,2015-12-02T17:40:19.962Z,rv-7yiy_kihb_x4nc,SHERWOOD,-87.632279,41.7908,POINT (-87.63227938170536 41.790800243685105),11,20,1(773)535-0829,Network 11,ENGLEWOOD,District,60621
4250 S Rockwell St,"PK, K, 1, 2, 3, 4",610174,Toni L. Foulkes,ES,2015-12-02T17:40:19.962Z,row-eadg.aghd.w48r,2015-12-02T17:40:19.962Z,rv-4q86.bj9g-aket,SHIELDS,-87.689647,41.815909,POINT (-87.68964723566636 41.81590948687071),8,15,1(773)535-7285,Network 8,BRIGHTON PARK,District,60632
1330 E 50th St,"K, 1, 2, 3, 4, 5, 6",610175,"William ""Will"" D. Burns",ES,2015-12-02T17:40:19.962Z,row-futa~mvyr~jmyn,2015-12-02T17:40:19.962Z,rv-crm6.nkfe-gh5e,SHOESMITH,-87.593905,41.804294,POINT (-87.59390494199624 41.8042940169549),9,4,1(773)535-1764,Network 9,KENWOOD,District,60615
11140 S Bishop St,"PK, K, 1, 2, 3, 4, 5, 6, 7, 8",610176,Carrie M. Austin,ES,2015-12-02T17:40:19.962Z,row-k6dy~6ava.9jds,2015-12-02T17:40:19.962Z,rv-mme5~39p4~drme,SHOOP,-87.658669,41.690919,POINT (-87.65866905248934 41.69091887719864),13,34,1(773)535-2715,Network 13,MORGAN PARK,District,60643
1260 W Adams St,"PK, K, 1, 2, 3, 4, 5, 6, 7, 8",610177,"Walter Burnett, Jr.",ES,2015-12-02T17:40:19.962Z,row-rxmg_uebx~6562,2015-12-02T17:40:19.962Z,rv-ik6f.epxv.3uk2,SKINNER,-87.659419,41.879103,POINT (-87.65941897612656 41.87910254342189),6,27,1(773)534-7790,ISP,NEAR WEST SIDE,District,60607
9755 S Greenwood Ave,"PK, K, 1, 2, 3, 4, 5, 6, 7, 8",610178,Michelle A. Harris,ES,2015-12-02T17:40:19.962Z,row-4bp2.ewp2_d5vp,2015-12-02T17:40:19.962Z,rv-tagt_iv3w_bsix,SCHMID,-87.596932,41.716989,POINT (-87.5969318813713 41.71698887283236),12,8,1(773)535-6235,Network 12,PULLMAN,District,60628
4310 N Melvina Ave,"PK, K, 1, 2, 3, 4, 5, 6, 7, 8",610179,Timothy M. Cullerton,ES,2015-12-02T17:40:19.962Z,row-k68k~rmss_jtuc,2015-12-02T17:40:19.962Z,rv-irgt~gmr9-6vnn,SMYSER,-87.781975,41.958868,POINT (-87.78197453805517 41.95886803637258),1,38,1(773)534-3711,Network 1,PORTAGE PARK,District,60634
1059 W 13th St,"PK, K, 1, 2, 3, 4, 5, 6, 7, 8",610180,Daniel S. Solis,ES,2015-12-02T17:40:19.962Z,row-26gm~wv6b-2wmn,2015-12-02T17:40:19.962Z,rv-spgu-gijg.swwx,SMYTH,-87.653445,41.865351,POINT (-87.65344502704008 41.86535101850755),6,25,1(773)534-7180,Network 6,NEAR WEST SIDE,District,60608
6206 N Hamlin Ave,"PK, K, 1, 2, 3, 4, 5, 6, 7, 8",610182,Margaret Laurino,ES,2015-12-02T17:40:19.962Z,row-xfhn~pw5g_gafr,2015-12-02T17:40:19.962Z,rv-aqfd-zi3d-e8mu,SOLOMON,-87.724043,41.993942,POINT (-87.72404263321984 41.99394233332291),1,39,1(773)534-5226,Network 1,NORTH PARK,District,60659
214 N Lavergne Ave,"PK, K, 1, 2, 3, 4, 5, 6, 7, 8",610183,Jason C. Ervin,ES,2015-12-02T17:40:19.962Z,row-y2is~sqgd_ue5e,2015-12-02T17:40:19.962Z,rv-tzyf.yz9d.59k7,SPENCER,-87.750445,41.884876,POINT (-87.7504447313877 41.88487639878507),3,28,1(773)534-6150,Network 3,AUSTIN,District,60644
8010 S Kostner Ave,"PK, K, 1, 2, 3, 4, 5, 6, 7, 8",610185,Lona Lane,ES,2015-12-02T17:40:19.962Z,row-v75d.vvcp.waae,2015-12-02T17:40:19.962Z,rv-gh49-2c58.fims,STEVENSON,-87.731666,41.747107,POINT (-87.73166568473782 41.747106879416975),10,18,1(773)535-2280,Network 10,ASHBURN,District,60652
10845 S Union Ave,"PK, K, 1, 2, 3, 4, 5, 6, 7, 8",610188,Carrie M. Austin,ES,2015-12-02T17:40:19.962Z,row-hsgq_dfvd-fvc2,2015-12-02T17:40:19.962Z,rv-q2gy_s2t2~rw6g,DUNNE,-87.639974,41.696496,POINT (-87.6399736047063 41.69649616388577),13,34,1(773)535-5517,Network 13,ROSELAND,District,60628
6239 N Leavitt St,"K, 1, 2, 3, 4, 5, 6, 7, 8",610191,Debra L. Silverstein,ES,2015-12-02T17:40:19.962Z,row-nxz9.75yi-6uu7,2015-12-02T17:40:19.962Z,rv-5c63.9nmj.u6m5,STONE,-87.684793,41.995359,POINT (-87.68479278594106 41.995359052037394),2,50,1(773)534-2045,Network 2,WEST RIDGE,District,60659
3444 W Wabansia Ave,"PK, K, 1, 2, 3, 4, 5, 6, 7, 8",610192,Roberto Maldonado,ES,2015-12-02T17:40:19.962Z,row-kehq~8sb5.mk9s,2015-12-02T17:40:19.962Z,rv-ys3u_k3bw-3zni,STOWE,-87.713318,41.911938,POINT (-87.71331750108503 41.91193807962043),5,26,1(773)534-4175,Network 5,HUMBOLDT PARK,District,60647
8331 S Mackinaw Ave,"PK, K, 1, 2, 3, 4, 5, 6, 7, 8",610193,John A. Pope,ES,2015-12-02T17:40:19.962Z,row-xwe5~stwg~daz6,2015-12-02T17:40:19.962Z,rv-cxyq-szaf-9ynm,NEW SULLIVAN,-87.542928,41.743829,POINT (-87.5429276084748 41.74382852457314),12,10,1(773)535-6585,Network 12,SOUTH CHICAGO,District,60617
4320 W 5th Ave,"PK, K, 1, 2, 3, 4, 5, 6, 7, 8",610194,Michael D. Chandler,ES,2015-12-02T17:40:19.962Z,row-qjff_fn5g-taaf,2015-12-02T17:40:19.962Z,rv-5xez-whse-uu9n,SUMNER,-87.733524,41.870828,POINT (-87.73352395132963 41.87082837889257),5,24,1(773)534-6730,Network 5,WEST GARFIELD PARK,District,60624
10015 S Leavitt St,"K, 1, 2, 3, 4, 5, 6, 7, 8",610195,Matthew J. O'Shea,ES,2015-12-02T17:40:19.962Z,row-rjs3.zzx8-3vcj,2015-12-02T17:40:19.962Z,rv-c9y6~54ec-pr7s,SUTHERLAND,-87.676821,41.711445,POINT (-87.67682117250321 41.71144507089116),10,19,1(773)535-2580,Network 10,BEVERLY,District,60643
5900 N Winthrop Ave,"PK, K, 1, 2, 3, 4, 5, 6, 7, 8",610196,Harry Osterman,ES,2015-12-02T17:40:19.962Z,row-hgp7~p2mu~jcyp,2015-12-02T17:40:19.962Z,rv-q4v2.7hxf-8wmp,SWIFT,-87.658296,41.989139,POINT (-87.65829607973106 41.989139060982666),2,48,1(773)534-2695,Network 2,EDGEWATER,District,60660
1840 W Ohio St,"PK, K, 1, 2, 3, 4, 5, 6, 7, 8",610197,Proco (Joe) Moreno III,ES,2015-12-02T17:40:19.962Z,row-bju8-gp6f.q8jk,2015-12-02T17:40:19.962Z,rv-hjjm~53iu~ktcz,TALCOTT,-87.673723,41.892405,POINT (-87.67372272416247 41.89240461196112),6,1,1(773)534-7130,Network 6,WEST TOWN,District,60622
9912 S Avenue H,"PK, K, 1, 2, 3, 4, 5, 6, 7, 8",610198,John A. Pope,ES,2015-12-02T17:40:19.962Z,row-fuby-6yub.gazx,2015-12-02T17:40:19.962Z,rv-5j72-drbx_58qs,TAYLOR,-87.532971,41.71547,POINT (-87.53297076728938 41.71547037612557),13,10,1(773)535-6240,Network 13,EAST SIDE,District,60617
1441 W 119th St,"PK, K, 1, 2, 3, 4, 5, 6, 7, 8",610199,Carrie M. Austin,ES,2015-12-02T17:40:19.962Z,row-zshr~ruuy_vkt5,2015-12-02T17:40:19.962Z,rv-vkv8-tki4.bvg5,COLEMON,-87.658111,41.677505,POINT (-87.65811083829139 41.67750544717283),13,34,1(773)535-3975,Network 13,WEST PULLMAN,District,60643
8914 S Buffalo Ave,"PK, K, 1, 2, 3, 4, 5, 6, 7, 8",610200,John A. Pope,ES,2015-12-02T17:40:19.962Z,row-7sns~zbdv.xtfa,2015-12-02T17:40:19.962Z,rv-qzeh-j6ii.cddk,THORP J,-87.54428,41.733324,POINT (-87.54427997609297 41.73332423856062),12,10,1(773)535-6250,Network 12,SOUTH CHICAGO,District,60617
6024 W Warwick Ave,"K, 1, 2, 3, 4, 5, 6, 7, 8",610201,Timothy M. Cullerton,ES,2015-12-02T17:40:19.962Z,row-up2m.mw6f_3mf7,2015-12-02T17:40:19.962Z,rv-43wa~v8re.yk6b,THORP O,-87.777631,41.948571,POINT (-87.77763129533064 41.94857131191753),1,38,1(773)534-3640,Network 1,DUNNING,District,60634
223 N Keeler Ave,"PK, K, 1, 2, 3, 4, 5, 6, 7, 8",610202,Jason C. Ervin,ES,2015-12-02T17:40:19.962Z,row-xhhd_6xm6-gwqw,2015-12-02T17:40:19.962Z,rv-psyh.udww~x42y,TILTON,-87.730566,41.884102,POINT (-87.73056638504498 41.88410224164089),5,28,1(773)534-6746,Network 5,WEST GARFIELD PARK,District,60624
5815 S Homan Ave,"PK, K, 1, 2, 3, 4, 5",610203,Michael R. Zalewski,ES,2015-12-02T17:40:19.962Z,row-pei8_fnr5.2bfd,2015-12-02T17:40:19.962Z,rv-7h5j-7x7g-95am,TONTI,-87.708179,41.787523,POINT (-87.70817918401752 41.78752322987522),8,23,1(773)535-9280,Network 8,GAGE PARK,District,60629
5134 S Lotus Ave,"PK, K, 1, 2, 3, 4, 5, 6, 7, 8",610206,Edward M. Burke,ES,2015-12-02T17:40:19.962Z,row-dst7.rfye.i2yv,2015-12-02T17:40:19.962Z,rv-rtrs-aij8.7uip,TWAIN,-87.758928,41.799046,POINT (-87.75892840126193 41.79904639762166),10,14,1(773)535-2290,Network 10,GARFIELD RIDGE,District,60638
9510 S Prospect Ave,"K, 1, 2, 3, 4, 5, 6, 7, 8",610207,Matthew J. O'Shea,ES,2015-12-02T17:40:19.962Z,row-5rzn_6fy3.y3iq,2015-12-02T17:40:19.962Z,rv-kqkt-ru3x-excv,VANDERPOEL,-87.665559,41.720817,POINT (-87.66555862185707 41.72081703449422),10,19,1(773)535-2690,Network 10,BEVERLY,District,60643
138 W 109th St,"PK, K, 1, 2, 3, 4, 5, 6, 7, 8",610208,Carrie M. Austin,ES,2015-12-02T17:40:19.962Z,row-ibg3.yhg5-vt5p,2015-12-02T17:40:19.962Z,rv-5jbz-q8dk_9dg5,LAVIZZO,-87.627148,41.696262,POINT (-87.62714768795534 41.696262347612304),13,34,1(773)535-5300,Network 13,ROSELAND,District,60628
4950 N Avers Ave,"PK, K, 1, 2, 3, 4, 5, 6, 7, 8",610209,Margaret Laurino,ES,2015-12-02T17:40:19.962Z,row-3cr4~at57~d5fn,2015-12-02T17:40:19.962Z,rv-azis~3fu3_6zmm,VOLTA,-87.724605,41.971634,POINT (-87.72460522430316 41.97163400182653),1,39,1(773)534-5080,Network 1,ALBANY PARK,District,60625
4929 N Sawyer Ave,"7, 8",610212,Deborah Mell,ES,2015-12-02T17:40:19.962Z,row-pb9y-vt97.mp4n,2015-12-02T17:40:19.962Z,rv-un3z~driv~wbys,ALBANY PARK,-87.710609,41.971504,POINT (-87.71060878829846 41.97150444397496),1,33,1(773)534-5108,Network 1,ALBANY PARK,District,60625
6650 S Ellis Ave,"PK, K, 1, 2, 3, 4, 5, 6, 7, 8",610213,Leslie A. Hairston,ES,2015-12-02T17:40:19.962Z,row-idm6.fjrf_pa9n,2015-12-02T17:40:19.962Z,rv-a56z~3rd5_bikb,WADSWORTH,-87.601018,41.773478,POINT (-87.60101811220858 41.773477898294274),9,5,1(773)535-0730,Network 9,WOODLAWN,District,60637
3202 W 28th St,"6, 7, 8",610215,Ricardo Munoz,ES,2015-12-02T17:40:19.962Z,row-z9a3.kjhh.bg4m,2015-12-02T17:40:19.962Z,rv-ztw9_wn3t_y32f,MADERO,-87.705064,41.840957,POINT (-87.70506426029748 41.84095691186322),7,22,1(773)535-4466,Network 7,SOUTH LAWNDALE,District,60623
2015 S Peoria St,"PK, K, 1, 2, 3, 4, 5, 6, 7, 8",610216,James A. Balcer,ES,2015-12-02T17:40:19.962Z,row-edk2~4yf7~4d2m,2015-12-02T17:40:19.962Z,rv-nriu.6bms.j4vq,WALSH,-87.648086,41.854836,POINT (-87.64808617473388 41.85483574783071),7,11,1(773)534-7950,Network 7,LOWER WEST SIDE,District,60608
2701 S Shields Ave,"PK, K, 1, 2, 3, 4, 5, 6, 7, 8",610217,James A. Balcer,ES,2015-12-02T17:40:19.962Z,row-u4k7~zh4k-w249,2015-12-02T17:40:19.962Z,rv-n462~k9hq~jrcj,WARD J,-87.635356,41.84398,POINT (-87.63535578862451 41.843980089480425),6,11,1(773)534-9050,Network 6,ARMOUR SQUARE,District,60616
9239 S Jeffery Ave,"PK, K, 1, 2, 3, 4, 5, 6, 7, 8",610218,Natashia Holmes,ES,2015-12-02T17:40:19.962Z,row-yk9j~sbm3-vgay,2015-12-02T17:40:19.962Z,rv-4nu7-gaif-h7d8,WARREN,-87.575353,41.726763,POINT (-87.57535254914627 41.72676290951163),12,7,1(773)535-6625,Network 12,CALUMET HEIGHTS,District,60617
3611 E 114th St,"PK, K, 1, 2, 3, 4, 5, 6, 7, 8",610219,John A. Pope,ES,2015-12-02T17:40:19.962Z,row-8exf.vu3m_wakr,2015-12-02T17:40:19.962Z,rv-fhvf~386t.hnzk,WASHINGTON G ES,-87.536015,41.688131,POINT (-87.53601529925376 41.688131484192446),13,10,1(773)535-5010,Network 13,EAST SIDE,District,60617
4540 N Campbell Ave,"K, 1, 2, 3, 4, 5, 6, 7, 8",610220,Ameya Pawar,ES,2015-12-02T17:40:19.962Z,row-ihe3.auqh~pyjn,2015-12-02T17:40:19.962Z,rv-vz5m~p9yf_n5md,WATERS,-87.691333,41.964365,POINT (-87.69133251140144 41.96436540454609),2,47,1(773)534-5090,Network 2,LINCOLN SQUARE,District,60625
4055 W Arthington St,"PK, K, 1, 2, 3, 4, 5, 6, 7, 8",610221,Michael D. Chandler,ES,2015-12-02T17:40:19.962Z,row-f8x3~43z9.mqpr,2015-12-02T17:40:19.962Z,rv-kw4d~kcaj_ycwh,WEBSTER,-87.727524,41.869916,POINT (-87.7275243747746 41.86991585847201),5,24,1(773)534-6925,Network 5,WEST GARFIELD PARK,District,60624
1340 W 71st St,"PK, K, 1, 2, 3, 4, 5, 6, 7, 8",610223,Roderick T. Sawyer,ES,2015-12-02T17:40:19.962Z,row-etfs_xh65~sagb,2015-12-02T17:40:19.962Z,rv-7ete-9hs4~k2g3,WENTWORTH,-87.658205,41.765076,POINT (-87.6582048358533 41.765075896759704),11,6,1(773)535-3394,Network 11,WEST ENGLEWOOD,District,60636
11533 S Ada St,"PK, K, 1, 2, 3, 4, 5, 6, 7, 8",610225,Carrie M. Austin,ES,2015-12-02T17:40:19.962Z,row-cbfg-m94z.5eav,2015-12-02T17:40:19.962Z,rv-y5ps-iqzb_uagq,WHISTLER,-87.655384,41.683907,POINT (-87.65538382156934 41.68390701031587),13,34,1(773)535-5560,Network 13,WEST PULLMAN,District,60643
5534 S Saint Louis Ave,"PK, K, 1, 2, 3, 4, 5",610226,Edward M. Burke,ES,2015-12-02T17:40:19.962Z,row-siwu.cvbs-97vb,2015-12-02T17:40:19.962Z,rv-qsz2-adth_edsv,SANDOVAL,-87.710987,41.792346,POINT (-87.71098733216566 41.79234608441279),8,14,1(773)535-0457,Network 8,GAGE PARK,District,60629
2815 S Komensky Ave,"PK, K, 1, 2, 3, 4, 5, 6, 7, 8",610227,Ricardo Munoz,ES,2015-12-02T17:40:19.962Z,row-2fv5_qdj5_78xk,2015-12-02T17:40:19.962Z,rv-87nk-qan9~4y6q,WHITNEY,-87.725546,41.84008,POINT (-87.72554564237893 41.840080427545395),7,22,1(773)534-1560,Network 7,SOUTH LAWNDALE,District,60623
1900 W 23rd St,"PK, K, 1, 2, 3, 4, 5, 6, 7, 8",610228,Daniel S. Solis,ES,2015-12-02T17:40:19.962Z,row-3s2b~vwgy_44yb,2015-12-02T17:40:19.962Z,rv-rf9f_tquc_trzt,WHITTIER,-87.673392,41.850481,POINT (-87.67339165458796 41.85048088728893),7,25,1(773)535-4590,Network 7,LOWER WEST SIDE,District,60608
2009 W Schiller St,"PK, K, 1, 2, 3, 4, 5, 6, 7, 8",610229,Proco (Joe) Moreno III,ES,2015-12-02T17:40:19.962Z,row-u3id~cxp4-h4am,2015-12-02T17:40:19.962Z,rv-2ize_53xn_rcjb,PRITZKER,-87.677761,41.907053,POINT (-87.67776098129679 41.90705300532361),6,1,1(773)534-4415,Network 6,WEST TOWN,District,60622
6950 N Hiawatha Ave,"K, 1, 2, 3, 4, 5, 6, 7, 8",610230,Mary O'Connor,ES,2015-12-02T17:40:19.962Z,row-zpnm-imjg.gafi,2015-12-02T17:40:19.962Z,rv-rg6r~28dg.d36e,WILDWOOD,-87.778345,42.007491,POINT (-87.77834486171555 42.00749067022994),1,41,1(773)534-1188,Network 1,FOREST GLEN,District,60646
55 W Cermak Rd,"PK, K, 1, 2, 3, 4, 5, 6, 7, 8",610231,Patricia R. Dowell,ES,2015-12-02T17:40:19.962Z,row-9k6m.rb9b-rukj,2015-12-02T17:40:19.962Z,rv-bn4g.d6ur_xf4p,NATIONAL TEACHERS,-87.629308,41.8528,POINT (-87.62930833004597 41.85279977036904),6,3,1(773)534-9970,AUSL,NEAR SOUTH SIDE,District,60616
1839 N Richmond St,"PK, K, 1, 2, 3, 4, 5, 6, 7, 8",610234,Proco (Joe) Moreno III,ES,2015-12-02T17:40:19.962Z,row-u5h8_97g9_378z,2015-12-02T17:40:19.962Z,rv-h4w3.fp82~tt5u,YATES,-87.70028,41.915039,POINT (-87.70028031303718 41.915038547767104),5,1,1(773)534-4550,Network 5,LOGAN SQUARE,District,60647
1434 N Parkside Ave,"PK, K, 1, 2, 3, 4, 5, 6, 7, 8",610235,Deborah L. Graham,ES,2015-12-02T17:40:19.962Z,row-hw68.8e8b_pc7x,2015-12-02T17:40:19.962Z,rv-zimu_tm6r-tv69,YOUNG ES,-87.767143,41.906791,POINT (-87.76714284546927 41.9067905745787),3,29,1(773)534-6200,Network 3,AUSTIN,District,60651
25 W 47th St,"PK, K, 1, 2, 3, 4, 5, 6, 7, 8",610237,Patricia R. Dowell,ES,2015-12-02T17:40:19.962Z,row-fm7k.a6em~s8zj,2015-12-02T17:40:19.962Z,rv-k9aq-d34i~a376,BEETHOVEN,-87.627137,41.809135,POINT (-87.62713680532485 41.80913475789258),9,3,1(773)535-1480,Network 9,GRAND BOULEVARD,District,60609
7050 S May St,"PK, K, 1, 2, 3, 4, 5, 6, 7, 8",610238,Roderick T. Sawyer,ES,2015-12-02T17:40:19.962Z,row-5sku.p83z-cjk6,2015-12-02T17:40:19.962Z,rv-un2j.idzv.z8tf,BOND,-87.653018,41.765361,POINT (-87.65301778635454 41.76536056668392),11,6,1(773)535-3480,Network 11,ENGLEWOOD,District,60621
5024 S Wolcott Ave,"PK, K, 1, 2, 3, 4, 5, 6, 7, 8",610239,Willie B. Cochran,ES,2015-12-02T17:40:19.962Z,row-p6ma-6r3j_a2a7,2015-12-02T17:40:19.962Z,rv-fp3q.q6ve.aie8,DALEY,-87.672206,41.802343,POINT (-87.67220640190209 41.8023428683119),8,20,1(773)535-9091,Network 8,NEW CITY,District,60609
4251 N Clarendon Ave,"PK, K, 1, 2, 3, 4, 5, 6, 7, 8",610242,James Cappleman,ES,2015-12-02T17:40:19.962Z,row-epus.4zzk.92uz,2015-12-02T17:40:19.962Z,rv-wegb_2wcu-nerv,BRENNEMANN,-87.649749,41.959984,POINT (-87.6497491648478 41.95998415558951),2,46,1(773)534-5766,Network 2,UPTOWN,District,60613
5101 W Harrison St,"9, 10, 11, 12",610244,Deborah L. Graham,HS,2015-12-02T17:40:19.962Z,row-n4bv_b2vv.c4gm,2015-12-02T17:40:19.962Z,rv-kdcj-v3xb.898s,CLARK HS,-87.753325,41.872885,POINT (-87.75332487192512 41.87288500569025),3,29,1(773)534-6250,Network 3,AUSTIN,District,60644
543 N Waller Ave,"9, 10, 11, 12",610245,Deborah L. Graham,HS,2015-12-02T17:40:19.962Z,row-83rc.4vki.zqi8,2015-12-02T17:40:19.962Z,rv-24r6~9h3w_6qn5,DOUGLASS HS,-87.767668,41.890369,POINT (-87.76766845610426 41.89036863024259),3,29,1(773)534-6176,Network 3,AUSTIN,District,60644
5255 S State St,"PK, K, 1, 2, 3, 4, 5, 6, 7, 8",610246,Patricia R. Dowell,ES,2015-12-02T17:40:19.962Z,row-rgbp~rvis-yjx6,2015-12-02T17:40:19.962Z,rv-nzeh~ejpt_kaxf,BEASLEY,-87.625692,41.798465,POINT (-87.6256915786754 41.79846496021468),9,3,1(773)535-1230,Network 9,WASHINGTON PARK,District,60609
3400 N Austin Ave,"PK, K, 1, 2, 3, 4, 5, 6, 7, 8",610248,Nicholas Sposato,ES,2015-12-02T17:40:19.962Z,row-hmqm_xygf~em3v,2015-12-02T17:40:19.962Z,rv-bzq2_2itt~7k5t,CHICAGO ACADEMY ES,-87.778187,41.943056,POINT (-87.77818680320907 41.943055919845534),1,36,1(773)534-3885,AUSL,DUNNING,District,60634
5450 S Talman Ave,"PK, K, 1, 2, 3, 4, 5, 6, 7, 8",610249,Edward M. Burke,ES,2015-12-02T17:40:19.962Z,row-9yve.p9b6_ykkc,2015-12-02T17:40:19.962Z,rv-9inn_3tzs-2nji,TALMAN,-87.690261,41.794048,POINT (-87.69026083932464 41.794048051232764),8,14,1(773)535-7850,Network 8,GAGE PARK,District,60632
160 W Wendell St,"PK, K, 1, 2, 3, 4, 5, 6, 7, 8",610250,"Walter Burnett, Jr.",ES,2015-12-02T17:40:19.962Z,row-mzac-tpzh-penb,2015-12-02T17:40:19.962Z,rv-ymcz_afub_7khq,SALAZAR,-87.633632,41.901417,POINT (-87.63363243437433 41.90141653471176),6,27,1(773)534-8310,Network 6,NEAR NORTH SIDE,District,60610
2908 W Washington Blvd,"PK, K, 1, 2, 3, 4, 5, 6, 7, 8",610251,"Walter Burnett, Jr.",ES,2015-12-02T17:40:19.962Z,row-jeki~z876.q45b,2015-12-02T17:40:19.962Z,rv-wgsv.k4u4-fea9,CATHER,-87.699187,41.88295,POINT (-87.69918700860174 41.88294992497454),5,27,1(773)534-6780,Network 5,EAST GARFIELD PARK,District,60612
2131 W Monroe St,"PK, K, 1, 2, 3, 4, 5, 6, 7, 8",610252,"Walter Burnett, Jr.",ES,2015-12-02T17:40:19.962Z,row-z6i3_vrs2~ww4z,2015-12-02T17:40:19.962Z,rv-vwcf-hkhr-ssi6,DETT,-87.680315,41.87987,POINT (-87.68031496688388 41.87986982130522),6,27,1(773)534-7160,Network 6,NEAR WEST SIDE,District,60612
3615 W 16th St,"PK, K, 1, 2, 3, 4, 5, 6, 7, 8",610254,Michael D. Chandler,ES,2015-12-02T17:40:19.962Z,row-v8dy-kjk8-cj4m,2015-12-02T17:40:19.962Z,rv-8t34-xh9j_n2nd,DVORAK,-87.715744,41.858883,POINT (-87.71574357132832 41.858883446918554),5,24,1(773)534-1690,AUSL,NORTH LAWNDALE,District,60623
4225 S Lake Park Ave,"PK, K, 1, 2, 3",610256,"William ""Will"" D. Burns",ES,2015-12-02T17:40:19.962Z,row-ccmu-42ik_pjmd,2015-12-02T17:40:19.962Z,rv-pnst-r58b-jbws,ROBINSON,-87.599067,41.817349,POINT (-87.59906677133571 41.817349327402354),9,4,1(773)535-1777,Network 9,OAKLAND,District,60653
431 N Troy St,"PK, K, 1, 2, 3, 4, 5, 6, 7, 8",610257,"Walter Burnett, Jr.",ES,2015-12-02T17:40:19.962Z,row-mtcb_u8r4~wdmk,2015-12-02T17:40:19.962Z,rv-bg6u_578t.3mv4,MORTON,-87.705108,41.889178,POINT (-87.70510783022301 41.88917813488959),5,27,1(773)534-6791,AUSL,HUMBOLDT PARK,District,60612
6311 S Calumet Ave,"PK, K, 1, 2, 3, 4, 5, 6, 7, 8",610263,Willie B. Cochran,ES,2015-12-02T17:40:19.962Z,row-db9f-4ebc~ewp8,2015-12-02T17:40:19.962Z,rv-9hir.pxs9.rs8k,DULLES,-87.617214,41.7799,POINT (-87.61721417932426 41.77990049418089),9,20,1(773)535-0690,AUSL,GREATER GRAND CROSSING,District,60637
8505 S Ingleside Ave,"K, 1, 2, 3, 4, 5, 6, 7, 8",610268,Michelle A. Harris,ES,2015-12-02T17:40:19.962Z,row-6pk4~48dp.apud,2015-12-02T17:40:19.962Z,rv-gqs5-r23h~ukns,ASHE,-87.601174,41.740184,POINT (-87.60117440816522 41.740183791387416),12,8,1(773)535-3550,Network 12,CHATHAM,District,60619
4865 N Sheridan Rd,"PK, K, 1, 2, 3, 4, 5, 6, 7, 8",610269,James Cappleman,ES,2015-12-02T17:40:19.962Z,row-qviz.n6mi.egkm,2015-12-02T17:40:19.962Z,rv-wj5w-k6ng-ach3,MCCUTCHEON,-87.654758,41.970949,POINT (-87.65475844817315 41.970949083243816),2,46,1(773)534-2680,Network 2,UPTOWN,District,60640
3030 W Harrison St,"PK, K, 1, 2, 3, 4, 5, 6, 7, 8",610271,Jason C. Ervin,ES,2015-12-02T17:40:19.962Z,row-vgbi.q5rf~ynvv,2015-12-02T17:40:19.962Z,rv-437p-4hkf~xtej,JENSEN,-87.702241,41.873815,POINT (-87.70224105281312 41.87381494789563),5,28,1(773)534-6840,Network 5,EAST GARFIELD PARK,District,60612
1420 S Albany Ave,"PK, K, 1, 2, 3, 4, 5, 6, 7, 8",610274,Michael D. Chandler,ES,2015-12-02T17:40:19.962Z,row-ah7u-dvjf_kcqb,2015-12-02T17:40:19.962Z,rv-y8cv.6sg3-riz9,JOHNSON,-87.703139,41.861836,POINT (-87.70313876235764 41.861836192143315),5,24,1(773)534-1829,AUSL,NORTH LAWNDALE,District,60623
4415 S Dr Martin L King Jr Dr,"PK, K, 1, 2, 3, 4, 5, 6, 7, 8",610276,Patricia R. Dowell,ES,2015-12-02T17:40:19.962Z,row-x9fc_fy5k-e5gd,2015-12-02T17:40:19.962Z,rv-9t2a~hp5u~9m3j,MOLLISON,-87.616618,41.814358,POINT (-87.61661794439756 41.81435828347046),9,3,1(773)535-1804,Network 9,GRAND BOULEVARD,District,60653
7350 S Evans Ave,"PK, K, 1, 2, 3, 4, 5, 6, 7, 8",610279,Roderick T. Sawyer,ES,2015-12-02T17:40:19.962Z,row-mpgd.4aqs-ei6d,2015-12-02T17:40:19.962Z,rv-kwya~y33v.6qcf,TANNER,-87.606791,41.760673,POINT (-87.60679103493086 41.76067263561242),12,6,1(773)535-3870,Network 12,GREATER GRAND CROSSING,District,60619
7511 S South Shore Dr,"K, 1, 2, 3, 4, 5, 6, 7, 8",610281,Natashia Holmes,ES,2015-12-02T17:40:19.962Z,row-ztbq-7prf-w4y5,2015-12-02T17:40:19.962Z,rv-46rq_ih5v_wqcb,POWELL,-87.556789,41.760332,POINT (-87.55678924866035 41.760331800469835),12,7,1(773)535-6650,Network 12,SOUTH SHORE,District,60649
4820 W Walton St,"PK, K, 1, 2, 3, 4, 5, 6, 7, 8",610282,Emma M. Mitts,ES,2015-12-02T17:40:19.962Z,row-rt5j_5xj7~iqcr,2015-12-02T17:40:19.962Z,rv-abzz.di8q~z2fp,MCNAIR,-87.746731,41.897819,POINT (-87.74673077897367 41.89781906972582),3,37,1(773)534-8980,AUSL,AUSTIN,District,60651
1707 W Morse Ave,"PK, K, 1, 2, 3",610284,Joe A. Moore,ES,2015-12-02T17:40:19.962Z,row-846e-5t9p~s35f,2015-12-02T17:40:19.962Z,rv-4hyu-8hvz~4qcv,NEW FIELD,-87.673168,42.007703,POINT (-87.67316832831048 42.007702571152386),2,49,1(773)534-2760,Network 2,ROGERS PARK,District,60626
8300 S St Louis Ave,"PK, K, 1, 2, 3, 4, 5, 6, 7, 8",610287,Lona Lane,ES,2015-12-02T17:40:19.962Z,row-ngyf-85m6-wqv4,2015-12-02T17:40:19.962Z,rv-wz65-qt6t-dd6g,ASHBURN,-87.70961,41.742351,POINT (-87.70960968185929 41.74235056725263),10,18,1(773)535-7860,Network 10,ASHBURN,District,60652
6656 S Normal Blvd,"PK, K, 1, 2, 3, 4, 5, 6, 7, 8",610290,Roderick T. Sawyer,ES,2015-12-02T17:40:19.962Z,row-9yug_hqrk.jyx6,2015-12-02T17:40:19.962Z,rv-fzta-gvkv-kcpv,MAYS,-87.637277,41.772727,POINT (-87.6372773472135 41.772727497775875),11,6,1(773)535-3892,Network 11,ENGLEWOOD,District,60621
6448 S Tripp Ave,"PK, K, 1, 2, 3, 4, 5, 6, 7, 8",610291,Marty Quinn,ES,2015-12-02T17:40:19.962Z,row-tffr_yj78~hmua,2015-12-02T17:40:19.962Z,rv-8sax.pn6u~jns2,LEE,-87.728884,41.775305,POINT (-87.7288842924784 41.77530538766534),10,13,1(773)535-2255,Network 10,WEST LAWN,District,60629
3937 W Wilcox St,"PK, K, 1, 2, 3, 4, 5, 6, 7, 8",610293,Jason C. Ervin,ES,2015-12-02T17:40:19.962Z,row-rw7i_xcpy.hwts,2015-12-02T17:40:19.962Z,rv-wth3~5h6i~uepf,MELODY,-87.724661,41.878799,POINT (-87.72466123098404 41.8787989323195),5,28,1(773)534-6850,Network 5,WEST GARFIELD PARK,District,60624
11710 S Morgan St,"PK, K, 1, 2, 3, 4, 5, 6, 7, 8",610295,Carrie M. Austin,ES,2015-12-02T17:40:19.962Z,row-zrgv-a4an-cpa7,2015-12-02T17:40:19.962Z,rv-mkqp.vccg.bv4w,HIGGINS,-87.646994,41.681031,POINT (-87.64699403751726 41.68103137060565),13,34,1(773)535-5625,Network 13,WEST PULLMAN,District,60643
8101 S LaSalle St,"PK, K, 1, 2, 3, 4, 5, 6, 7, 8",610298,"Howard B. Brookins, Jr.",ES,2015-12-02T17:40:19.962Z,row-ni2e~7zc4.kifx,2015-12-02T17:40:19.962Z,rv-ev48-5rwu~e4q5,LENART,-87.62804,41.747186,POINT (-87.62804036297216 41.74718591848971),11,21,1(773)535-0040,ISP,CHATHAM,District,60620
644 W 71st St,"PK, K, 1, 2, 3, 4, 5, 6, 7, 8",610299,Roderick T. Sawyer,ES,2015-12-02T17:40:19.962Z,row-6csy~3qga.5fdy,2015-12-02T17:40:19.962Z,rv-nzz6_g8t8~qdf8,KING ES,-87.641335,41.765335,POINT (-87.64133454022846 41.765334979958205),11,6,1(773)535-3875,Network 11,ENGLEWOOD,District,60621
409 W 80th St,"PK, K, 1, 2, 3, 4, 5, 6, 7, 8",610300,Latasha R. Thomas,ES,2015-12-02T17:40:19.962Z,row-4v32_ctcn~ptm2,2015-12-02T17:40:19.962Z,rv-nv68~g6pm~99sc,WESTCOTT,-87.634751,41.748868,POINT (-87.63475051609748 41.748868225739486),11,17,1(773)535-3090,Network 11,CHATHAM,District,60620
145 S Campbell Ave,"9, 10, 11, 12",610304,"Walter Burnett, Jr.",HS,2015-12-02T17:40:19.962Z,row-dnzk-ey4b-td3m,2015-12-02T17:40:19.962Z,rv-bjk4-wd9x-gfqa,PHOENIX MILITARY HS,-87.68696,41.879118,POINT (-87.68696021851208 41.87911823146096),6,27,1(773)534-7275,SLA,NEAR WEST SIDE,District,60612
512 S Lavergne Ave,"PK, K, 1, 2, 3, 4, 5, 6, 7, 8",610305,Deborah L. Graham,ES,2015-12-02T17:40:19.962Z,row-udwi-ikew~gxuq,2015-12-02T17:40:19.962Z,rv-63hi.6izd_q2yc,LELAND,-87.749276,41.873587,POINT (-87.74927555443684 41.87358678059433),3,29,1(773)534-6340,Network 3,AUSTIN,District,60644
110 N Paulina St,"PK, K, 1, 2, 3, 4, 5",610308,"Walter Burnett, Jr.",ES,2015-12-02T17:40:19.962Z,row-5p5h~b8b2.jngj,2015-12-02T17:40:19.962Z,rv-zc37~iizz-zq2t,RUDOLPH,-87.669477,41.883568,POINT (-87.66947670901006 41.88356816854655),6,27,1(773)534-7460,Network 6,NEAR WEST SIDE,District,60612
1419 E 89th St,"PK, K, 1, 2, 3, 4, 5",610312,Michelle A. Harris,ES,2015-12-02T17:40:19.962Z,row-48sn-igwe-nsgt,2015-12-02T17:40:19.962Z,rv-jjr8-62fv-8q6u,MCDOWELL,-87.589589,41.733132,POINT (-87.58958949896115 41.73313231367912),12,8,1(773)535-6404,Network 12,CALUMET HEIGHTS,District,60619
1313 N Claremont Ave,"PK, K, 1, 2, 3, 4, 5, 6, 7, 8",610313,Proco (Joe) Moreno III,ES,2015-12-02T17:40:19.962Z,row-demf_ed49_6x46,2015-12-02T17:40:19.962Z,rv-r3rq~nfsa-wswd,DE DIEGO,-87.685756,41.905294,POINT (-87.68575620335822 41.905293853823764),5,1,1(773)534-4451,Network 5,WEST TOWN,District,60622
1136 W 122nd St,"PK, K, 1, 2, 3, 4, 5, 6, 7, 8",610315,Carrie M. Austin,ES,2015-12-02T17:40:19.962Z,row-46iw~m6e5-pjb9,2015-12-02T17:40:19.962Z,rv-458d_fwi4~2m34,WHITE,-87.650539,41.672309,POINT (-87.65053854187074 41.67230940699414),13,34,1(773)535-5672,Network 13,WEST PULLMAN,District,60643
1710 E 93rd St,"K, 1, 2, 3, 4, 5, 6, 7, 8",610316,Michelle A. Harris,ES,2015-12-02T17:40:19.962Z,row-knid-r5mi~9t5r,2015-12-02T17:40:19.962Z,rv-j6rm~yeuj_9fbt,EARHART,-87.582182,41.726107,POINT (-87.58218173800742 41.72610745594225),12,8,1(773)535-6416,Network 12,CALUMET HEIGHTS,District,60617
3825 S Washtenaw Ave,"PK, K, 1, 2, 3, 4, 5, 6, 7, 8",610317,George A. Cardenas,ES,2015-12-02T17:40:19.962Z,row-58bs-jz9i~ekv5,2015-12-02T17:40:19.962Z,rv-bzfb-2wdj~cciz,BRIGHTON PARK,-87.692077,41.8239,POINT (-87.6920769295046 41.823900000855616),8,12,1(773)535-7237,Network 8,BRIGHTON PARK,District,60632
3537 S Paulina St,"6, 7, 8",610319,George A. Cardenas,ES,2015-12-02T17:40:19.962Z,row-k5iy_r6ce-tqrd,2015-12-02T17:40:19.962Z,rv-t4xv.w8yn_nxtw,EVERGREEN,-87.667817,41.829356,POINT (-87.66781651170879 41.8293556193243),8,12,1(773)535-4836,Network 8,MCKINLEY PARK,District,60609
3900 N Lawndale Ave,"7, 8",610321,John Arena,ES,2015-12-02T17:40:19.962Z,row-47jr_ac6n_3qcv,2015-12-02T17:40:19.962Z,rv-si44-fvyk-2f2z,MARSHALL MIDDLE,-87.719988,41.952492,POINT (-87.71998811664967 41.952491861023674),1,45,1(773)534-5200,Network 1,IRVING PARK,District,60618
2710 E 89th St,"9, 10, 11, 12",610323,Natashia Holmes,HS,2015-12-02T17:40:19.962Z,row-n6vq_89dc.i5qk,2015-12-02T17:40:19.962Z,rv-hmtm-8dur_4xak,BOWEN HS,-87.55755,41.734627,POINT (-87.55755003398635 41.734626720922165),12,7,1(773)535-7650,OS4,SOUTH CHICAGO,District,60617
3212 W George St,"PK, K, 1, 2, 3, 4, 5, 6, 7, 8",610325,Rey Colon,ES,2015-12-02T17:40:19.962Z,row-rjjs_7wvs_24fs,2015-12-02T17:40:19.962Z,rv-fqbq.tznc_hcfn,LOGANDALE,-87.708041,41.93397,POINT (-87.70804087663461 41.933970196160615),4,35,1(773)534-5350,Network 4,AVONDALE,District,60618
1940 W 18th St,"PK, K, 1, 2, 3, 4, 5, 6, 7, 8",610329,Daniel S. Solis,ES,2015-12-02T17:40:19.962Z,row-6btp.ysnw_5j5e,2015-12-02T17:40:19.962Z,rv-tw38_7avk.pphx,OROZCO,-87.67521,41.857755,POINT (-87.67521045905065 41.85775481003246),7,25,1(773)534-7215,Network 7,LOWER WEST SIDE,District,60608
3545 W Fulton Blvd,"9, 10, 11, 12",610334,Jason C. Ervin,HS,2015-12-02T17:40:19.962Z,row-7x8r-ep38_tfzn,2015-12-02T17:40:19.962Z,rv-cdui_k6f9_pbqb,RABY HS,-87.715423,41.88621,POINT (-87.71542311971996 41.88621006000519),5,28,1(773)534-6755,OS4,EAST GARFIELD PARK,District,60624
7424 S Morgan St,"PK, K, 1, 2, 3, 4, 5, 6, 7, 8",610339,Latasha R. Thomas,ES,2015-12-02T17:40:19.962Z,row-as9x.i6hr.hu3c,2015-12-02T17:40:19.962Z,rv-mz23_pswz_4cac,STAGG,-87.649217,41.758925,POINT (-87.64921669329419 41.75892473263723),11,17,1(773)535-3565,AUSL,ENGLEWOOD,District,60621
3400 N Austin Ave,"9, 10, 11, 12",610340,Nicholas Sposato,HS,2015-12-02T17:40:19.962Z,row-6vx5-988b-ekhv,2015-12-02T17:40:19.962Z,rv-szsv~e745.icfv,CHICAGO ACADEMY HS,-87.776847,41.943054,POINT (-87.77684656596966 41.94305449113127),1,36,1(773)534-0146,AUSL,DUNNING,District,60634
2216 W Hirsch St,"K, 1, 2, 3, 4, 5, 6, 7, 8",610342,Proco (Joe) Moreno III,ES,2015-12-02T17:40:19.962Z,row-r9mb~fizv_hskh,2015-12-02T17:40:19.962Z,rv-kzdw_phtg.nuhd,SABIN,-87.68305,41.906816,POINT (-87.68304994228944 41.90681581017204),5,1,1(773)534-4491,Network 5,WEST TOWN,District,60622
4414 S Evans Ave,"PK, K, 1, 2, 3, 4, 5, 6, 7, 8",610345,Patricia R. Dowell,ES,2015-12-02T17:40:19.962Z,row-adyh.zj7x-ywpq,2015-12-02T17:40:19.962Z,rv-aqpd.qe9r~agiz,WOODSON,-87.608419,41.814499,POINT (-87.60841876862465 41.81449879622073),9,3,1(773)535-1280,Network 9,GRAND BOULEVARD,District,60653
2300 W 64th St,"PK, K, 1, 2, 3, 4, 5, 6, 7, 8",610347,JoAnn Thompson,ES,2015-12-02T17:40:19.962Z,row-ajk4.qh7s~g9xe,2015-12-02T17:40:19.962Z,rv-ubaw-h73c.37mn,CLAREMONT,-87.681061,41.777511,POINT (-87.68106119709638 41.777510508201864),10,16,1(773)535-8110,Network 10,CHICAGO LAWN,District,60636
9101 S Euclid Ave,"K, 1, 2, 3, 4, 5, 6, 7, 8",610350,Michelle A. Harris,ES,2015-12-02T17:40:19.962Z,row-aqmd-pznx_ipbn,2015-12-02T17:40:19.962Z,rv-vrgn_z2vk-5xsd,BLACK,-87.576643,41.729692,POINT (-87.57664295132463 41.72969236172512),12,8,1(773)535-6390,Network 12,CALUMET HEIGHTS,District,60619
8445 S Kolin Ave,"PK, K, 1, 2, 3, 4, 5, 6, 7, 8",610352,Lona Lane,ES,2015-12-02T17:40:19.962Z,row-uzma.ak6b~ym9u,2015-12-02T17:40:19.962Z,rv-mkp7.amk5-bvup,DURKIN PARK,-87.729955,41.738844,POINT (-87.72995529263605 41.73884394132675),10,18,1(773)535-2322,Network 10,ASHBURN,District,60652
3456 W 38th St,"PK, K, 1, 2, 3, 4, 5, 6, 7, 8",610353,George A. Cardenas,ES,2015-12-02T17:40:19.962Z,row-k3hy_kdmm~z3qv,2015-12-02T17:40:19.962Z,rv-xfg3~4fdd_qkg9,CALMECA,-87.711654,41.824377,POINT (-87.7116536402093 41.82437732781906),8,12,1(773)535-7000,Network 8,BRIGHTON PARK,District,60632
4416 N Troy St,"PK, K, 1, 2, 3, 4, 5, 6, 7, 8",610354,Deborah Mell,ES,2015-12-02T17:40:19.962Z,row-chcj~b3hg.mjmf,2015-12-02T17:40:19.962Z,rv-8aih-etij.9gxf,NORTH RIVER,-87.707151,41.961721,POINT (-87.70715072857843 41.961721056992225),1,33,1(773)534-0590,Network 1,ALBANY PARK,District,60625
4420 N Beacon St,"PK, K, 1, 2, 3, 4, 5, 6, 7, 8",610355,James Cappleman,ES,2015-12-02T17:40:19.962Z,row-eyqn_k8cb.cc2d,2015-12-02T17:40:19.962Z,rv-7qxi.b5wv_h69z,COURTENAY,-87.663853,41.962308,POINT (-87.66385296301961 41.962307772432105),2,46,1(773)534-5790,Network 2,UPTOWN,District,60640
2400 S Marshall Blvd,"9, 10, 11, 12",610357,George A. Cardenas,HS,2015-12-02T17:40:19.962Z,row-m32t.3cyc~fbub,2015-12-02T17:40:19.962Z,rv-p9pf.4d9b-yea9,SPRY HS,-87.698946,41.847762,POINT (-87.69894610626729 41.8477616953178),7,12,1(773)534-1997,Network 7,SOUTH LAWNDALE,District,60623
9811 S Lowe Ave,"PK, K, 1, 2, 3, 4, 5, 6, 7, 8",610362,Carrie M. Austin,ES,2015-12-02T17:40:19.962Z,row-77ez.8sf4-3c34,2015-12-02T17:40:19.962Z,rv-fnnv-jxij_6855,EVERS,-87.639305,41.715665,POINT (-87.63930546860912 41.71566535811086),11,34,1(773)535-2565,Network 11,WASHINGTON HEIGHTS,District,60628
4140 N Marine Dr,"PK, K, 1, 2, 3, 4, 5, 6, 7, 8",610363,James Cappleman,ES,2015-12-02T17:40:19.962Z,row-mt8a-r9xe_wvnz,2015-12-02T17:40:19.962Z,rv-79gd~se8q_mnuf,DISNEY,-87.646083,41.956816,POINT (-87.64608274383085 41.9568161311817),2,46,1(773)534-5840,ISP,UPTOWN,District,60613
330 E 133rd St,"PK, K, 1, 2, 3, 4, 5, 6, 7, 8",610364,Anthony A. Beale,ES,2015-12-02T17:40:19.962Z,row-2e4a-ygic.6xmf,2015-12-02T17:40:19.962Z,rv-mz83.hgg3-yzi7,DUBOIS,-87.61432,41.653733,POINT (-87.61432001022517 41.65373298187564),13,9,1(773)535-5582,Network 13,RIVERDALE,District,60827
9746 S Morgan St,"PK, K, 1, 2, 3, 4, 5, 6, 7, 8",610366,Carrie M. Austin,ES,2015-12-02T17:40:19.962Z,row-gcau~bze9-fe2i,2015-12-02T17:40:19.962Z,rv-rpvx~agam-hg9f,WACKER,-87.648044,41.716193,POINT (-87.64804432353884 41.71619329616542),11,34,1(773)535-2821,Network 11,WASHINGTON HEIGHTS,District,60643
139 S Parkside Ave,"PK, K, 1, 2, 3, 4, 5, 6, 7, 8",610367,Deborah L. Graham,ES,2015-12-02T17:40:19.962Z,row-83u7_5qav_x5wr,2015-12-02T17:40:19.962Z,rv-iusm-qz27.xyae,DEPRIEST,-87.766298,41.877979,POINT (-87.766297554912 41.877978833659135),3,29,1(773)534-6800,Network 3,AUSTIN,District,60644
240 W 104th St,"PK, K, 1, 2, 3, 4, 5, 6, 7, 8",610368,Carrie M. Austin,ES,2015-12-02T17:40:19.962Z,row-v7hv-src5-spt7,2015-12-02T17:40:19.962Z,rv-5fut.z44v-vb5b,HUGHES L,-87.629869,41.705342,POINT (-87.6298686592155 41.70534232205133),13,34,1(773)535-5075,Network 13,ROSELAND,District,60628
917 W 88th St,"PK, K, 1, 2, 3, 4, 5, 6, 7, 8",610369,"Howard B. Brookins, Jr.",ES,2015-12-02T17:40:19.962Z,row-s5br.tmy7~mhnn,2015-12-02T17:40:19.962Z,rv-j7w6-visp-3rfb,JACKSON M,-87.646767,41.734125,POINT (-87.64676673419726 41.7341254726103),11,21,1(773)535-3341,Network 11,AUBURN GRESHAM,District,60620
4934 S Wabash Ave,"9, 10, 11, 12",610380,Patricia R. Dowell,HS,2015-12-02T17:40:19.962Z,row-83r9~vet4-favq,2015-12-02T17:40:19.962Z,rv-z8pa_uxjb_mdip,WILLIAMS HS,-87.62503,41.806118,POINT (-87.62502998015482 41.80611759739416),9,3,1(773)535-1120,Network 9,GRAND BOULEVARD,District,60615
4934 S Wabash Ave,"9, 10, 11, 12",610381,Patricia R. Dowell,HS,2015-12-02T17:40:19.962Z,row-i7zu-jf8u~qw4v,2015-12-02T17:40:19.962Z,rv-kydd.wjfm_wm85,BRONZEVILLE HS,-87.625004,41.805204,POINT (-87.6250044685148 41.8052041707758),9,3,1(773)535-1150,OS4,GRAND BOULEVARD,District,60615
3120 S Kostner Ave,"9, 10, 11, 12",610383,Ricardo Munoz,HS,2015-12-02T17:40:19.962Z,row-9ab8~dgvw_it6c,2015-12-02T17:40:19.962Z,rv-3uw8~zebn.9s78,SOCIAL JUSTICE HS,-87.735299,41.833507,POINT (-87.73529946917368 41.833507274799466),7,22,1(773)535-4300,Network 7,SOUTH LAWNDALE,District,60623
3120 S Kostner Ave,"9, 10, 11, 12",610384,Ricardo Munoz,HS,2015-12-02T17:40:19.962Z,row-bhmq-764g_d7wb,2015-12-02T17:40:19.962Z,rv-4wzg_nfwy.dwvu,INFINITY HS,-87.735278,41.836169,POINT (-87.73527796115582 41.83616881902138),7,22,1(773)535-4225,Network 7,SOUTH LAWNDALE,District,60623
3120 S Kostner Ave,"9, 10, 11, 12",610385,Ricardo Munoz,HS,2015-12-02T17:40:19.962Z,row-sdpv~9vy3-7i2g,2015-12-02T17:40:19.962Z,rv-utuw.xbi5_uv4n,MULTICULTURAL HS,-87.735283,41.835282,POINT (-87.7352832974556 41.83528187381304),7,22,1(773)535-4242,Network 7,SOUTH LAWNDALE,District,60623
4946 S Paulina St,"10, 11, 12",610386,Willie B. Cochran,HS,2015-12-02T17:40:19.962Z,row-vzev-wttf_ux3w,2015-12-02T17:40:19.962Z,rv-2x9j-xn5m_5ffh,PEACE AND EDUCATION HS,-87.667378,41.803515,POINT (-87.66737776497777 41.803514716062885),8,20,1(773)535-9023,Options,NEW CITY,District,60609
730 N Pulaski Rd,"9, 10, 11, 12",610389,Emma M. Mitts,HS,2015-12-02T17:40:19.962Z,row-wq7x_y79e.wd5a,2015-12-02T17:40:19.962Z,rv-vqf9_q4hz-wsni,ORR HS,-87.726166,41.894449,POINT (-87.72616633148715 41.894448826656124),5,37,1(773)534-6500,AUSL,HUMBOLDT PARK,District,60624
5900 N Glenwood Ave,"9, 10, 11, 12",610390,Harry Osterman,HS,2015-12-02T17:40:19.962Z,row-659a-kezn.3a59,2015-12-02T17:40:19.962Z,rv-47cg~hbta_h5yz,RICKOVER MILITARY HS,-87.665789,41.989021,POINT (-87.66578850827734 41.98902071001694),2,48,1(773)534-2890,SLA,EDGEWATER,District,60660
6130 S Wolcott Ave,"7, 8, 9, 10, 11, 12",610391,Toni L. Foulkes,HS,2015-12-02T17:40:19.962Z,row-5u7w~rste.i6um,2015-12-02T17:40:19.962Z,rv-92ae-726n~tby7,LINDBLOM HS,-87.671662,41.782041,POINT (-87.67166185009417 41.78204080347504),11,15,1(773)535-9300,Network 11,WEST ENGLEWOOD,District,60636
3120 S Kostner Ave,"9, 10, 11, 12",610392,Ricardo Munoz,HS,2015-12-02T17:40:19.962Z,row-6m57.92wp-5th8,2015-12-02T17:40:19.962Z,rv-4mum-5y3r.zftc,WORLD LANGUAGE HS,-87.735292,41.834397,POINT (-87.73529221689705 41.83439661757221),7,22,1(773)535-4334,Network 7,SOUTH LAWNDALE,District,60623
900 W Wilson Ave,"9, 10, 11, 12",610394,James Cappleman,HS,2015-12-02T17:40:19.962Z,row-fwse-fpad_fv4u,2015-12-02T17:40:19.962Z,rv-vbch.6dr3.fyru,UPLIFT HS,-87.652473,41.965547,POINT (-87.6524733460127 41.965547462054204),2,46,1(773)534-2875,Network 2,UPTOWN,District,60640
3330 W 71st St,"PK, K, 1, 2, 3, 4, 5, 6, 7, 8",610396,Latasha R. Thomas,ES,2015-12-02T17:40:19.962Z,row-enri~emv2~mb2v,2015-12-02T17:40:19.962Z,rv-bq9u_ycvk.pd9u,TARKINGTON,-87.706445,41.764407,POINT (-87.70644464814345 41.76440707615083),10,17,1(773)535-4700,AUSL,CHICAGO LAWN,District,60629
3300 N Campbell Ave,"11, 12",610402,Ameya Pawar,HS,2015-12-02T17:40:19.962Z,row-dpiy.ipcr_v6zn,2015-12-02T17:40:19.962Z,rv-tiz5-86u5~kdty,DEVRY HS,-87.690761,41.941388,POINT (-87.69076139181595 41.941387640204454),4,47,1(773)697-2216,Network 4,NORTH CENTER,District,60618
2022 W Washington Blvd,"PK, K, 1, 2, 3, 4, 5, 6, 7, 8",610405,"Walter Burnett, Jr.",ES,2015-12-02T17:40:19.962Z,row-4rhy~x6an~5pfk,2015-12-02T17:40:19.962Z,rv-srwb-f8ue_bvcu,SUDER,-87.677636,41.883215,POINT (-87.67763611212946 41.88321451776874),6,27,1(773)534-7685,Network 6,NEAR WEST SIDE,District,60612
1313 S Sacramento Dr,"9, 10, 11, 12",610499,Michael D. Chandler,HS,2015-12-02T17:40:19.962Z,row-45kq.a7vb~ztrq,2015-12-02T17:40:19.962Z,rv-wzwu_wh7h.bsi9,COLLINS HS,-87.702042,41.864149,POINT (-87.7020415857478 41.86414856794383),5,24,1(773)534-1840,AUSL,NORTH LAWNDALE,District,60623
231 N Pine Ave,"9, 10, 11, 12",610501,Emma M. Mitts,HS,2015-12-02T17:40:19.962Z,row-6n4k_aw82_beu3,2015-12-02T17:40:19.962Z,rv-auzb~4cqk.xdy6,AUSTIN POLY HS,-87.761909,41.885123,POINT (-87.76190894991869 41.88512294415728),3,37,1(773)534-6300,Network 3,AUSTIN,District,60644
145 S Campbell Ave,"10, 11, 12",610502,"Walter Burnett, Jr.",HS,2015-12-02T17:40:19.962Z,row-2g5y.jwc9.2ku2,2015-12-02T17:40:19.962Z,rv-yqw3~2rww.9xmn,MARINE MILITARY HS,-87.688314,41.879123,POINT (-87.68831372379378 41.87912345962771),6,27,1(773)534-7818,SLA,NEAR WEST SIDE,District,60612
4027 W Grenshaw St,"K, 1, 2, 3, 4, 5, 6, 7, 8",610503,Michael D. Chandler,ES,2015-12-02T17:40:19.962Z,row-mgcu~bcxb~qkgr,2015-12-02T17:40:19.962Z,rv-bhd4-83vw~ymwa,FRAZIER PROSPECTIVE,-87.727244,41.86698,POINT (-87.7272443785774 41.86697962723388),5,24,1(773)534-6880,Network 5,NORTH LAWNDALE,District,60624
3625 S Hoyne Ave,PK,610504,George A. Cardenas,ES,2015-12-02T17:40:19.962Z,row-tj65-jzba.d92y,2015-12-02T17:40:19.962Z,rv-gtmk~9hpv_jk72,THOMAS,-87.677542,41.827775,POINT (-87.67754184981071 41.82777491389318),8,12,1(773)535-4088,Network 8,MCKINLEY PARK,District,60609
6201 S Stewart Ave,"9, 10, 11, 12",610506,Willie B. Cochran,HS,2015-12-02T17:40:19.962Z,row-8kdj_vnxt_7fxu,2015-12-02T17:40:19.962Z,rv-qziq.ydqw~28s3,TEAM HS,-87.633019,41.781485,POINT (-87.63301879084402 41.781484904143475),11,20,1(773)535-3530,Network 11,ENGLEWOOD,District,60621
3630 S Wells St,"9, 10, 11, 12",610513,James A. Balcer,HS,2015-12-02T17:40:19.962Z,row-z4c4-fsk8_w28s,2015-12-02T17:40:19.962Z,rv-dndr-3ksd_8cpk,AIR FORCE HS,-87.632757,41.828145,POINT (-87.63275698280424 41.828145322638406),6,11,1(773)535-1590,SLA,ARMOUR SQUARE,District,60609
231 N Pine Ave,"9, 10, 11, 12",610518,Emma M. Mitts,HS,2015-12-02T17:40:19.962Z,row-6e2i-vkty_ys8k,2015-12-02T17:40:19.962Z,rv-e3tt.5u29.4qp9,VOISE HS,-87.761916,41.885993,POINT (-87.76191637311167 41.885993287464316),3,37,1(773)534-0660,Network 3,AUSTIN,District,60644
1148 N Honore St,"PK, K, 1, 2, 3, 4, 5, 6, 7, 8",610520,Proco (Joe) Moreno III,ES,2015-12-02T17:40:19.962Z,row-f45p_85gk_2mcc,2015-12-02T17:40:19.962Z,rv-b9ka~2gpf-5dgy,LASALLE II,-87.673696,41.902914,POINT (-87.67369603158713 41.90291445754219),6,1,1(773)534-0490,Network 6,WEST TOWN,District,60622
6730 S Paulina St,"K, 1, 2, 3, 4, 5, 6, 7, 8",610521,JoAnn Thompson,ES,2015-12-02T17:40:19.962Z,row-hd9k.79sa-tpex,2015-12-02T17:40:19.962Z,rv-fsqi-wdwg.kryv,DAVIS M,-87.66653,41.771221,POINT (-87.66652988365753 41.77122111179404),11,16,1(773)535-9120,Network 11,WEST ENGLEWOOD,District,60636
6220 N Olcott Ave,"PK, K, 1, 2, 3, 4, 5, 6, 7, 8",610523,Mary O'Connor,ES,2015-12-02T17:40:19.962Z,row-qk63.amjf.px5e,2015-12-02T17:40:19.962Z,rv-dpds-xfsm.ehsq,EDISON PARK,-87.813771,41.994238,POINT (-87.81377123423147 41.9942379501437),1,41,1(773)534-0960,Network 1,NORWOOD PARK,District,60631
2957 N Hoyne Ave,"9, 10, 11, 12",610524,Scott Waguespack,HS,2015-12-02T17:40:19.962Z,row-izpm.d7zy~4cs2,2015-12-02T17:40:19.962Z,rv-wnia-f3au~edjg,ALCOTT HS,-87.680562,41.935795,POINT (-87.68056201291333 41.93579455631978),4,32,1(773)534-5970,Network 4,NORTH CENTER,District,60618
1250 W Erie St,"6, 7, 8, 9, 10, 11, 12",610529,Proco (Joe) Moreno III,HS,2015-12-02T17:40:19.962Z,row-eib6.97y5~wvcm,2015-12-02T17:40:19.962Z,rv-ighw.85g3_5gqh,OGDEN HS,-87.659405,41.893548,POINT (-87.65940468389965 41.89354763824293),6,1,1(773)534-0866,Network 6,WEST TOWN,District,60642
1415 E 70th St,"PK, K, 1, 2, 3, 4, 5, 6, 7, 8",610530,Leslie A. Hairston,ES,2015-12-02T17:40:19.962Z,row-vibp-nyq6-q8v6,2015-12-02T17:40:19.962Z,rv-9zdx_rnv2-vr3d,SOUTH SHORE,-87.590396,41.767755,POINT (-87.59039610191911 41.767755109237974),12,5,1(773)535-8340,Network 12,SOUTH SHORE,District,60637
3510 W 55th St,"6, 7, 8",610532,Edward M. Burke,ES,2015-12-02T17:40:19.962Z,row-g4sm_yc4y_m6vb,2015-12-02T17:40:19.962Z,rv-eiab~n4mi.qy2v,HERNANDEZ,-87.71137,41.793479,POINT (-87.71136992165582 41.79347933037279),8,14,1(773)535-8850,Network 8,GAGE PARK,District,60632
2231 N Central Ave,"PK, K, 1, 2, 3, 4, 5, 6, 7, 8",610533,Nicholas Sposato,ES,2015-12-02T17:40:19.962Z,row-xzek~q4sf.2exf,2015-12-02T17:40:19.962Z,rv-xqnt-kqdf_y56p,PRIETO,-87.765781,41.921318,POINT (-87.76578057073853 41.921317582747385),3,36,1(773)534-0210,ISP,BELMONT CRAGIN,District,60639
640 W Scott St,"K, 1, 2, 3, 4, 5, 6, 7, 8",610534,"Walter Burnett, Jr.",ES,2015-12-02T17:40:19.962Z,row-73p6~m7ki~fgq7,2015-12-02T17:40:19.962Z,rv-9x89_r5p8~9k8r,SKINNER NORTH,-87.644841,41.905109,POINT (-87.6448414953298 41.90510911963836),4,27,1(773)534-8500,Network 4,NEAR NORTH SIDE,District,60610
3000 N Mango Ave,"PK, K, 1, 2, 3, 4, 5, 6, 7, 8",610539,Ariel E. Reboyras,ES,2015-12-02T17:40:19.962Z,row-drdy.bzrq_ptgd,2015-12-02T17:40:19.962Z,rv-uid2-3px4_pwkg,CAMRAS,-87.770127,41.934931,POINT (-87.77012725780791 41.934930622963975),3,30,1(773)534-2960,Network 3,BELMONT CRAGIN,District,60634
3231 N Springfield Ave,"PK, K, 1, 2, 3, 4, 5, 6, 7, 8",610541,Ariel E. Reboyras,ES,2015-12-02T17:40:19.962Z,row-s3bb~wrj3-pyu3,2015-12-02T17:40:19.962Z,rv-ntgk_54zb_22ye,LORCA,-87.724783,41.940026,POINT (-87.7247831231648 41.940025913762256),4,30,1(773)534-0950,Network 4,AVONDALE,District,60618
6700 N Whipple St,"PK, K, 1, 2, 3, 4, 5, 6, 7, 8",610542,Debra L. Silverstein,ES,2015-12-02T17:40:19.962Z,row-cehd_kbz4-js93,2015-12-02T17:40:19.962Z,rv-pfmr-4ufz-62xz,WEST RIDGE,-87.705917,42.002959,POINT (-87.70591720544137 42.00295899493658),2,50,1(773)534-8250,Network 2,WEST RIDGE,District,60645
5400 S St Louis Ave,"9, 10, 11, 12",610543,Edward M. Burke,HS,2015-12-02T17:40:19.962Z,row-65sb~uzx2.einr,2015-12-02T17:40:19.962Z,rv-zmru_kqvq~ahbb,SOLORIO HS,-87.711059,41.795201,POINT (-87.7110588222941 41.79520055550273),8,14,1(773)535-9070,AUSL,GAGE PARK,District,60632
4707 W Marquette Rd,"PK, K, 1, 2, 3, 4, 5, 6, 7, 8",610544,Marty Quinn,ES,2015-12-02T17:40:19.962Z,row-kw7i.e78q~f5bd,2015-12-02T17:40:19.962Z,rv-x5rf.mcbw-s5sd,AZUELA,-87.73992,41.771079,POINT (-87.73992023347101 41.77107907304825),10,13,1(773)535-7395,Network 10,WEST LAWN,District,60629
1955 E 75th St,"9, 10, 11, 12",610547,Michelle A. Harris,HS,2015-12-02T17:40:19.962Z,row-bmzg_tugd.nfg2,2015-12-02T17:40:19.962Z,rv-dw96~8fws~vdcb,SOUTH SHORE INTL HS,-87.576353,41.758792,POINT (-87.57635263811758 41.758791663328175),12,8,1(773)535-8351,Network 12,SOUTH SHORE,District,60649
1522 W Fillmore St,"K, 1, 2, 3, 4, 5, 6, 7",610548,Jason C. Ervin,ES,2015-12-02T17:40:19.962Z,row-yajn-2m99-r57h,2015-12-02T17:40:19.962Z,rv-fm5r.ia7n-sjkn,STEM,-87.664969,41.868576,POINT (-87.6649691328739 41.86857587962179),6,28,1(773)534-7300,Network 6,NEAR WEST SIDE,District,60607
819 N Leamington Ave,"9, 10, 11, 12",610555,Emma M. Mitts,HS,2015-12-02T17:40:19.962Z,row-nxq4.ftp5_knu8,2015-12-02T17:40:19.962Z,rv-swt4~2a6c.4v9v,BANNER WEST HS,-87.754064,41.895678,POINT (-87.75406405282904 41.895677725388666),3,37,1(773)854-1188,Options,AUSTIN,ALOP,60651
3284 W 87th St,"9, 10, 11, 12",610557,Lona Lane,HS,2015-12-02T17:40:19.962Z,row-mw2m~mugq.z7ia,2015-12-02T17:40:19.962Z,rv-m8d3_p2jq.k4h9,PATHWAYS - ASHBURN HS,-87.70406,41.735239,POINT (-87.70406006744855 41.735239022689676),10,18,1(773)434-6300,Options,ASHBURN,ALOP,60652
7651 S Homan Ave,"9, 10, 11, 12",610558,Lona Lane,HS,2015-12-02T17:40:19.962Z,row-63rj.hha2.x7j4,2015-12-02T17:40:19.962Z,rv-2r5d~j7c7.pzyp,GOODE HS,-87.707345,41.75375,POINT (-87.70734534775225 41.75374980286195),10,18,1(773)535-7875,Network 10,ASHBURN,District,60652
2611 W 48th St,"5, 6, 7, 8",610559,Edward M. Burke,ES,2015-12-02T17:40:19.962Z,row-rbnr.xva7-menf,2015-12-02T17:40:19.962Z,rv-ken8.gkr4_wt92,SHIELDS MIDDLE,-87.68978,41.806491,POINT (-87.68977977296021 41.80649141123526),8,14,1(773)535-7115,Network 8,BRIGHTON PARK,District,60632
2245 W Jackson Blvd,"9, 10, 11",610561,"Walter Burnett, Jr.",HS,2015-12-02T17:40:19.962Z,row-kv5g-fkgh_ecmt,2015-12-02T17:40:19.962Z,rv-mbpi~7ijm-4b8h,CRANE MEDICAL HS,-87.683301,41.876947,POINT (-87.6833013466973 41.87694744418066),6,27,1(773)534-7600,Network 6,NEAR WEST SIDE,District,60612
2111 W 47th St,"9, 10, 11",610563,Toni L. Foulkes,HS,2015-12-02T17:40:19.962Z,row-iqcx-6b6x~e3ht,2015-12-02T17:40:19.962Z,rv-fdpr.cxiw_iewa,BACK OF THE YARDS HS,-87.677541,41.808413,POINT (-87.67754136777475 41.80841254361066),8,15,1(773)535-7320,Network 8,NEW CITY,District,60609
3900 N Lawndale Ave,"7, 8, 9, 10, 11",610564,John Arena,HS,2015-12-02T17:40:19.962Z,row-qd9a-bktt.hbds,2015-12-02T17:40:19.962Z,rv-43h5~5xxj~67df,DISNEY II HS,-87.721364,41.952488,POINT (-87.72136351147985 41.95248766987589),1,45,1(773)534-5010,ISP,IRVING PARK,District,60618
7141 S Morgan St,"9, 10, 11, 12",610565,Roderick T. Sawyer,HS,2015-12-02T17:40:19.962Z,row-x6nb.ep5h-vjvj,2015-12-02T17:40:19.962Z,rv-hi77-kka9~u6d4,CAMELOT - EXCEL ENGLEWOOD HS,-87.649124,41.763896,POINT (-87.64912434650894 41.763895973933494),11,6,1(773)675-6674,Options,ENGLEWOOD,Contract,60621
3222 W Roosevelt Rd,"9, 10, 11, 12",610566,Michael D. Chandler,HS,2015-12-02T17:40:19.962Z,row-sy6a~eywh.bqm2,2015-12-02T17:40:19.962Z,rv-hpxu-h8a9-aeth,MAGIC JOHNSON - N LAWNDALE HS,-87.706604,41.866478,POINT (-87.70660367627326 41.866477851545454),5,24,1(773)826-1137,Options,NORTH LAWNDALE,ALOP,60624
10928 S. Halsted Ave,"9, 10, 11, 12",610567,Carrie M. Austin,HS,2015-12-02T17:40:19.962Z,row-s3tu.8yhp.r84e,2015-12-02T17:40:19.962Z,rv-9shx-jn9s_fuu8,MAGIC JOHNSON - ROSELAND HS,-87.642697,41.69516,POINT (-87.64269696854774 41.6951598398265),13,34,1(773)468-1505,Options,MORGAN PARK,ALOP,60661
3100 W Belmont Ave,"9, 10, 11, 12",610568,Deborah Mell,HS,2015-12-02T17:40:19.962Z,row-ijwr-da3q-5ykb,2015-12-02T17:40:19.962Z,rv-vz83-x6w7-7tk6,PATHWAYS - AVONDALE HS,-87.705206,41.939433,POINT (-87.70520632193399 41.93943320970559),4,33,1(773)588-5007,Options,AVONDALE,ALOP,60618
7500 N Harlem Ave,"9, 10, 11, 12",610569,Mary O'Connor,HS,2015-12-02T17:40:19.962Z,row-n4rd_dg4z_5bm2,2015-12-02T17:40:19.962Z,rv-aw5f_4ay3_7qv3,OMBUDSMAN - NORTHWEST HS,-87.806682,42.017171,POINT (-87.80668177201913 42.017171239434354),1,41,1(312)806-9022,Options,EDISON PARK,ALOP,60631
6057 S. Western Ave,"9, 10, 11, 12",610570,JoAnn Thompson,HS,2015-12-02T17:40:19.962Z,row-wxji-vnqu~2rsk,2015-12-02T17:40:19.962Z,rv-ikte_j5qq~k7g5,OMBUDSMAN - SOUTH HS,-87.683635,41.783027,POINT (-87.68363453097783 41.783026581800456),10,16,1(773)498-5085 x6803,Options,CHICAGO LAWN,ALOP,60635
2401 W. Congress Pkwy,"9, 10, 11, 12",610571,Jason C. Ervin,HS,2015-12-02T17:40:19.962Z,row-tnwv_3n6v.esfp,2015-12-02T17:40:19.962Z,rv-2b6p_6nyg-szth,OMBUDSMAN - WEST HS,-87.687842,41.874673,POINT (-87.68784229472263 41.874672995048925),6,28,1(312)243-1550,Options,NEAR WEST SIDE,ALOP,60612
7847 S Jeffery Blvd,"9, 10, 11, 12",610574,Michelle A. Harris,HS,2015-12-02T17:40:19.962Z,row-mpde~74qi_66jf,2015-12-02T17:40:19.962Z,rv-wmkd~qv7e~qpj5,PROLOGUE - WINNIE MANDELA HS,-87.575883,41.752016,POINT (-87.57588303473396 41.75201588214243),12,8,1(773)-375-052,Options,SOUTH SHORE,ALOP,60649
845 W. 69th Street,"9, 10, 11, 12",610582,Roderick T. Sawyer,HS,2015-12-02T17:40:19.962Z,row-8idw.m5ys_hrc7,2015-12-02T17:40:19.962Z,rv-apdn_43u9_5mei,MAGIC JOHNSON - ENGLEWOOD HS,-87.646284,41.768729,POINT (-87.64628397589108 41.768729091077425),11,6,1(773)962-9256,Options,ENGLEWOOD,ALOP,60621
2421 W. Division,"9, 10, 11, 12",610580,Roberto Maldonado,HS,2015-12-02T17:40:19.962Z,row-zxrf.9a4x~knin,2015-12-02T17:40:19.962Z,rv-a6g6_svrz~z7re,MAGIC JOHNSON - HUMBOLDT PK HS,-87.687889,41.902925,POINT (-87.6878889935343 41.90292503240829),5,26,1(773)276-0620,Options,WEST TOWN,ALOP,60622
8401 S Saginaw Ave,"K, 1, 2",400168,Natashia Holmes,ES,2015-12-02T17:40:19.962Z,row-3qn2_uvcp~bedq,2015-12-02T17:40:19.962Z,rv-3kty.5uy8-sa72,GREAT LAKES,-87.559907,41.742671,POINT (-87.55990690197662 41.742671382172404),12,7,1(773)503-3040,Charter,SOUTH CHICAGO,Charter,60617
7877 S Coles Ave,"4, 5, 6, 7, 8",610572,Natashia Holmes,ES,2015-12-02T17:40:19.962Z,row-un2t.y9qa_exgs,2015-12-02T17:40:19.962Z,rv-ddt8.hd4n~8dqf,CAMELOT SAFE ES,-87.550513,41.753117,POINT (-87.55051275938422 41.75311714187749),12,7,1(773)902-2487,Options,SOUTH SHORE,Safe,60603
2625 N Orchard St,"PK, K, 1, 2, 3, 4, 5, 6, 7, 8",609774,Michele Smith,ES,2015-12-02T17:40:19.962Z,row-6pe5-xb5a-mu2j,2015-12-02T17:40:19.962Z,rv-bpzt.dxzg-rwva,ALCOTT ES,-87.646413,41.92985,POINT (-87.64641313686322 41.929849852681734),4,43,1(773)534-5460,Network 4,LINCOLN PARK,District,60614
2400 S Marshall Blvd,"PK, K, 1, 2, 3, 4, 5, 6, 7, 8",610184,George A. Cardenas,ES,2015-12-02T17:40:19.962Z,row-tvdi~2a4h~7uxj,2015-12-02T17:40:19.962Z,rv-nfev-qajn~q28q,SPRY ES,-87.700184,41.847747,POINT (-87.70018447188815 41.84774672276167),7,12,1(773)534-1700,Network 7,SOUTH LAWNDALE,District,60623
24 W Walton St,"K, 1, 2, 3, 4, 5",610101,Bob Fioretti,ES,2015-12-02T17:40:19.962Z,row-6a7h_c5nz-ncfi,2015-12-02T17:40:19.962Z,rv-vw57~9nu5.7gw9,OGDEN ES,-87.629297,41.899976,POINT (-87.62929656995749 41.899976489946404),6,2,1(773)534-8110,Network 6,NEAR NORTH SIDE,District,60610
3815 N Kedvale Ave,"PK, K, 1, 2, 3, 4, 5, 6",610515,John Arena,ES,2015-12-02T17:40:19.962Z,row-ffy9-pxfv~37ac,2015-12-02T17:40:19.962Z,rv-c2zj~7jzn-auw5,DISNEY II ES,-87.730678,41.950461,POINT (-87.73067837578635 41.950460505807186),1,45,1(773)534-3750,ISP,IRVING PARK,District,60641
7877 S Coles Ave,"9, 10, 11, 12",610573,Natashia Holmes,HS,2015-12-02T17:40:19.962Z,row-dte3_46wn.5b3r,2015-12-02T17:40:19.962Z,rv-q4cp~7ajg~tuhj,CAMELOT SAFE HS,-87.551804,41.753115,POINT (-87.55180355212208 41.753114901610154),12,7,1(773)902-2487,Options,SOUTH SHORE,Safe,60603
230 N. Kolmar Ave,"9, 10, 11, 12",610585,Jason C. Ervin,HS,2015-12-02T17:40:19.962Z,row-g39h~wb7d~ip8j,2015-12-02T17:40:19.962Z,rv-5kzn~vksg.sypx,CAMELOT SAFE - GARFIELD HS,-87.739485,41.884503,POINT (-87.73948468858086 41.88450326787312),5,28,TBD,Options,WEST GARFIELD PARK,Safe,60624
8908 S. Ashland Ave,"9, 10, 11, 12",610581,"Howard B. Brookins, Jr.",HS,2015-12-02T17:40:19.962Z,row-zfu6.uezz~wtfi,2015-12-02T17:40:19.962Z,rv-akud-dibw-gkyt,MAGIC JOHNSON - BRAINERD HS,-87.66314,41.731492,POINT (-87.66313972968939 41.73149230279183),11,21,1(773)238-2677,Options,WASHINGTON HEIGHTS,ALOP,60620
230 N. Kolmar Ave,"6, 7, 8",610584,Jason C. Ervin,ES,2015-12-02T17:40:19.962Z,row-iv4s.x3k2-w9xr,2015-12-02T17:40:19.962Z,rv-wxf6~96kh-cubw,CAMELOT SAFE - GARFIELD ES,-87.739484,41.883606,POINT (-87.73948390562697 41.8836056846397),5,28,TBD,Options,WEST GARFIELD PARK,Safe,60624
2989 N. Milwaukee Ave,9,400172,Ariel E. Reboyras,HS,2015-12-02T17:40:19.962Z,row-zqdx_ecq8.x4un,2015-12-02T17:40:19.962Z,rv-r227-fnrw-7fq9,ASPIRA - BUSINESS & FINANCE HS,-87.718204,41.935726,POINT (-87.71820414383025 41.935726467145294),4,30,1(773)252-0970,Charter,AVONDALE,Charter,60618
416 N. Laramie Ave,"K, 1",400178,Emma M. Mitts,ES,2015-12-02T17:40:19.962Z,row-hn5h_rimx_ef5m,2015-12-02T17:40:19.962Z,rv-r7y6.xx2f~r3dx,MOVING EVEREST,-87.755281,41.888259,POINT (-87.75542435401528 41.888262581521666),3,37,TBD,Charter,AUSTIN,Charter,60644
